street,name,lon,lat,religion,county,subcounty,type
ngara road,hare krishna temple,36.817894,-1.273668,hindu,nairobi city,starehe,religion
seminary drive,st. thomas aquinas seminary,36.757835,-1.348756,christian,nairobi city,langata,religion
nyerere road,st. andrew's,36.813509,-1.282698,christian,nairobi city,westlands,religion
ring road parklands,oshwal religious centre,36.805639,-1.259929,hindu,nairobi city,westlands,religion
address unknown,regina caeli karen catholic church,36.710697,-1.325597,christian,nairobi city,langata,religion
langata road,citam karen,36.759204,-1.341563,christian,nairobi city,langata,religion
valley road,greek othrodox patriarchiate,36.80622,-1.291279,christian,nairobi city,westlands,religion
waiyaki way,consolata shrine,36.802996,-1.267366,christian,nairobi city,westlands,religion
university way,lutheran catherdral,36.814863,-1.282375,christian,nairobi city,westlands,religion
jahmuri road,nairobi chapel ngong road,36.754587,-1.30536,christian,nairobi city,kibra,religion
address unknown,main prayer hall,36.847929,-1.265133,muslim,nairobi city,mathare,religion
eastleigh 1st avenue,st.teresa catholic church,36.847387,-1.267283,christian,nairobi city,kamukunji,religion
nyeri road,holy trinity catholic church kileleshwa,36.780412,-1.282303,christian,nairobi city,westlands,religion
address unknown,faith home of kenya,36.878285,-1.25359,christian,nairobi city,mathare,religion
city hall way,holy family basilica,36.820736,-1.287221,christian,nairobi city,starehe,religion
kenyatta avenue,all saints cathedral,36.813508,-1.289336,christian,nairobi city,westlands,religion
ngong road,nairobi baptist church,36.800681,-1.29776,christian,nairobi city,westlands,religion
mbagathi way,saint lukes,36.803324,-1.307127,christian,nairobi city,kibra,religion
mbagathi way,madina centre mosque nairobi,36.802058,-1.302982,muslim,nairobi city,kibra,religion
5th avenue ngong,newlife sda church,36.807831,-1.294467,christian,nairobi city,westlands,religion
ngara road,hare krishna temple,36.818079,-1.273483,hindu,nairobi city,starehe,religion
kolobot road,jain shwetamber munisuvratswami temple,36.819218,-1.270808,hindu,nairobi city,starehe,religion
oshwal road,mahajanwadi temple.,36.819431,-1.270342,hindu,nairobi city,starehe,religion
address unknown,"sikh temple,pangani",36.833467,-1.269383,sikh,nairobi city,starehe,religion
murang'a road,nairobi headquarters jamatkhana,36.833263,-1.267655,hindu,nairobi city,starehe,religion
desai road,shree lohana mahajan mandal,36.829003,-1.270056,hindu,nairobi city,starehe,religion
address unknown,shree vishwakarma mandir nairobi,36.81888,-1.272259,hindu,nairobi city,starehe,religion
likoni road,makongeni seventh day adventist church,36.854415,-1.299289,christian,nairobi city,makadara,religion
likoni road,"aic church, makongeni",36.854996,-1.297853,christian,nairobi city,makadara,religion
jogoo road,st. stephens church,36.854999,-1.29559,christian,nairobi city,makadara,religion
langata road,citam karen,36.758722,-1.340239,christian,nairobi city,langata,religion
seminary drive,shrine of the sacred heart of jesus - karen,36.756822,-1.342413,christian,nairobi city,langata,religion
address unknown,st john the evangelist church,36.746093,-1.357214,christian,nairobi city,langata,religion
banda street,jamia mosque,36.820763,-1.283469,muslim,nairobi city,starehe,religion
address unknown,kingdom hall of jehovah's witnesses,36.873902,-1.283698,christian,nairobi city,makadara,religion
donyo sabuk avenue,franciscan friary,36.7982,-1.250674,christian,nairobi city,westlands,religion
address unknown,fanusi,36.811408,-1.282822,christian,nairobi city,westlands,religion
kayole spine road,divine word parish kayole,36.914577,-1.269911,christian,nairobi city,embakasi,religion
langata road,deliverance church langata,36.799501,-1.322729,christian,nairobi city,langata,religion
rabai road,nairobi calvary temple,36.873397,-1.277132,christian,nairobi city,kamukunji,religion
kaumoni crescent,theravada buddhist temple,36.748057,-1.252518,buddhist,nairobi city,westlands,religion
kaumoni crescent,theravada buddhist temple,36.747961,-1.252399,buddhist,nairobi city,westlands,religion
loresho ridge,loresho community church,36.751088,-1.252582,christian,nairobi city,westlands,religion
kiambu road,our lady of the rosary catholic church,36.837596,-1.22437,christian,nairobi city,westlands,religion
address unknown,nairobi synagogue,36.815417,-1.28103,jewish,nairobi city,starehe,religion
address unknown,karen vineyard church,36.71398,-1.317488,christian,nairobi city,langata,religion
bunyala road,christian foundation fellowship,36.824888,-1.298985,christian,nairobi city,starehe,religion
matumbato road,don bosco catholic church,36.82074,-1.302484,christian,nairobi city,kibra,religion
joseph kang'ethe,citam woodley,36.7738,-1.304214,christian,nairobi city,kibra,religion
ngong road,bethel church,36.801182,-1.297575,christian,nairobi city,westlands,religion
thika road,"queen of apostles, ruaraka catholic mision",36.884611,-1.228577,christian,nairobi city,kasarani,religion
address unknown,pcea kahawa farmers church,36.897316,-1.189725,christian,nairobi city,kasarani,religion
thika road,church of the lord,36.872389,-1.236703,christian,nairobi city,kasarani,religion
milimani road,maxwells s.d.a. church,36.807661,-1.288739,christian,nairobi city,westlands,religion
valley road,citam valley road,36.805591,-1.291686,christian,nairobi city,westlands,religion
valley road,jubilee ministry centre (jmc),36.806017,-1.291534,christian,nairobi city,westlands,religion
ngong road,sudan church,36.764555,-1.299179,christian,nairobi city,westlands,religion
jamhuri crescent,friends international centre,36.789032,-1.300506,christian,nairobi city,kibra,religion
address unknown,jcc,36.847151,-1.31824,christian,nairobi city,starehe,religion
langata road,karengata sda church,36.764322,-1.341822,christian,nairobi city,langata,religion
address unknown,parklands mosque,36.811087,-1.256598,muslim,nairobi city,westlands,religion
address unknown,main chapel,36.72881,-1.300309,christian,nairobi city,dagoretti,religion
address unknown,catholic chapel,36.729206,-1.300056,christian,nairobi city,dagoretti,religion
ngong road,central church of the nazarene,36.798519,-1.298058,christian,nairobi city,westlands,religion
haile selassie avenue,neno evangelism centre,36.821505,-1.293075,christian,nairobi city,starehe,religion
address unknown,ack st. paul's nairobi parish,36.818681,-1.312913,christian,nairobi city,langata,religion
address unknown,africa inland church,36.81582,-1.314337,christian,nairobi city,langata,religion
address unknown,seventh day adventist,36.750061,-1.300202,christian,nairobi city,dagoretti,religion
address unknown,east africa satsang swaminarayan temple,36.816145,-1.268678,hindu,nairobi city,westlands,religion
address unknown,harvester's umoja,36.895702,-1.276896,christian,nairobi city,embakasi,religion
address unknown,oshwall community centre,36.805599,-1.259928,jain,nairobi city,westlands,religion
address unknown,winners chapel international,36.850524,-1.32112,christian,nairobi city,starehe,religion
address unknown,sri sanatan dharma sabha,36.791685,-1.252984,hindu,nairobi city,westlands,religion
southern bypass,house of prayer christian church,36.843676,-1.327029,christian,nairobi city,langata,religion
address unknown,baptistery & confessions,36.820534,-1.287594,christian,nairobi city,starehe,religion
koinage street,holy family cathedral hall,36.820447,-1.286957,christian,nairobi city,starehe,religion
address unknown,bethel home of jehovah's witnesses,36.779968,-1.295474,christian,nairobi city,westlands,religion
address unknown,missionaries of the poor,36.949889,-1.25088,christian,nairobi city,njiru,religion
jogoo road,npc buruburu,36.881046,-1.295902,christian,nairobi city,makadara,religion
address unknown,ku seventh day church,36.930382,-1.185288,christian,nairobi city,kasarani,religion
address unknown,ku mosque,36.927903,-1.184787,muslim,nairobi city,kasarani,religion
address unknown,ku catholic curch,36.931166,-1.185298,christian,nairobi city,kasarani,religion
gathuru road,missionary sisters of the precious blood,36.738907,-1.282698,christian,nairobi city,dagoretti,religion
brookside drive,baba isher singh ji community centre,36.795691,-1.255493,sikh,nairobi city,westlands,religion
swamibapa road,shree swaminarayan sidhant sajivan mandal,36.820718,-1.263898,hindu,nairobi city,westlands,religion
address unknown,nairobi chapel parklands,36.822817,-1.256753,christian,nairobi city,westlands,religion
address unknown,p.c.e.a evergreen church,36.829095,-1.223469,christian,nairobi city,westlands,religion
ngong road,st. francis karen,36.720208,-1.315777,christian,nairobi city,langata,religion
karen road,dimesse sisters karen,36.715217,-1.334267,christian,nairobi city,langata,religion
address unknown,faith evangelistic ministry family church,36.709206,-1.327272,christian,nairobi city,langata,religion
address unknown,franciscan elizabethan sisters,36.704413,-1.305582,christian,nairobi city,langata,religion
address unknown,shree kutch satsang swaminarayan mandir - nairobi,36.798793,-1.330369,hindu,nairobi city,langata,religion
address unknown,faith international church,36.880425,-1.309194,christian,nairobi city,makadara,religion
seasons road,pcea kasarani chiiko church,36.903305,-1.215122,christian,nairobi city,kasarani,religion
suna road,our lady of guadalupe catholic church,36.779168,-1.301185,christian,nairobi city,kibra,religion
ngong road,congregation of our lady of the missions,36.780488,-1.299257,christian,nairobi city,westlands,religion
kindaruma road,free free pentecostal fellowship in kenya,36.784663,-1.297301,christian,nairobi city,westlands,religion
address unknown,sai baba mandir parklands,36.814377,-1.256347,hindu,nairobi city,westlands,religion
address unknown,hindu council of kenya,36.815811,-1.257641,hindu,nairobi city,westlands,religion
address unknown,shree ambaji temple,36.82618,-1.316087,hindu,nairobi city,langata,religion
address unknown,bhakti marga centre,36.812913,-1.263435,hindu,nairobi city,westlands,religion
waiyaki way,all africa conference of churches,36.787291,-1.260261,christian,nairobi city,westlands,religion
woodlands road,hurlingham mosque,36.798908,-1.292395,muslim,nairobi city,westlands,religion
shule road,aic jericho church,36.872102,-1.287311,christian,nairobi city,makadara,religion
ol doinyo sabuk road,ack st. james church,36.878964,-1.281895,christian,nairobi city,makadara,religion
address unknown,abc church sinai,36.880549,-1.308948,christian,nairobi city,makadara,religion
muthithi road,shree hanuman temple,36.809045,-1.267492,hindu,nairobi city,westlands,religion
ngong road,nairobi international lutheran church,36.747789,-1.303386,christian,nairobi city,dagoretti,religion
address unknown,gospel mission of christ church (heart of worship),36.802431,-1.316606,christian,nairobi city,langata,religion
kamiti road,ack st. andrews zimmerman,36.895195,-1.206164,christian,nairobi city,kasarani,religion
address unknown,international christian assemblies,36.771935,-1.312259,christian,nairobi city,kibra,religion
address unknown,st. barnabas anglican church,36.778761,-1.323157,christian,nairobi city,langata,religion
address unknown,church on the rock,36.777677,-1.317684,christian,nairobi city,langata,religion
address unknown,salvation army,36.773975,-1.311519,christian,nairobi city,kibra,religion
address unknown,world harvest center,36.794073,-1.318327,christian,nairobi city,kibra,religion
address unknown,vision of holy spirit,36.800206,-1.312915,christian,nairobi city,kibra,religion
address unknown,lindi mosque,36.791873,-1.314649,muslim,nairobi city,kibra,religion
address unknown,legio maria (african church mission),36.792809,-1.313717,christian,nairobi city,kibra,religion
address unknown,st christine community church,36.778741,-1.31664,christian,nairobi city,kibra,religion
address unknown,community church,36.77884,-1.317148,christian,nairobi city,kibra,religion
address unknown,kingdom hall of jehovahs witness,36.780391,-1.314902,christian,nairobi city,kibra,religion
address unknown,tumaini church,36.784802,-1.312764,christian,nairobi city,kibra,religion
address unknown,d.c mosque,36.785536,-1.308541,muslim,nairobi city,kibra,religion
address unknown,makina mosque,36.785799,-1.309797,muslim,nairobi city,kibra,religion
address unknown,holy mountain worship center,36.794615,-1.317096,christian,nairobi city,kibra,religion
address unknown,laini saba mosque,36.795132,-1.312984,muslim,nairobi city,kibra,religion
address unknown,adc church,36.789742,-1.310157,christian,nairobi city,kibra,religion
address unknown,nairobi dam pentecostal church,36.794215,-1.318751,christian,nairobi city,kibra,religion
address unknown,st veronica catholic church,36.794161,-1.314509,christian,nairobi city,kibra,religion
address unknown,anglican church,36.789527,-1.308104,christian,nairobi city,kibra,religion
address unknown,kambi muru mosque,36.790592,-1.311767,muslim,nairobi city,kibra,religion
address unknown,light evangelism,36.779586,-1.318616,christian,nairobi city,langata,religion
address unknown,olympic catholic church,36.780401,-1.314176,christian,nairobi city,kibra,religion
address unknown,berith life church,36.777286,-1.312732,christian,nairobi city,kibra,religion
address unknown,the door christian fellowship,36.796659,-1.313608,christian,nairobi city,kibra,religion
address unknown,a.i.c laini saba,36.794065,-1.312286,christian,nairobi city,kibra,religion
address unknown,kibera church of god,36.794897,-1.310945,christian,nairobi city,kibra,religion
address unknown,glory worship center,36.796312,-1.311766,christian,nairobi city,kibra,religion
address unknown,a.c.f church,36.7937,-1.30952,christian,nairobi city,kibra,religion
address unknown,aic church,36.799614,-1.314231,christian,nairobi city,langata,religion
address unknown,end times church,36.785886,-1.313752,christian,nairobi city,kibra,religion
address unknown,kingdom hall,36.788727,-1.31339,christian,nairobi city,kibra,religion
address unknown,living bread church of christ,36.777528,-1.315354,christian,nairobi city,kibra,religion
address unknown,maranatha faith assembly,36.780849,-1.316579,christian,nairobi city,kibra,religion
address unknown,hope gospel church,36.790407,-1.315414,christian,nairobi city,kibra,religion
address unknown,beth face church,36.777731,-1.316861,christian,nairobi city,langata,religion
address unknown,p.c.e.a emmanuel centre kibera parish,36.779774,-1.310736,christian,nairobi city,kibra,religion
address unknown,calvary temple of east africa,36.780342,-1.314745,christian,nairobi city,kibra,religion
address unknown,nyumba ya maombi,36.785519,-1.314692,christian,nairobi city,kibra,religion
address unknown,all saints cathedral diocese,36.786025,-1.314746,christian,nairobi city,kibra,religion
address unknown,bible truth revival church,36.796534,-1.312515,christian,nairobi city,kibra,religion
address unknown,healing and intercessory ministry,36.798023,-1.311801,christian,nairobi city,kibra,religion
address unknown,the door fellowship church,36.774334,-1.308521,christian,nairobi city,kibra,religion
address unknown,ayany mosque,36.775869,-1.309122,muslim,nairobi city,kibra,religion
address unknown,jesus winners church,36.798831,-1.315304,christian,nairobi city,langata,religion
address unknown,centrol church,36.797388,-1.313696,christian,nairobi city,kibra,religion
address unknown,family network cchurch,36.797356,-1.313241,christian,nairobi city,kibra,religion
address unknown,world misionary church,36.801814,-1.315535,christian,nairobi city,langata,religion
address unknown,peace of christ church,36.791864,-1.309535,christian,nairobi city,kibra,religion
address unknown,aic mashimoni loc,36.792816,-1.309593,christian,nairobi city,kibra,religion
address unknown,qdc c church,36.788403,-1.310649,christian,nairobi city,kibra,religion
address unknown,sda church undugu mill,36.798639,-1.317761,christian,nairobi city,kibra,religion
address unknown,st. daniel comboni catholic church,36.798408,-1.317475,christian,nairobi city,kibra,religion
address unknown,the door church,36.797937,-1.317251,christian,nairobi city,kibra,religion
address unknown,evangelical missions worldwide,36.795247,-1.31628,christian,nairobi city,kibra,religion
address unknown,"ack emmanuel church, school & clinic",36.798681,-1.318449,christian,nairobi city,kibra,religion
address unknown,fellowship church of christ,36.798142,-1.318736,christian,nairobi city,kibra,religion
address unknown,mission outreach church,36.795217,-1.315882,christian,nairobi city,kibra,religion
address unknown,pcea church and high school,36.797107,-1.317415,christian,nairobi city,kibra,religion
address unknown,silom fellowship ministry and academy,36.797679,-1.317193,christian,nairobi city,kibra,religion
address unknown,the word felloship church,36.790995,-1.31116,christian,nairobi city,kibra,religion
address unknown,jesus worship centre,36.797162,-1.313443,christian,nairobi city,langata,religion
address unknown,cross mission international centre,36.797541,-1.314079,christian,nairobi city,kibra,religion
address unknown,kibera all nations church,36.773853,-1.310966,christian,nairobi city,kibra,religion
address unknown,apostles believers church,36.776182,-1.312318,christian,nairobi city,kibra,religion
address unknown,pentecostal fellowship church,36.776544,-1.311537,christian,nairobi city,kibra,religion
address unknown,voice of salvation,36.779094,-1.314991,christian,nairobi city,kibra,religion
address unknown,masjid jamia salama mosque,36.78202,-1.310845,muslim,nairobi city,kibra,religion
address unknown,alaqsa mosque,36.780427,-1.31012,muslim,nairobi city,kibra,religion
address unknown,new hife home missionary,36.782023,-1.307716,christian,nairobi city,kibra,religion
address unknown,makongeni catholic church,36.788888,-1.309097,christian,nairobi city,kibra,religion
address unknown,pag church nyanza region,36.796619,-1.318001,christian,nairobi city,kibra,religion
address unknown,aic church,36.799252,-1.317863,christian,nairobi city,kibra,religion
address unknown,handmark baptised church,36.799261,-1.31717,christian,nairobi city,kibra,religion
address unknown,revival church,36.800778,-1.313885,christian,nairobi city,langata,religion
address unknown,reedemed gospel church-laini saba,36.795781,-1.31104,christian,nairobi city,kibra,religion
address unknown,better life center kibera church,36.776437,-1.289904,christian,nairobi city,westlands,religion
address unknown,apostolic fellowship church of kibera,36.791598,-1.31363,christian,nairobi city,kibra,religion
address unknown,lindi friends church,36.79397,-1.316676,christian,nairobi city,kibra,religion
address unknown,deliverance church,36.796358,-1.318639,christian,nairobi city,kibra,religion
address unknown,jamhuri sda church,36.772001,-1.308223,christian,nairobi city,kibra,religion
address unknown,sodid rock revival church,36.772677,-1.307406,christian,nairobi city,kibra,religion
address unknown,seventh day adventist church,36.790465,-1.308736,christian,nairobi city,kibra,religion
address unknown,fpkf church,36.78257,-1.307093,christian,nairobi city,kibra,religion
address unknown,a.b.c church,36.795358,-1.311823,christian,nairobi city,kibra,religion
address unknown,church of mercy,36.782792,-1.313783,christian,nairobi city,kibra,religion
address unknown,st george orthodox church,36.775174,-1.311843,christian,nairobi city,kibra,religion
address unknown,katwekera sda church,36.781124,-1.314593,christian,nairobi city,kibra,religion
address unknown,kambi madrasa,36.785441,-1.305907,muslim,nairobi city,kibra,religion
address unknown,jamhuri church of christ,36.774116,-1.311314,christian,nairobi city,kibra,religion
address unknown,k.a.g church,36.787396,-1.311465,christian,nairobi city,kibra,religion
address unknown,assemblies of god kibera,36.798388,-1.312765,christian,nairobi city,kibra,religion
address unknown,christ the king parish,36.794508,-1.310428,christian,nairobi city,kibra,religion
address unknown,masjid salaam,36.829568,-1.319608,muslim,nairobi city,langata,religion
address unknown,mandir,36.818377,-1.25703,hindu,nairobi city,westlands,religion
oloitoktok road,methodist ministries centre,36.776318,-1.290285,christian,nairobi city,westlands,religion
address unknown,shree jalaram satsang mandal,36.806788,-1.257561,hindu,nairobi city,westlands,religion
kingara road,emmanuel baptist church,36.76115,-1.291899,christian,nairobi city,westlands,religion
address unknown,outreach community church,36.792732,-1.311421,christian,nairobi city,kibra,religion
address unknown,outreach community church,36.775136,-1.312513,christian,nairobi city,kibra,religion
thika road,overcomming faith church (ofc),36.87902,-1.228967,christian,nairobi city,kasarani,religion
kasarani mwiki road,the nairobi korean church,36.903821,-1.220051,christian,nairobi city,kasarani,religion
murang'a road,pbbm,36.826497,-1.272256,christian,nairobi city,starehe,religion
address unknown,azusa world ministries,36.775469,-1.314795,christian,nairobi city,kibra,religion
address unknown,pcea church kuwinda,36.743447,-1.334867,christian,nairobi city,langata,religion
address unknown,anglican church of kenya,36.787174,-1.227045,christian,nairobi city,westlands,religion
address unknown,pcea kayole,36.913325,-1.27089,christian,nairobi city,embakasi,religion
tembo road,ack - st. mathews church karen,36.742293,-1.366521,christian,nairobi city,langata,religion
mai mahiu road,pcea nairobi west,36.818963,-1.312924,christian,nairobi city,langata,religion
address unknown,st. catherine of siena catholic church,36.775189,-1.233405,christian,nairobi city,westlands,religion
address unknown,nairobi pentecostal church (central),36.805569,-1.291698,christian,nairobi city,westlands,religion
address unknown,saint bakhita,36.778403,-1.315688,christian,nairobi city,kibra,religion
address unknown,nomiya church,36.794803,-1.318893,christian,nairobi city,kibra,religion
address unknown,world ecclesiastes church,36.794877,-1.319261,christian,nairobi city,kibra,religion
address unknown,assumption of mary catholic church umoja,36.888573,-1.281862,christian,nairobi city,embakasi,religion
address unknown,international bible students association (jehovah's witnesses)church,36.777664,-1.295148,christian,nairobi city,westlands,religion
address unknown,soweto west llc church,36.776017,-1.313806,christian,nairobi city,kibra,religion
state house cre,aic milimani,36.810414,-1.287156,christian,nairobi city,westlands,religion
address unknown,pefa church imara daima,36.885918,-1.321973,christian,nairobi city,embakasi,religion
address unknown,maji mazuri gospel church,36.884457,-1.319684,christian,nairobi city,embakasi,religion
address unknown,mukuru catholic church,36.881184,-1.314594,christian,nairobi city,embakasi,religion
address unknown,truth and freedom ministries,36.884824,-1.314425,christian,nairobi city,embakasi,religion
address unknown,african inland church bethany,36.886599,-1.316536,christian,nairobi city,embakasi,religion
address unknown,blessed mountain center,36.886826,-1.317951,christian,nairobi city,embakasi,religion
address unknown,masjid bukhari,36.822031,-1.324249,muslim,nairobi city,langata,religion
address unknown,masjid noor south c,36.824005,-1.312137,muslim,nairobi city,langata,religion
address unknown,st. peter's methodist church,36.785525,-1.327312,christian,nairobi city,langata,religion
address unknown,the church of jesus christ of latter-day saints,36.891619,-1.213298,christian,nairobi city,kasarani,religion
address unknown,tassia central sda,36.905981,-1.30166,christian,nairobi city,embakasi,religion
ngong road,adams's arcade mosque,36.781087,-1.300304,muslim,nairobi city,kibra,religion
mombasa road,international christian church center,36.876682,-1.326279,christian,nairobi city,embakasi,religion
address unknown,st. john everlasting gospel church,36.881724,-1.324615,christian,nairobi city,embakasi,religion
address unknown,cathedral of praise ministries and king solomon education center,36.883663,-1.323855,christian,nairobi city,embakasi,religion
address unknown,reuben center,36.869217,-1.315916,christian,nairobi city,embakasi,religion
address unknown,agape fellowship church,36.874406,-1.318334,christian,nairobi city,embakasi,religion
address unknown,memon mosque,36.824375,-1.323527,muslim,nairobi city,langata,religion
address unknown,aic lunga lunga church,36.870743,-1.311585,christian,nairobi city,makadara,religion
address unknown,st. bakhita catholic church,36.888748,-1.325324,christian,nairobi city,embakasi,religion
address unknown,church on the rock,36.87327,-1.314934,christian,nairobi city,embakasi,religion
address unknown,faith healing center,36.86641,-1.316593,christian,nairobi city,embakasi,religion
address unknown,apostolic faith church,36.869309,-1.313926,christian,nairobi city,embakasi,religion
address unknown,jesus sanctuary,36.868967,-1.315612,christian,nairobi city,embakasi,religion
address unknown,rabii church of the holy spirit,36.885761,-1.313089,christian,nairobi city,embakasi,religion
address unknown,jehova witness church,36.867915,-1.31374,christian,nairobi city,embakasi,religion
address unknown,al-huda mosque kwa njenga,36.882807,-1.314806,muslim,nairobi city,embakasi,religion
address unknown,light evangelical church,36.871264,-1.313269,christian,nairobi city,embakasi,religion
address unknown,goshen pentecostal church,36.865078,-1.31555,christian,nairobi city,embakasi,religion
address unknown,viwandani fellowship cemter,36.870167,-1.313379,christian,nairobi city,embakasi,religion
address unknown,reuben baptist church,36.866217,-1.316008,christian,nairobi city,embakasi,religion
address unknown,tumaini church,36.885792,-1.314423,christian,nairobi city,embakasi,religion
address unknown,taqwa mosque,36.886587,-1.320908,muslim,nairobi city,embakasi,religion
address unknown,p.a.g church,36.874454,-1.311321,christian,nairobi city,makadara,religion
address unknown,st. jude's catholic church,36.870098,-1.314319,christian,nairobi city,embakasi,religion
address unknown,the door,36.869982,-1.313954,christian,nairobi city,embakasi,religion
address unknown,aipcea church,36.872788,-1.314244,christian,nairobi city,embakasi,religion
address unknown,deliverance church,36.874488,-1.316927,christian,nairobi city,embakasi,religion
address unknown,pcea church,36.872955,-1.310909,christian,nairobi city,makadara,religion
address unknown,kwa rueben s.d.a. church,36.871917,-1.313614,christian,nairobi city,embakasi,religion
address unknown,agape kingstone fellowship church,36.863083,-1.314202,christian,nairobi city,makadara,religion
address unknown,lunga lunga mosque,36.870717,-1.311183,muslim,nairobi city,makadara,religion
address unknown,reheboth christian gospel church,36.885146,-1.308462,christian,nairobi city,embakasi,religion
address unknown,mukuru catholic church,36.881366,-1.314378,christian,nairobi city,embakasi,religion
address unknown,jehova witness church,36.870265,-1.313143,christian,nairobi city,embakasi,religion
address unknown,glorious land gospel church,36.887408,-1.318895,christian,nairobi city,embakasi,religion
address unknown,st. mary's parish catholic church,36.881828,-1.314093,christian,nairobi city,embakasi,religion
address unknown,medical missionary of mary(mmm) church,36.881222,-1.313134,christian,nairobi city,embakasi,religion
address unknown,salvation army church,36.882706,-1.313601,christian,nairobi city,embakasi,religion
address unknown,calvary temple,36.888933,-1.324286,christian,nairobi city,embakasi,religion
address unknown,new apostolic church,36.88232,-1.313701,christian,nairobi city,embakasi,religion
address unknown,kingstone mosque,36.864661,-1.311285,muslim,nairobi city,makadara,religion
address unknown,deliverance church eastleigh,36.847145,-1.275628,christian,nairobi city,kamukunji,religion
address unknown,masjid al-huda,36.839716,-1.309896,muslim,nairobi city,starehe,religion
address unknown,christ life liberation,36.779132,-1.315125,christian,nairobi city,kibra,religion
address unknown,kibera all nation,36.790538,-1.31038,christian,nairobi city,kibra,religion
address unknown,good will ministries church,36.857466,-1.263656,christian,nairobi city,mathare,religion
address unknown,children of god generation church,36.855117,-1.26267,christian,nairobi city,mathare,religion
address unknown,glorious celebration centre,36.85609,-1.263572,christian,nairobi city,mathare,religion
address unknown,sinai church of god,36.855785,-1.263667,christian,nairobi city,mathare,religion
address unknown,a.i.p.c.a -4b church,36.855941,-1.263547,christian,nairobi city,mathare,religion
address unknown,redeemed goslpel church,36.849605,-1.264564,christian,nairobi city,mathare,religion
address unknown,hosanah church,36.849027,-1.264376,christian,nairobi city,mathare,religion
address unknown,st marks mathare church,36.850685,-1.264572,christian,nairobi city,mathare,religion
address unknown,el-shaddai church,36.850596,-1.265702,christian,nairobi city,mathare,religion
address unknown,jesus is the way,36.858833,-1.265377,christian,nairobi city,mathare,religion
juja road,new jerusalem holy ghost church,36.853762,-1.265993,christian,nairobi city,kamukunji,religion
address unknown,madarasatu umar alfaruk mosque,36.875414,-1.255668,muslim,nairobi city,mathare,religion
address unknown,hosana blessed church,36.87423,-1.257285,christian,nairobi city,mathare,religion
address unknown,masjidulaqsa islamic centre,36.874972,-1.253669,muslim,nairobi city,mathare,religion
address unknown,evangelical victory church,36.874737,-1.256375,christian,nairobi city,mathare,religion
address unknown,revelation truth,36.851351,-1.262846,christian,nairobi city,mathare,religion
address unknown,church of god,36.853532,-1.262936,christian,nairobi city,mathare,religion
address unknown,p.c.e.a. church,36.851457,-1.262726,christian,nairobi city,mathare,religion
address unknown,st. veronica,36.850904,-1.262676,christian,nairobi city,mathare,religion
eastleigh 1st avenue,st. teresa's catholic church eastleigh,36.847638,-1.267077,christian,nairobi city,kamukunji,religion
address unknown,heritage worship church,36.85237,-1.264375,christian,nairobi city,mathare,religion
address unknown,christ the arrow of deliverance church,36.853492,-1.264382,christian,nairobi city,mathare,religion
address unknown,lives changing center,36.851976,-1.265849,christian,nairobi city,mathare,religion
address unknown,christ the way church,36.851449,-1.265594,christian,nairobi city,mathare,religion
address unknown,roho israel church of god,36.857371,-1.262363,christian,nairobi city,kasarani,religion
address unknown,apostolic fellowship church,36.859249,-1.26103,christian,nairobi city,kasarani,religion
address unknown,mathare mosque,36.856559,-1.261939,muslim,nairobi city,kasarani,religion
address unknown,mowara israel church,36.857513,-1.261913,christian,nairobi city,kasarani,religion
address unknown,israel church,36.856765,-1.261818,christian,nairobi city,kasarani,religion
address unknown,st john evalasting gospel church,36.858912,-1.261365,christian,nairobi city,kasarani,religion
address unknown,hope of glory ministry belivers center,36.856182,-1.261767,christian,nairobi city,kasarani,religion
address unknown,redeemed gospel church,36.857509,-1.26157,christian,nairobi city,kasarani,religion
address unknown,salvation army,36.866867,-1.253458,christian,nairobi city,kasarani,religion
address unknown,mathare north evangelical methodist,36.871674,-1.251063,christian,nairobi city,kasarani,religion
address unknown,soul winning church,36.866649,-1.256337,christian,nairobi city,kasarani,religion
address unknown,narrow gateway restoration,36.868796,-1.254404,christian,nairobi city,kasarani,religion
address unknown,st.stephen catholic church,36.87565,-1.251386,christian,nairobi city,kasarani,religion
address unknown,mathare north sda,36.873606,-1.249804,christian,nairobi city,kasarani,religion
address unknown,house of transformation kasarani,36.912914,-1.22026,christian,nairobi city,kasarani,religion
address unknown,a.i.c skyway,36.958967,-1.277979,christian,nairobi city,njiru,religion
address unknown,seventh day adventist church skyway,36.95806,-1.2789,christian,nairobi city,njiru,religion
address unknown,st. jude catholic church,36.889841,-1.297059,christian,nairobi city,embakasi,religion
address unknown,mountain view sda church,36.73714,-1.261408,christian,nairobi city,westlands,religion
address unknown,upperhill springs s.d.a,36.821349,-1.303891,christian,nairobi city,kibra,religion
address unknown,rosa mystica spiritual center church,36.762474,-1.296796,christian,nairobi city,westlands,religion
address unknown,baps shri swaminarayan mandir,36.822531,-1.268354,hindu,nairobi city,westlands,religion
address unknown,african christian church,36.850414,-1.264333,christian,nairobi city,mathare,religion
address unknown,aipca church,36.844308,-1.263765,christian,nairobi city,mathare,religion
address unknown,peniel ministry church,36.843288,-1.264482,christian,nairobi city,mathare,religion
address unknown,pag church,36.866451,-1.260684,christian,nairobi city,mathare,religion
address unknown,redeemed gospel church,36.866005,-1.261172,christian,nairobi city,mathare,religion
address unknown,kag uthiru assembly,36.710167,-1.262462,christian,nairobi city,dagoretti,religion
address unknown,roho israel church of god,36.857149,-1.263076,christian,nairobi city,mathare,religion
address unknown,gospel tabernacle church,36.862772,-1.260198,christian,nairobi city,mathare,religion
address unknown,internationale evangelical church,36.865343,-1.262339,christian,nairobi city,mathare,religion
address unknown,african divine church org. vct,36.865379,-1.262125,christian,nairobi city,mathare,religion
address unknown,word temple church,36.864285,-1.259043,christian,nairobi city,mathare,religion
address unknown,christ co. fellowship church,36.865354,-1.262195,christian,nairobi city,mathare,religion
address unknown,friends church,36.865007,-1.26088,christian,nairobi city,mathare,religion
address unknown,agape church,36.863518,-1.262309,christian,nairobi city,mathare,religion
address unknown,aipca church,36.861843,-1.263355,christian,nairobi city,mathare,religion
address unknown,maranatha church,36.861535,-1.262611,christian,nairobi city,mathare,religion
address unknown,god's time miracle center,36.86218,-1.263133,christian,nairobi city,mathare,religion
address unknown,"a.d.c, church",36.862036,-1.261172,christian,nairobi city,mathare,religion
address unknown,faith assembly and nursery school,36.861559,-1.263103,christian,nairobi city,mathare,religion
address unknown,outreach fellowship church,36.863684,-1.262619,christian,nairobi city,mathare,religion
address unknown,aic zion church,36.862428,-1.262882,christian,nairobi city,mathare,religion
address unknown,mabatini praise worship church,36.863202,-1.258957,christian,nairobi city,mathare,religion
address unknown,n.y.s and mosque,36.865388,-1.252411,muslim,nairobi city,kasarani,religion
address unknown,"friends church makadara, jericho market",36.872509,-1.288219,christian,nairobi city,makadara,religion
address unknown,twelve brothers,36.854638,-1.263105,christian,nairobi city,mathare,religion
address unknown,neema worship centre,36.853568,-1.26331,christian,nairobi city,mathare,religion
address unknown,holy ghost church,36.858929,-1.262835,christian,nairobi city,mathare,religion
address unknown,victory celebration sanctuary,36.856883,-1.262548,christian,nairobi city,kasarani,religion
address unknown,megah church ministry.,36.843991,-1.265373,christian,nairobi city,mathare,religion
address unknown,mlango kubwa church,36.844677,-1.26397,christian,nairobi city,mathare,religion
address unknown,mathare church of nazarene,36.844668,-1.265592,christian,nairobi city,mathare,religion
address unknown,ack mathare church,36.844128,-1.264779,christian,nairobi city,mathare,religion
address unknown,apostolic great commission,36.845543,-1.264964,christian,nairobi city,mathare,religion
address unknown,redeemed gospel church.,36.84499,-1.266133,christian,nairobi city,mathare,religion
address unknown,pcea mathare valley,36.845413,-1.264463,christian,nairobi city,mathare,religion
address unknown,african church,36.8492,-1.262883,christian,nairobi city,mathare,religion
address unknown,st martin catholic church,36.872164,-1.254985,christian,nairobi city,mathare,religion
address unknown,aic trinity,36.869152,-1.259363,christian,nairobi city,mathare,religion
address unknown,joy jubilee centre,36.868635,-1.258289,christian,nairobi city,mathare,religion
address unknown,judah gospel church,36.875788,-1.257016,christian,nairobi city,mathare,religion
address unknown,soldiers of faith church,36.87629,-1.256716,christian,nairobi city,mathare,religion
address unknown,c.j.c.c church,36.875001,-1.257466,christian,nairobi city,mathare,religion
address unknown,huruma baptist church,36.874853,-1.257537,christian,nairobi city,mathare,religion
address unknown,pcea church and junior academy,36.865006,-1.256407,christian,nairobi city,kasarani,religion
address unknown,full gospel churches of kenya,36.877066,-1.249103,christian,nairobi city,kasarani,religion
address unknown,st mauras catholic church,36.86751,-1.25305,christian,nairobi city,kasarani,religion
address unknown,soul winning miracle land,36.874795,-1.250013,christian,nairobi city,kasarani,religion
address unknown,deliverence hope ministries,36.877006,-1.250283,christian,nairobi city,kasarani,religion
address unknown,word of truth,36.869286,-1.252533,christian,nairobi city,kasarani,religion
address unknown,salvation army,36.861958,-1.261812,christian,nairobi city,mathare,religion
address unknown,k.a.g huruma christ promotion centre,36.868398,-1.260517,christian,nairobi city,mathare,religion
address unknown,st stephen chapel,36.869616,-1.258244,christian,nairobi city,mathare,religion
address unknown,genesis immaculate church,36.870357,-1.258177,christian,nairobi city,mathare,religion
address unknown,zamzam madrassa centre,36.869559,-1.258119,muslim,nairobi city,mathare,religion
address unknown,grace world harvest church,36.869542,-1.258062,christian,nairobi city,mathare,religion
address unknown,st mathias mulumba church,36.873069,-1.255255,christian,nairobi city,mathare,religion
address unknown,apostolic church of christ,36.8733,-1.254426,christian,nairobi city,mathare,religion
address unknown,messiah gospel center,36.873301,-1.254354,christian,nairobi city,mathare,religion
address unknown,evangelical victory church,36.878326,-1.25337,christian,nairobi city,mathare,religion
address unknown,redeemed gospel church hall,36.86521,-1.260503,christian,nairobi city,mathare,religion
address unknown,kahawa baracks,36.921757,-1.197671,muslim,nairobi city,kasarani,religion
voi lane,a.i.p.c.a bahati,36.854381,-1.29098,christian,nairobi city,makadara,religion
address unknown,sri ram mandir,36.814316,-1.264248,hindu,nairobi city,westlands,religion
address unknown,ayyappa temple,36.814381,-1.264227,hindu,nairobi city,westlands,religion
address unknown,st.domnic catholic church,36.789115,-1.308566,christian,nairobi city,kibra,religion
address unknown,life in christ church,36.800085,-1.312837,christian,nairobi city,kibra,religion
address unknown,kamiti mosque,36.892586,-1.179068,muslim,nairobi city,kasarani,religion
outer ring road,"god's power church,ruaraka,kenya",36.874908,-1.248236,christian,nairobi city,kasarani,religion
address unknown,chieko sda church,36.922491,-1.235016,christian,nairobi city,kasarani,religion
address unknown,new vision pentecostal ministries,36.885713,-1.320298,christian,nairobi city,embakasi,religion
address unknown,p.c.e.a neema parish,36.877964,-1.32117,christian,nairobi city,embakasi,religion
address unknown,a.c.k church,36.886034,-1.322523,christian,nairobi city,embakasi,religion
address unknown,seventh day adventist / imara daima academy,36.885297,-1.321296,christian,nairobi city,embakasi,religion
address unknown,nabii powerful christian church,36.88084,-1.318057,christian,nairobi city,embakasi,religion
address unknown,bread of life church,36.88443,-1.316674,christian,nairobi city,embakasi,religion
address unknown,gethsemane ministry imara daima church,36.884475,-1.317857,christian,nairobi city,embakasi,religion
address unknown,gospel futhering church,36.883959,-1.317306,christian,nairobi city,embakasi,religion
address unknown,kwa njenga milimani church,36.884663,-1.316639,christian,nairobi city,embakasi,religion
address unknown,living gospel church,36.884493,-1.314014,christian,nairobi city,embakasi,religion
address unknown,overcomers church,36.883738,-1.315585,christian,nairobi city,embakasi,religion
address unknown,rejoice gospel christian church,36.884092,-1.314103,christian,nairobi city,embakasi,religion
address unknown,christian builders mission,36.886257,-1.314747,christian,nairobi city,embakasi,religion
address unknown,hossana prophetic and miracle church,36.885805,-1.318116,christian,nairobi city,embakasi,religion
address unknown,house of prayers for all people,36.886234,-1.31615,christian,nairobi city,embakasi,religion
address unknown,king of judah ministries,36.888333,-1.317528,christian,nairobi city,embakasi,religion
address unknown,oasis of grace church,36.886328,-1.314692,christian,nairobi city,embakasi,religion
address unknown,overcomers miracle church,36.885095,-1.318825,christian,nairobi city,embakasi,religion
address unknown,power delivarance of christ centre,36.885012,-1.319149,christian,nairobi city,embakasi,religion
address unknown,the praises of victory ministries,36.88812,-1.318983,christian,nairobi city,embakasi,religion
address unknown,living water minstry,36.889157,-1.322203,christian,nairobi city,embakasi,religion
address unknown,zion arc glory church,36.887367,-1.322017,christian,nairobi city,embakasi,religion
address unknown,maximum victory,36.887907,-1.321741,christian,nairobi city,embakasi,religion
address unknown,living gospel workers fellowship,36.887284,-1.322433,christian,nairobi city,embakasi,religion
address unknown,ymca chapel,36.813416,-1.279925,christian,nairobi city,westlands,religion
address unknown,ack diamond church,36.877627,-1.312839,christian,nairobi city,embakasi,religion
address unknown,cross of grace ministries,36.87565,-1.319043,christian,nairobi city,embakasi,religion
address unknown,deliverance church,36.874466,-1.316909,christian,nairobi city,embakasi,religion
address unknown,full inependent concregations church,36.874892,-1.315999,christian,nairobi city,embakasi,religion
address unknown,g.n.c.a. church lungalunga,36.868232,-1.311219,christian,nairobi city,makadara,religion
address unknown,god celebration church,36.861385,-1.310194,christian,nairobi city,makadara,religion
address unknown,huduma prophetic church,36.87452,-1.318081,christian,nairobi city,embakasi,religion
address unknown,living light church,36.87639,-1.31534,christian,nairobi city,embakasi,religion
address unknown,living vine christ ministries,36.87639,-1.313754,christian,nairobi city,embakasi,religion
address unknown,oasis church of god,36.87557,-1.316441,christian,nairobi city,embakasi,religion
address unknown,st. monicah catholic church,36.865504,-1.311653,christian,nairobi city,makadara,religion
address unknown,african inland church,36.876422,-1.317886,christian,nairobi city,embakasi,religion
address unknown,agape fellowship church,36.87439,-1.318317,christian,nairobi city,embakasi,religion
address unknown,huduma prophetic church,36.874487,-1.318054,christian,nairobi city,embakasi,religion
address unknown,baptist church,36.870753,-1.311604,christian,nairobi city,makadara,religion
address unknown,pcea neema church,36.872832,-1.310925,christian,nairobi city,makadara,religion
address unknown,a.i.c church,36.875713,-1.310112,christian,nairobi city,makadara,religion
address unknown,living glory ministry,36.86958,-1.310972,christian,nairobi city,makadara,religion
address unknown,kwa reuben baptist church,36.866205,-1.316004,christian,nairobi city,embakasi,religion
address unknown,kileleshwa covenant community church (k3c),36.789271,-1.278063,christian,nairobi city,westlands,religion
address unknown,mariakani christian centre,36.83499,-1.311144,christian,nairobi city,starehe,religion
mombasa road,international christian centre,36.827793,-1.309816,christian,nairobi city,langata,religion
address unknown,hollyness worship centre,36.849249,-1.315113,christian,nairobi city,starehe,religion
address unknown,hazina sda church,36.848906,-1.313805,christian,nairobi city,starehe,religion
address unknown,pefa church and school,36.845486,-1.31359,christian,nairobi city,starehe,religion
address unknown,calvary christian centre,36.840508,-1.306607,christian,nairobi city,starehe,religion
address unknown,aic church,36.850448,-1.312838,christian,nairobi city,starehe,religion
address unknown,christ ambassodar church,36.841912,-1.311494,christian,nairobi city,starehe,religion
address unknown,mukuru africa evangelicul prospytorian church,36.84279,-1.310943,christian,nairobi city,starehe,religion
address unknown,pcea,36.850115,-1.312621,christian,nairobi city,starehe,religion
address unknown,st veronica ack church,36.842341,-1.311881,christian,nairobi city,starehe,religion
address unknown,ack church,36.83663,-1.307768,christian,nairobi city,starehe,religion
address unknown,sda church,36.836221,-1.307268,christian,nairobi city,starehe,religion
address unknown,pcea,36.845823,-1.31229,christian,nairobi city,starehe,religion
address unknown,sda church,36.840253,-1.306906,christian,nairobi city,starehe,religion
address unknown,khoja mosque,36.821627,-1.281478,muslim,nairobi city,starehe,religion
address unknown,st catherine,36.822443,-1.323825,christian,nairobi city,langata,religion
address unknown,new apostolic church,36.82822,-1.321991,christian,nairobi city,langata,religion
address unknown,our lady queen of peace catholic church,36.834068,-1.311206,christian,nairobi city,starehe,religion
address unknown,agape gospel church,36.817343,-1.308116,christian,nairobi city,langata,religion
address unknown,community presbyterian church - madaraka,36.817629,-1.309541,christian,nairobi city,langata,religion
address unknown,christian terbanacle centre,36.835476,-1.310552,christian,nairobi city,starehe,religion
address unknown,our lady of angels novitiate,36.700694,-1.316338,christian,nairobi city,langata,religion
address unknown,kingdom vision,36.779713,-1.315056,christian,nairobi city,kibra,religion
address unknown,church (pefa),36.891718,-1.248686,christian,nairobi city,kasarani,religion
address unknown,k.a.g church,36.892217,-1.250549,christian,nairobi city,kasarani,religion
address unknown,kristoe church of evangelistic,36.893155,-1.247591,christian,nairobi city,kasarani,religion
address unknown,legio maria church,36.89049,-1.250285,christian,nairobi city,kasarani,religion
address unknown,mercy seat of god fellowship center/school,36.894723,-1.246239,christian,nairobi city,kasarani,religion
address unknown,nabii christian church of ea,36.895124,-1.245702,christian,nairobi city,kasarani,religion
address unknown,ngomomngo sda church,36.894891,-1.243852,christian,nairobi city,kasarani,religion
address unknown,st johns catholic church,36.891943,-1.248501,christian,nairobi city,kasarani,religion
address unknown,tumaini church,36.891959,-1.251257,christian,nairobi city,kasarani,religion
address unknown,tumaini church,36.888257,-1.250432,christian,nairobi city,kasarani,religion
address unknown,damascus assemblys church,36.887663,-1.252686,christian,nairobi city,kasarani,religion
address unknown,overcomers lifeseekers church,36.887925,-1.252609,christian,nairobi city,kasarani,religion
address unknown,redeemed gospel church,36.887629,-1.249693,christian,nairobi city,kasarani,religion
address unknown,rehema church/day care,36.888787,-1.251873,christian,nairobi city,kasarani,religion
address unknown,calvery worship center,36.891219,-1.249803,christian,nairobi city,kasarani,religion
address unknown,vision people in mission church,36.890018,-1.250226,christian,nairobi city,kasarani,religion
address unknown,kariobangi dioces church,36.891323,-1.247502,christian,nairobi city,kasarani,religion
address unknown,matendo ministry church,36.789874,-1.308607,christian,nairobi city,kibra,religion
address unknown,african divine church,36.78745,-1.309263,christian,nairobi city,kibra,religion
address unknown,anglican catolic church,36.892117,-1.251997,christian,nairobi city,kasarani,religion
address unknown,church of the lord and faith ministry,36.891104,-1.247357,christian,nairobi city,kasarani,religion
address unknown,diet of the word church,36.774143,-1.310668,christian,nairobi city,kibra,religion
address unknown,outreach community church,36.775524,-1.312689,christian,nairobi city,kibra,religion
address unknown,grogan b holy church,36.888773,-1.24811,christian,nairobi city,kasarani,religion
city chicken road,kenhut sda church,36.917672,-1.221264,christian,nairobi city,kasarani,religion
address unknown,little sisters of the poor,36.916154,-1.225271,christian,nairobi city,kasarani,religion
address unknown,chrisco church,36.776858,-1.306355,christian,nairobi city,kibra,religion
address unknown,our lady of guadalupe parish,36.779533,-1.301568,christian,nairobi city,kibra,religion
address unknown,winners chapel int-nairobi,36.780249,-1.303429,christian,nairobi city,kibra,religion
joseph kang'ethe,citam woodley church,36.774277,-1.302998,christian,nairobi city,kibra,religion
southern bypass,nairobi langata assembly hall of jehovah's witnesses,36.792823,-1.322636,christian,nairobi city,langata,religion
address unknown,springs of life lutheran church,36.779733,-1.311354,christian,nairobi city,kibra,religion
address unknown,masjidnuur_lungalunga,36.870732,-1.311217,muslim,nairobi city,makadara,religion
address unknown,st jude catholic church (kwa reuben),36.869721,-1.314298,christian,nairobi city,embakasi,religion
address unknown,apostolic faith church (kwa reuben),36.869364,-1.313915,christian,nairobi city,embakasi,religion
address unknown,jesus new life church,36.860505,-1.31268,christian,nairobi city,makadara,religion
address unknown,royal christain ministries lungalunga,36.87279,-1.311436,christian,nairobi city,makadara,religion
address unknown,jesus sanctuary church and primary school,36.848074,-1.313025,christian,nairobi city,starehe,religion
address unknown,oasis church and school,36.848932,-1.312886,christian,nairobi city,starehe,religion
address unknown,salvation army church & primary school,36.848414,-1.312631,christian,nairobi city,starehe,religion
address unknown,a.d.c church,36.845238,-1.312248,christian,nairobi city,starehe,religion
address unknown,imani church,36.844227,-1.311119,christian,nairobi city,starehe,religion
address unknown,marrow gate pentecostal church,36.844217,-1.311126,christian,nairobi city,starehe,religion
address unknown,our lady of peace church,36.833349,-1.311568,christian,nairobi city,starehe,religion
address unknown,pentecostal church,36.843666,-1.311318,christian,nairobi city,starehe,religion
address unknown,calvary church,36.840875,-1.30684,christian,nairobi city,starehe,religion
address unknown,christ ambassadors church,36.842407,-1.311199,christian,nairobi city,starehe,religion
address unknown,full gospel churches of east africa,36.842716,-1.311009,christian,nairobi city,starehe,religion
address unknown,kenya african church,36.840081,-1.306936,christian,nairobi city,starehe,religion
address unknown,legion maria,36.84064,-1.30664,christian,nairobi city,starehe,religion
address unknown,mukuru africa evangelical el-shadai church/ school,36.842827,-1.310942,christian,nairobi city,starehe,religion
address unknown,seventh day adventist church,36.841286,-1.307621,christian,nairobi city,starehe,religion
address unknown,st.judes catholic church,36.804516,-1.315551,christian,nairobi city,langata,religion
address unknown,kibera p.a.g gatwekera,36.783895,-1.314221,christian,nairobi city,kibra,religion
address unknown,st magaret catholic church,36.848534,-1.317022,christian,nairobi city,starehe,religion
address unknown,jcc church,36.847148,-1.31815,christian,nairobi city,starehe,religion
address unknown,syed abdullah shah,36.821353,-1.283178,muslim,nairobi city,starehe,religion
address unknown,ayie singruok mochuere church,36.885973,-1.246773,christian,nairobi city,kasarani,religion
address unknown,calvary church of god,36.886593,-1.246835,christian,nairobi city,kasarani,religion
address unknown,christian mission fellowship church,36.888135,-1.243577,christian,nairobi city,kasarani,religion
address unknown,faith church of christ,36.889453,-1.243346,christian,nairobi city,kasarani,religion
address unknown,rock greeck victory church,36.88934,-1.246039,christian,nairobi city,kasarani,religion
address unknown,aflame of joy ministries and baby care,36.883178,-1.248661,christian,nairobi city,kasarani,religion
address unknown,baptist church,36.884923,-1.248622,christian,nairobi city,kasarani,religion
address unknown,calvary church,36.886144,-1.246837,christian,nairobi city,kasarani,religion
address unknown,chistian revival church and school,36.883075,-1.247574,christian,nairobi city,kasarani,religion
address unknown,full gospel church,36.884634,-1.249046,christian,nairobi city,kasarani,religion
address unknown,god last appeal,36.884031,-1.24926,christian,nairobi city,kasarani,religion
address unknown,hosana gospel outreach church,36.885259,-1.24822,christian,nairobi city,kasarani,religion
address unknown,house of grace,36.885961,-1.247733,christian,nairobi city,kasarani,religion
address unknown,israel church,36.88342,-1.248826,christian,nairobi city,kasarani,religion
address unknown,japolo church,36.883771,-1.247644,christian,nairobi city,kasarani,religion
address unknown,japolo church,36.884218,-1.248788,christian,nairobi city,kasarani,religion
address unknown,kariobangi soko church,36.884388,-1.247966,christian,nairobi city,kasarani,religion
address unknown,legio maria,36.882633,-1.248337,christian,nairobi city,kasarani,religion
address unknown,redeemed gospel church,36.887394,-1.24685,christian,nairobi city,kasarani,religion
address unknown,redeemed gospel church,36.882812,-1.248186,christian,nairobi city,kasarani,religion
address unknown,roho church,36.884357,-1.248846,christian,nairobi city,kasarani,religion
address unknown,sayuni pentecostal church,36.883311,-1.249226,christian,nairobi city,kasarani,religion
address unknown,smata wisdom church,36.887157,-1.246823,christian,nairobi city,kasarani,religion
address unknown,abundant life worship centre,36.884142,-1.242385,christian,nairobi city,kasarani,religion
address unknown,daarusalam mosque and madrasa,36.88547,-1.240841,muslim,nairobi city,kasarani,religion
address unknown,peniel revival ministries,36.884061,-1.241835,christian,nairobi city,kasarani,religion
address unknown,sacred heart catholic parish,36.88444,-1.24372,christian,nairobi city,kasarani,religion
address unknown,shalom evangelist ministry,36.883611,-1.241383,christian,nairobi city,kasarani,religion
address unknown,the last word ministry,36.883402,-1.241451,christian,nairobi city,kasarani,religion
address unknown,the pillar of light church,36.884123,-1.241435,christian,nairobi city,kasarani,religion
address unknown,true vine church,36.884087,-1.242633,christian,nairobi city,kasarani,religion
address unknown,ack church,36.896019,-1.242586,christian,nairobi city,kasarani,religion
address unknown,arising christian ministry,36.897692,-1.237785,christian,nairobi city,kasarani,religion
address unknown,baptism chapel,36.89388,-1.241674,christian,nairobi city,kasarani,religion
address unknown,bethsaida church,36.897999,-1.240254,christian,nairobi city,kasarani,religion
address unknown,christ the king church,36.898927,-1.241143,christian,nairobi city,kasarani,religion
address unknown,deliverance church ruaraka,36.893872,-1.241408,christian,nairobi city,kasarani,religion
address unknown,evangelism church,36.895024,-1.238912,christian,nairobi city,kasarani,religion
address unknown,friends church ruaraka,36.896684,-1.238282,christian,nairobi city,kasarani,religion
address unknown,full gospel churches of kenya,36.900691,-1.238852,christian,nairobi city,kasarani,religion
address unknown,international ministry church,36.89691,-1.242259,christian,nairobi city,kasarani,religion
address unknown,jesus wept ministry,36.893242,-1.243828,christian,nairobi city,kasarani,religion
address unknown,living mountain church,36.8937,-1.242973,christian,nairobi city,kasarani,religion
address unknown,pcea kasarani chodong church,36.891347,-1.24042,christian,nairobi city,kasarani,religion
address unknown,redeemed evangelistic fellowship church,36.897847,-1.240723,christian,nairobi city,kasarani,religion
address unknown,redeemed gospel church,36.900222,-1.239168,christian,nairobi city,kasarani,religion
address unknown,shepherd apostolic ministry,36.898644,-1.236912,christian,nairobi city,kasarani,religion
address unknown,true value church,36.892467,-1.243863,christian,nairobi city,kasarani,religion
address unknown,soul harvester church,36.892569,-1.24415,christian,nairobi city,kasarani,religion
address unknown,truth terbancle centre,36.895834,-1.238536,christian,nairobi city,kasarani,religion
address unknown,gomongo sda church,36.893577,-1.24033,christian,nairobi city,kasarani,religion
address unknown,salvation army church,36.893202,-1.239656,christian,nairobi city,kasarani,religion
address unknown,sanctuary of truth centre,36.89424,-1.240298,christian,nairobi city,kasarani,religion
address unknown,deliverance church,36.878348,-1.24855,christian,nairobi city,kasarani,religion
address unknown,kag babandogo church,36.880933,-1.247539,christian,nairobi city,kasarani,religion
address unknown,land marks baptist church,36.878559,-1.248072,christian,nairobi city,kasarani,religion
address unknown,lord harvest centre,36.879865,-1.247148,christian,nairobi city,kasarani,religion
address unknown,riverside mosque,36.879936,-1.248832,muslim,nairobi city,kasarani,religion
address unknown,united pentecostal church,36.880758,-1.247097,christian,nairobi city,kasarani,religion
address unknown,vrc riverside church,36.880694,-1.247585,christian,nairobi city,kasarani,religion
address unknown,baptist church,36.88471,-1.248745,christian,nairobi city,kasarani,religion
address unknown,st. rafaels,36.724766,-1.255791,christian,nairobi city,westlands,religion
kapenguria road,lower kabete sda church,36.725002,-1.255513,christian,nairobi city,westlands,religion
st. daniel comboni road,st vincent palotti catholic church,36.754637,-1.300614,christian,nairobi city,dagoretti,religion
address unknown,grace church,36.893369,-1.295263,christian,nairobi city,embakasi,religion
limuru road,karura community chapel,36.798487,-1.215088,christian,nairobi city,westlands,religion
address unknown,st francis,36.905018,-1.186826,christian,nairobi city,kasarani,religion
moi drive,umoja p.a.g church,36.893476,-1.284981,christian,nairobi city,embakasi,religion
address unknown,mashimoni friends church,36.79158,-1.309594,christian,nairobi city,kibra,religion
address unknown,changing times centre,36.792667,-1.312653,christian,nairobi city,kibra,religion
address unknown,lifespring,36.897597,-1.321662,christian,nairobi city,embakasi,religion
ngong view road,karen community church,36.687998,-1.33046,christian,nairobi city,langata,religion
address unknown,ack st prisca church,36.890611,-1.24982,christian,nairobi city,kasarani,religion
address unknown,adc upendo assemblies,36.889287,-1.253809,christian,nairobi city,kasarani,religion
address unknown,aipca church,36.884908,-1.259116,christian,nairobi city,embakasi,religion
address unknown,full gospel church of kenya,36.889427,-1.253092,christian,nairobi city,kasarani,religion
address unknown,hhi israel church,36.890053,-1.248216,christian,nairobi city,kasarani,religion
address unknown,pag assemblies of god,36.891441,-1.248336,christian,nairobi city,kasarani,religion
address unknown,pcea,36.889619,-1.249033,christian,nairobi city,kasarani,religion
address unknown,pefa kariobangi church,36.891535,-1.248781,christian,nairobi city,kasarani,religion
address unknown,christ divine church,36.889407,-1.254142,christian,nairobi city,kasarani,religion
address unknown,christ ministry church,36.884046,-1.259741,christian,nairobi city,kasarani,religion
address unknown,faith of hope centre,36.888045,-1.250882,christian,nairobi city,embakasi,religion
address unknown,glory church,36.891227,-1.249185,christian,nairobi city,kasarani,religion
address unknown,grace given and transformation center,36.89246,-1.249978,christian,nairobi city,kasarani,religion
address unknown,highridge baptist church,36.892497,-1.250934,christian,nairobi city,kasarani,religion
address unknown,holy trinity church,36.890132,-1.248151,christian,nairobi city,kasarani,religion
address unknown,israel church of africa,36.891962,-1.252217,christian,nairobi city,kasarani,religion
address unknown,jesus upliftance ministry,36.888863,-1.2508,christian,nairobi city,kasarani,religion
address unknown,kenya foundation of the prophet,36.887674,-1.251747,christian,nairobi city,kasarani,religion
address unknown,legio maria church,36.890756,-1.250342,christian,nairobi city,kasarani,religion
address unknown,life of hope foundation centre,36.889499,-1.252904,christian,nairobi city,kasarani,religion
address unknown,makao church,36.886111,-1.256712,christian,nairobi city,kasarani,religion
address unknown,masanda holy church,36.892176,-1.24979,christian,nairobi city,kasarani,religion
address unknown,pentecostal assembly of god,36.887123,-1.255061,christian,nairobi city,embakasi,religion
address unknown,roho msalaba church,36.890782,-1.24905,christian,nairobi city,kasarani,religion
address unknown,seventh day adventist,36.89162,-1.250853,christian,nairobi city,kasarani,religion
address unknown,upendo ministry fellowship,36.891737,-1.251674,christian,nairobi city,kasarani,religion
address unknown,vision and hope revival church,36.885608,-1.255596,christian,nairobi city,kasarani,religion
address unknown,wakonino church,36.8886,-1.253479,christian,nairobi city,kasarani,religion
address unknown,st clares catholic church,36.887333,-1.2518,christian,nairobi city,kasarani,religion
address unknown,abc church south b region,36.838477,-1.308965,christian,nairobi city,kasarani,religion
address unknown,new israel true gospel church,36.84515,-1.312386,christian,nairobi city,kasarani,religion
address unknown,builder chapel ministry,36.836468,-1.308384,christian,nairobi city,kasarani,religion
address unknown,mountain of the lord,36.837036,-1.309284,christian,nairobi city,starehe,religion
address unknown,nairobi west church,36.836642,-1.309317,christian,nairobi city,starehe,religion
address unknown,sda church,36.836513,-1.308882,christian,nairobi city,starehe,religion
address unknown,saint charles lwanga catholic church,36.837013,-1.308378,christian,nairobi city,starehe,religion
address unknown,saint pauls aipca church,36.83712,-1.30933,christian,nairobi city,starehe,religion
address unknown,gethsemane worship centre,36.837918,-1.307887,christian,nairobi city,starehe,religion
address unknown,st.perpetual christian community,36.84264,-1.310826,christian,nairobi city,starehe,religion
address unknown,four square church,36.839313,-1.308143,christian,nairobi city,starehe,religion
address unknown,st. agatha christian community,36.840852,-1.310268,christian,nairobi city,starehe,religion
address unknown,full gospel church,36.842559,-1.311144,christian,nairobi city,starehe,religion
address unknown,healing and hope church,36.839178,-1.307504,christian,nairobi city,starehe,religion
address unknown,all nations pefa south b,36.84442,-1.312592,christian,nairobi city,starehe,religion
address unknown,south b friends church(quakers),36.845916,-1.313388,christian,nairobi city,starehe,religion
address unknown,bible baptist,36.840517,-1.30918,christian,nairobi city,starehe,religion
address unknown,christ alive ministry,36.840578,-1.309031,christian,nairobi city,starehe,religion
address unknown,church of joy,36.840678,-1.308688,christian,nairobi city,starehe,religion
address unknown,harvest christian church international,36.840373,-1.309237,christian,nairobi city,starehe,religion
address unknown,kenya african church of holy spirit,36.840929,-1.306869,christian,nairobi city,starehe,religion
address unknown,mariakani pag,36.840746,-1.308477,christian,nairobi city,starehe,religion
address unknown,african evalingelical church,36.842727,-1.311042,christian,nairobi city,starehe,religion
address unknown,a.m.o.h.gm church,36.840781,-1.307081,christian,nairobi city,starehe,religion
address unknown,adc atmo church,36.840888,-1.306949,christian,nairobi city,starehe,religion
address unknown,calvary christian centre,36.84071,-1.306747,christian,nairobi city,starehe,religion
address unknown,world new dawn adc church,36.840344,-1.306839,christian,nairobi city,starehe,religion
address unknown,kenya african church of the holy spirit,36.841018,-1.306859,christian,nairobi city,starehe,religion
address unknown,wordwide gospel church,36.838455,-1.309027,christian,nairobi city,starehe,religion
address unknown,holy seed church,36.841275,-1.307143,christian,nairobi city,starehe,religion
address unknown,seventhday adventist church,36.848892,-1.3137,christian,nairobi city,starehe,religion
address unknown,st austins parish,36.778267,-1.264688,christian,nairobi city,starehe,religion
address unknown,pneuma ministries international,36.777463,-1.296863,christian,nairobi city,starehe,religion
address unknown,ack st monica utawala,36.97018,-1.282918,christian,nairobi city,starehe,religion
address unknown,aic plainsview,36.842586,-1.316701,christian,nairobi city,westlands,religion
ndemi road,"deliverance church, ruai",36.992542,-1.270427,christian,nairobi city,westlands,religion
utawala road,al-anwaar mosque,36.739354,-1.33869,christian,nairobi city,njiru,religion
aoko lane,memon mosque,36.824368,-1.323523,christian,nairobi city,starehe,religion
ruai,upendo sda church,36.777917,-1.317791,christian,nairobi city,njiru,religion
langata road,israel church of africa,36.888888,-1.251268,muslim,nairobi city,langata,religion
address unknown,new shiv temple,36.809643,-1.255423,muslim,nairobi city,langata,religion
address unknown,st. thomas catholic shrine,36.756586,-1.341986,christian,nairobi city,langata,religion
address unknown,st. lukes methodist church,36.747885,-1.350244,christian,nairobi city,kasarani,religion
address unknown,al- maida mosque,36.784664,-1.308407,hindu,nairobi city,westlands,religion
langata road,"kingdom hall of jehovah's witnesses, spring valley",36.789904,-1.24924,christian,nairobi city,langata,religion
address unknown,ridgeways baptist church,36.842048,-1.221959,christian,nairobi city,langata,religion
address unknown,kingdom hall of jehovas witnesses,36.835505,-1.26621,muslim,nairobi city,kibra,religion
intel college road,calvary worship centre,36.769628,-1.298453,christian,nairobi city,westlands,religion
address unknown,legio maria,36.950088,-1.254173,christian,nairobi city,kasarani,religion
address unknown,church of christ in africa,36.796413,-1.317095,christian,nairobi city,starehe,religion
riara road,parklands baptist church,36.799861,-1.266017,christian,nairobi city,westlands,religion
address unknown,mamlaka hill chapel ruaka,36.795175,-1.206754,christian,nairobi city,njiru,religion
address unknown,runda mosque and community centre,36.81937,-1.215792,christian,nairobi city,kibra,religion
address unknown,runda independent baptist church,36.820518,-1.215846,christian,nairobi city,westlands,religion
address unknown,jj mccarthy centre (assumption sisters of nairobi),36.781818,-1.267484,christian,nairobi city,westlands,religion
address unknown,"rccg, potters house",36.7614,-1.276232,muslim,nairobi city,westlands,religion
address unknown,holy cross catholic church,36.760433,-1.28441,christian,nairobi city,westlands,religion
address unknown,dar ul arqam mosque,36.779811,-1.28551,christian,nairobi city,westlands,religion
chalbi drive,korean united church,36.775203,-1.290323,christian,nairobi city,westlands,religion
serenity road,riruta catholic church,36.738921,-1.28204,christian,nairobi city,westlands,religion
address unknown,ack congo church,36.753873,-1.287208,muslim,nairobi city,westlands,religion
address unknown,christ holy church international (a. k. a. nation builders),36.752948,-1.294388,christian,nairobi city,westlands,religion
address unknown,st thomas ack dagoretti,36.75007,-1.296894,christian,nairobi city,dagoretti,religion
address unknown,vincentian prayer house,36.759868,-1.285528,christian,nairobi city,dagoretti,religion
address unknown,lavington united church,36.770441,-1.281711,christian,nairobi city,dagoretti,religion
address unknown,chabad house of kenya (jewish center),36.766559,-1.271214,christian,nairobi city,dagoretti,religion
address unknown,methodist church of kenya,36.771177,-1.288521,christian,nairobi city,westlands,religion
address unknown,river of god church,36.81151,-1.267447,christian,nairobi city,westlands,religion
address unknown,kumari yoga centre,36.804861,-1.262354,jewish,nairobi city,westlands,religion
address unknown,nanaksar gurudwara,36.795767,-1.255654,christian,nairobi city,westlands,religion
chiromo lane,citam parklands 2,36.815559,-1.260165,christian,nairobi city,westlands,religion
parklands road,city park estate mosque,36.83019,-1.258981,buddhist,nairobi city,westlands,religion
address unknown,mangal mandir,36.820569,-1.271106,sikh,nairobi city,westlands,religion
address unknown,ahmadiyya mosque,36.832202,-1.268726,christian,nairobi city,westlands,religion
address unknown,pcea church - thome,36.86907,-1.226438,muslim,nairobi city,westlands,religion
address unknown,nairobi lighthouse church,36.863612,-1.234267,hindu,nairobi city,starehe,religion
address unknown,pcea karen church,36.705399,-1.320781,muslim,nairobi city,starehe,religion
address unknown,mill hill missionaries,36.743673,-1.312634,christian,nairobi city,kasarani,religion
balozi estate road,saint mark coptic orthodox church,36.732532,-1.307977,christian,nairobi city,kasarani,religion
address unknown,"calvary chapel nairobi, kenya",36.718605,-1.328864,christian,nairobi city,langata,religion
address unknown,st. nicholas anglican cdc,36.714907,-1.32264,christian,nairobi city,langata,religion
ngong road,redeemer bible church,36.713453,-1.319642,christian,nairobi city,dagoretti,religion
address unknown,the salvation army kenya east territorial headquarters,36.729574,-1.340826,christian,nairobi city,langata,religion
address unknown,mount zion worship sanctuar,36.733586,-1.340281,christian,nairobi city,langata,religion
ngong road,new testament church of god - kenya head office,36.727175,-1.349392,christian,nairobi city,langata,religion
address unknown,dominican house of studies,36.724109,-1.359592,christian,nairobi city,langata,religion
address unknown,st. dominic's chapel,36.723701,-1.359624,christian,nairobi city,langata,religion
address unknown,mwangaza jesuit centre,36.721995,-1.362446,christian,nairobi city,langata,religion
address unknown,st. camillus theolicum,36.740865,-1.353561,christian,nairobi city,langata,religion
address unknown,claret villa,36.742339,-1.353262,christian,nairobi city,langata,religion
address unknown,comboni missionaries of the heart of jesus - scholasticate,36.744251,-1.345781,christian,nairobi city,langata,religion
address unknown,langata sda church,36.780105,-1.326373,christian,nairobi city,langata,religion
address unknown,st.michael catholic church langata,36.783488,-1.321034,christian,nairobi city,langata,religion
address unknown,aic langata,36.784128,-1.32719,christian,nairobi city,langata,religion
address unknown,house of grace mega church,36.819347,-1.310266,christian,nairobi city,langata,religion
address unknown,nairobi west mosque,36.825571,-1.305923,christian,nairobi city,langata,religion
address unknown,st.augustine ack church madaraka,36.811039,-1.310565,christian,nairobi city,langata,religion
address unknown,new hope out reach ministries,36.811812,-1.310008,christian,nairobi city,langata,religion
kisauni road,divine novena prayer group,36.821374,-1.301515,muslim,nairobi city,langata,religion
address unknown,the church of jesus christ of latter-day saints nairobi upper hill,36.819243,-1.297562,christian,nairobi city,langata,religion
address unknown,franciscan missionary sisters of saint joseph,36.773464,-1.299411,christian,nairobi city,langata,religion
address unknown,sacred heart parish,36.775821,-1.299589,christian,nairobi city,kibra,religion
upper hill road,eritrean orthodox tewahido church,36.789608,-1.301291,christian,nairobi city,kibra,religion
ngong road,pattni mandir,36.816566,-1.256766,christian,nairobi city,westlands,religion
kilimani road,cms-africa house,36.789901,-1.294872,christian,nairobi city,westlands,religion
kindaruma road,"ack christ church, westlands",36.78817,-1.262185,christian,nairobi city,kibra,religion
address unknown,pcea kahawa station church,36.908476,-1.18334,hindu,nairobi city,westlands,religion
galana road,eucharistic apostles of divine mercy,36.796195,-1.28796,christian,nairobi city,westlands,religion
church road,starehe boys centre mosque,36.840374,-1.279296,christian,nairobi city,westlands,religion
address unknown,trinity revival church,36.844624,-1.288969,christian,nairobi city,kasarani,religion
theta lane,st. joseph and mary parish,36.846417,-1.290109,christian,nairobi city,westlands,religion
general waruingi street,mavuno mashariki church,36.875806,-1.294309,muslim,nairobi city,starehe,religion
butecho,kenya evangelical lutheran church,36.868175,-1.28863,christian,nairobi city,kamukunji,religion
ngiya road,blessed sacrament catholic church,36.881348,-1.291868,christian,nairobi city,kamukunji,religion
rabai road,st. mary's mukuru parish,36.881203,-1.309012,christian,nairobi city,makadara,religion
shule road,"st, daniel comboni catholic church",36.946423,-1.283185,christian,nairobi city,makadara,religion
sagam road,pcea church (ng'undu parish),37.053611,-1.276289,christian,nairobi city,makadara,religion
address unknown,st. gabriel catholic church,37.065599,-1.275143,christian,nairobi city,makadara,religion
address unknown,ruai mosque,37.000702,-1.274,christian,nairobi city,njiru,religion
kanisani road,deliverance church ruai,37.008916,-1.276031,christian,nairobi city,njiru,religion
address unknown,christian outreach ministries,37.014405,-1.276514,christian,nairobi city,njiru,religion
kangundo road,all saint's community chapel,37.026976,-1.273499,muslim,nairobi city,njiru,religion
kangundo road,friends church nairobi west,36.813583,-1.309466,christian,nairobi city,njiru,religion
kangundo road,citam parklands,36.815719,-1.260436,christian,nairobi city,njiru,religion
address unknown,oasis seventh day adventist church,36.709806,-1.324903,christian,nairobi city,njiru,religion
address unknown,faith evangelistic ministry family church,36.71039,-1.327267,christian,nairobi city,langata,religion
2nd parklands avenue,eternity gospel church,36.712983,-1.329509,christian,nairobi city,westlands,religion
langata road,nairobi lighthouse church,36.807171,-1.26914,christian,nairobi city,langata,religion
langata road,st. monica njiru catholic church,36.936373,-1.252805,christian,nairobi city,langata,religion
langata road,aic ngong road,36.77651,-1.298473,christian,nairobi city,langata,religion
greenway,st. mark coptic orthodox church,36.797798,-1.298334,christian,nairobi city,westlands,religion
kangundo road,the purpose center church,36.867612,-1.331218,christian,nairobi city,njiru,religion
ndemi road,gsu mosque,36.866065,-1.244529,christian,nairobi city,westlands,religion
ngong road,jcc thika road church,36.870461,-1.23655,christian,nairobi city,westlands,religion
mombasa road,ruaraka methodist church,36.870465,-1.234236,christian,nairobi city,langata,religion
thika road,thika road baptist church,36.885888,-1.224308,muslim,nairobi city,kasarani,religion
thika road,muthaiga mosque and madrasah,36.842092,-1.261749,christian,nairobi city,kasarani,religion
garden estate road,baptist mission of kenya,36.880955,-1.229806,christian,nairobi city,kasarani,religion
thika road,queen of apostle's adoration chapel,36.884707,-1.228346,christian,nairobi city,kasarani,religion
murang'a road,mavuno lifeway,36.895707,-1.22379,muslim,nairobi city,mathare,religion
thika road,aic kasarani,36.898634,-1.226483,christian,nairobi city,kasarani,religion
thika road,thika road community chapel,36.905208,-1.213191,christian,nairobi city,kasarani,religion
icipe road,sportsview sda church-kasarani,36.903131,-1.223382,christian,nairobi city,kasarani,religion
icipe road,st francis catholic church st claire parish,36.917742,-1.22451,christian,nairobi city,kasarani,religion
address unknown,kahawa barracks mosque,36.921727,-1.197659,christian,nairobi city,kasarani,religion
kasarani mwiki road,christ the king catholic church,36.911618,-1.309009,christian,nairobi city,kasarani,religion
kasarani mwiki road,parklands baptist church eastgate,36.911992,-1.307518,christian,nairobi city,kasarani,religion
thika road,st. peter's a.c.k church embakasi,36.911738,-1.307613,muslim,nairobi city,kasarani,religion
embakasi road,gospel centres international - central,36.898695,-1.319779,christian,nairobi city,embakasi,religion
embakasi road,pefa church - doonholm,36.889902,-1.298062,christian,nairobi city,embakasi,religion
embakasi road,deliverance church donholm,36.891752,-1.299217,christian,nairobi city,embakasi,religion
outer ring road,donholm mosque,36.894324,-1.294147,christian,nairobi city,embakasi,religion
off doonholm road,pcea tena parish,36.888142,-1.292167,christian,nairobi city,embakasi,religion
doonholm road,buruburu community centre church of god,36.881325,-1.288615,christian,nairobi city,embakasi,religion
greenfields phase 2,kag church buruburu,36.878234,-1.277383,muslim,nairobi city,embakasi,religion
manyanja road,wendani community chapel,36.92196,-1.189912,christian,nairobi city,embakasi,religion
mumias south road,holy family catholic church,36.973749,-1.277628,christian,nairobi city,makadara,religion
mumias south road,cathedral of praise,36.883875,-1.324406,christian,nairobi city,makadara,religion
address unknown,tassia catholic,36.89473,-1.309423,christian,nairobi city,kasarani,religion
off eastern bypass,redeemed gospel church,36.887227,-1.311588,christian,nairobi city,njiru,religion
cosmas ndeti road,church of pentecost kenya,36.908948,-1.297035,christian,nairobi city,embakasi,religion
amani court,catholic church st joseph,36.899078,-1.281262,christian,nairobi city,embakasi,religion
quarry road,grace covenant,36.895402,-1.279884,christian,nairobi city,embakasi,religion
address unknown,manmin church,36.894412,-1.280606,christian,nairobi city,embakasi,religion
address unknown,deliverance church umoja innercore campus,36.89089,-1.280855,christian,nairobi city,embakasi,religion
moi drive,assumption of mary,36.888636,-1.281907,christian,nairobi city,embakasi,religion
address unknown,pcea umoja,36.887042,-1.282116,christian,nairobi city,embakasi,religion
moi drive,deliverance church,36.871591,-1.280009,christian,nairobi city,embakasi,religion
address unknown,redeemed gospe,36.874226,-1.285448,christian,nairobi city,embakasi,religion
moi drive,end time message assembly,36.861526,-1.298518,christian,nairobi city,embakasi,religion
rabai road,apostolic faith,36.854665,-1.290158,christian,nairobi city,kamukunji,religion
rabai road,bahati pentecostal,36.859003,-1.288349,christian,nairobi city,makadara,religion
garissa road,shauri moyo seventh day adventist,36.844179,-1.289175,christian,nairobi city,makadara,religion
mbale road,p. c. e. a. sosian,36.906412,-1.281048,christian,nairobi city,makadara,religion
yakuti road,pcea church njiru,36.936722,-1.252838,christian,nairobi city,makadara,religion
butecho,all nations gospel,36.94124,-1.245698,christian,nairobi city,kamukunji,religion
kayole spine road,ack st. anne's,36.930942,-1.235447,christian,nairobi city,embakasi,religion
kangundo road,deliverance church,36.930342,-1.233402,christian,nairobi city,njiru,religion
komarock-mwiki road,p.e.f.a church,36.928559,-1.232217,christian,nairobi city,njiru,religion
a. c. k. road,gospel to nation ministry,36.924944,-1.231755,christian,nairobi city,kasarani,religion
deliverance road,kings outreach,36.881949,-1.214009,christian,nairobi city,kasarani,religion
kasarani mwiki road,ruaraka baptist,36.881721,-1.231912,christian,nairobi city,kasarani,religion
kasarani mwiki road,sts. joseph and anthony centre,36.752599,-1.355626,christian,nairobi city,kasarani,religion
mirema lane,sacred heart of jesus,36.741283,-1.302973,christian,nairobi city,kasarani,religion
address unknown,citam clay city,36.911581,-1.21249,christian,nairobi city,kasarani,religion
bogani east road,"the river of god church, parklands",36.81154377,-1.263617861,christian,nairobi city,langata,religion
pathway lane,st. francis xavier's catholic church,36.81926854,-1.264819198,christian,nairobi city,dagoretti,religion
thika road,ack st marks church westlands,36.79609425,-1.256581447,christian,nairobi city,kasarani,religion
chiromo ln ,impact church,36.80502064,-1.261558425,christian,nairobi city,westlands,religion
parklands road,parklands baptist church,36.80002679,-1.262479018,christian,nairobi city,westlands,religion
uknown address,christ embassy westlands church,36.81128604,-1.264788047,christian,nairobi city,westlands,religion
1870 mpaka rd,jubilee christian church,36.82428679,-1.266880482,christian,nairobi city,westlands,religion
uknown address,city of refuge cathedral - parklands,36.81105606,-1.264696123,christian,nairobi city,westlands,religion
15 chiromo ln,seventh day adventist church - parklands (parklands sda church),36.82307296,-1.266395069,christian,nairobi city,westlands,religion
forest ln,mamlaka hill chapel,36.81190574,-1.279865247,christian,nairobi city,westlands,religion
"lotus plaza, chiromo ln","st. paul's catholic chapel, university of nairobi",36.81455496,-1.277410945,christian,nairobi city,westlands,religion
forest ln,living faith international,36.7948139,-1.261107116,christian,nairobi city,westlands,religion
uknown address,hillsong church nairobi,36.80116537,-1.257674718,christian,nairobi city,westlands,religion
university roundabout,st andrews church old church,36.81386831,-1.278783894,christian,nairobi city,westlands,religion
rhapta rd,"nairobi chapel, waiyaki way",36.78914908,-1.256301757,christian,nairobi city,westlands,religion
karuna rd,sozo church of god,36.79807547,-1.262994933,christian,nairobi city,westlands,religion
uknown address,parklands christian centre (kag),36.81543072,-1.266749632,christian,nairobi city,westlands,religion
waiyaki way,cathedral basilica of the holy family,36.82114666,-1.285117759,christian,nairobi city,westlands,religion
rhapta rd,sda church - gloryland,36.7909375,-1.257468423,christian,nairobi city,westlands,religion
taarifa rd,st austin's parish - msongari,36.77834066,-1.26340064,christian,nairobi city,westlands,religion
koinange st,st. jude catholic chapel rhapta rd.,36.79153738,-1.264195855,christian,nairobi city,starehe,religion
uknown address,pcea westlands,36.80518296,-1.262244325,christian,nairobi city,westlands,religion
rhapta rd,nairobi baptist church westlands - nbc westlands,36.76768068,-1.241185021,christian,nairobi city,westlands,religion
rhapta rd,aic westlands,36.79044799,-1.257035092,christian,nairobi city,westlands,religion
uknown address,universal church,36.82013924,-1.278297982,christian,nairobi city,westlands,religion
ngecha rd,ratc ministry / the go church,36.82408745,-1.274951417,christian,nairobi city,westlands,religion
bohra st,life church international,36.82593281,-1.285935001,christian,nairobi city,westlands,religion
kijabe st,kingdom life church,36.81478816,-1.260169034,christian,nairobi city,starehe,religion
ngara road,ruach west assembly (a ministry of ruach assemblies),36.80474597,-1.259954509,christian,nairobi city,starehe,religion
moi avenu,life mission christian church,36.83101328,-1.269023356,christian,nairobi city,starehe,religion
parklands/highridge,shalom grace church,36.82702215,-1.271640549,christian,nairobi city,westlands,religion
uknown address,newlife sda church,36.80760925,-1.292972868,christian,nairobi city,westlands,religion
muranga road,victor's assembly church,36.82621271,-1.280200541,christian,nairobi city,westlands,religion
uknown address,the voice of god international ministries nairobi,36.81131263,-1.26705866,christian,nairobi city,westlands,religion
ngong avenu,empowerment christian church nairobi ecc,36.82086891,-1.280960978,christian,nairobi city,langata,religion
nduberi rd,regina caeli karen catholic church,36.7106968,-1.3255967,christian,nairobi city,starehe,religion
chiromo ln ,st.teresa catholic church,36.847387,-1.2672829,christian,nairobi city,westlands,religion
moi avenu,holy trinity catholic church kileleshwa,36.7804124,-1.2823027,christian,nairobi city,starehe,religion
uknown address,st paul catholic church,36.8634464,-1.2616941,christian,nairobi city,langata,religion
eastleigh 1st avenue,faith home of kenya,36.8782851,-1.2535902,christian,nairobi city,kamukunji,religion
nyeri road,nairobi baptist church,36.8006812,-1.2977603,christian,nairobi city,westlands,religion
uknown address,newlife sda church,36.8078312,-1.2944671,christian,nairobi city,mathare,religion
uknown address,makongeni seventh day adventist church,36.8544152,-1.2992885,christian,nairobi city,mathare,religion
ngong road,"aic church, makongeni",36.8549958,-1.2978532,christian,nairobi city,westlands,religion
5th avenue ngong,st. stephens church,36.8549988,-1.2955895,christian,nairobi city,westlands,religion
likoni road,st john the evangelist church,36.7460928,-1.3572139,christian,nairobi city,makadara,religion
likoni road,holy trinity church,36.8751007,-1.2763547,christian,nairobi city,makadara,religion
jogoo road,deliverance church langata,36.799501,-1.3227292,christian,nairobi city,makadara,religion
uknown address,loresho community church,36.7510879,-1.2525824,christian,nairobi city,langata,religion
uknown address,our lady of the rosary catholic church,36.8375962,-1.2243704,christian,nairobi city,langata,religion
kikwata crescent,karen vineyard church,36.7139804,-1.3174878,christian,nairobi city,kamukunji,religion
langata road,pcea kahawa farmers church,36.8973162,-1.1897253,christian,nairobi city,langata,religion
langata road,church of the lord,36.8723891,-1.2367028,christian,nairobi city,langata,religion
loresho ridge,maxwells s.d.a. church,36.8076612,-1.2887389,christian,nairobi city,westlands,religion
kiambu road,karengata sda church,36.764322,-1.3418222,christian,nairobi city,westlands,religion
uknown address,central church of the nazarene,36.7985187,-1.2980579,christian,nairobi city,langata,religion
uknown address,house of prayer christian church,36.843676,-1.3270287,christian,nairobi city,langata,religion
uknown address,ku seventh day church,36.930382,-1.1852876,christian,nairobi city,kasarani,religion
thika road,st gabriel catholic church,36.8637006,-1.215736,christian,nairobi city,kasarani,religion
milimani road,p.c.e.a evergreen church,36.829095,-1.2234688,christian,nairobi city,westlands,religion
langata road,faith evangelistic ministry family church,36.7092059,-1.3272719,christian,nairobi city,langata,religion
langata road,faith international church,36.8804248,-1.3091938,christian,nairobi city,langata,religion
ngong road,pcea kasarani chiiko church,36.9033051,-1.2151218,christian,nairobi city,westlands,religion
southern bypass,our lady of guadalupe catholic church,36.7791681,-1.3011853,christian,nairobi city,langata,religion
southern bypass,all africa conference of churches,36.7872909,-1.2602612,christian,nairobi city,langata,religion
uknown address,aic jericho church,36.8721022,-1.287311,christian,nairobi city,kasarani,religion
uknown address,ack st. james church,36.8789642,-1.2818945,christian,nairobi city,kasarani,religion
uknown address,abc church sinai,36.8805494,-1.308948,christian,nairobi city,westlands,religion
uknown address,nairobi international lutheran church,36.7477888,-1.3033857,christian,nairobi city,langata,religion
uknown address,christ the king catholic church kangemi,36.7518405,-1.2688093,christian,nairobi city,langata,religion
uknown address,gospel mission of christ church (heart of worship),36.802431,-1.3166055,christian,nairobi city,makadara,religion
seasons road,st. barnabas anglican church,36.7787608,-1.3231565,christian,nairobi city,kasarani,religion
suna road,hossana community church,36.7905938,-1.3111145,christian,nairobi city,kibra,religion
waiyaki way,legio maria (african church mission),36.7928086,-1.3137166,christian,nairobi city,westlands,religion
shule road,st christine community church,36.7787412,-1.31664,christian,nairobi city,makadara,religion
ol doinyo sabuk road,community church,36.7788403,-1.3171476,christian,nairobi city,makadara,religion
uknown address,holy mountain worship center,36.7946148,-1.317096,christian,nairobi city,makadara,religion
ngong road,nairobi dam pentecostal church,36.7942145,-1.3187506,christian,nairobi city,dagoretti,religion
uknown address,st veronica catholic church,36.7941609,-1.3145085,christian,nairobi city,westlands,religion
uknown address,anglican church,36.7895267,-1.308104,christian,nairobi city,langata,religion
uknown address,olympic catholic church,36.7804005,-1.3141758,christian,nairobi city,langata,religion
uknown address,berith life church,36.7772857,-1.3127317,christian,nairobi city,langata,religion
uknown address,kibera church of god,36.7948972,-1.3109454,christian,nairobi city,langata,religion
uknown address,glory worship center,36.7963117,-1.3117662,christian,nairobi city,kibra,religion
uknown address,end times church,36.7858857,-1.3137524,christian,nairobi city,kibra,religion
uknown address,living bread church of christ,36.7775278,-1.3153537,christian,nairobi city,kibra,religion
uknown address,hope gospel church,36.7904071,-1.3154135,christian,nairobi city,kibra,religion
uknown address,beth face church,36.7777305,-1.316861,christian,nairobi city,kibra,religion
uknown address,bible truth revival church,36.7965338,-1.3125154,christian,nairobi city,kibra,religion
uknown address,the door fellowship church,36.7743338,-1.3085211,christian,nairobi city,kibra,religion
uknown address,jesus winners church,36.7988307,-1.3153039,christian,nairobi city,kibra,religion
uknown address,centrol church,36.7973882,-1.3136958,christian,nairobi city,kibra,religion
uknown address,family network cchurch,36.7973564,-1.3132408,christian,nairobi city,kibra,religion
uknown address,world misionary church,36.8018139,-1.3155353,christian,nairobi city,kibra,religion
uknown address,peace of christ church,36.7918642,-1.3095354,christian,nairobi city,kibra,religion
uknown address,qdc c church,36.7884032,-1.3106485,christian,nairobi city,kibra,religion
uknown address,sda church undugu mill,36.7986385,-1.3177613,christian,nairobi city,kibra,religion
uknown address,the door church,36.7979366,-1.3172506,christian,nairobi city,kibra,religion
uknown address,"ack emmanuel church, school & clinic",36.7986813,-1.318449,christian,nairobi city,langata,religion
uknown address,mission outreach church,36.795217,-1.3158817,christian,nairobi city,langata,religion
uknown address,pcea church and high school,36.7971072,-1.3174148,christian,nairobi city,kibra,religion
uknown address,kibera all nations church,36.7738533,-1.3109656,christian,nairobi city,kibra,religion
uknown address,apostles believers church,36.7761819,-1.312318,christian,nairobi city,langata,religion
uknown address,pentecostal fellowship church,36.7765443,-1.3115372,christian,nairobi city,langata,religion
uknown address,makongeni catholic church,36.7888875,-1.3090973,christian,nairobi city,kibra,religion
uknown address,pag church nyanza region,36.7966191,-1.3180009,christian,nairobi city,kibra,religion
uknown address,handmark baptised church,36.7992605,-1.3171702,christian,nairobi city,langata,religion
uknown address,revival church,36.8007775,-1.3138847,christian,nairobi city,langata,religion
uknown address,reedemed gospel church-laini saba,36.7957813,-1.31104,christian,nairobi city,kibra,religion
uknown address,better life center kibera church,36.7764374,-1.2899044,christian,nairobi city,kibra,religion
uknown address,apostolic fellowship church of kibera,36.7915979,-1.3136297,christian,nairobi city,kibra,religion
uknown address,lindi friends church,36.7939695,-1.3166761,christian,nairobi city,kibra,religion
uknown address,jamhuri sda church,36.7720014,-1.308223,christian,nairobi city,kibra,religion
uknown address,sodid rock revival church,36.772677,-1.3074059,christian,nairobi city,kibra,religion
uknown address,fpkf church,36.7825698,-1.3070928,christian,nairobi city,kibra,religion
uknown address,a.b.c church,36.7953578,-1.3118228,christian,nairobi city,kibra,religion
uknown address,church of mercy,36.782792,-1.3137834,christian,nairobi city,kibra,religion
uknown address,st george orthodox church,36.7751737,-1.3118425,christian,nairobi city,kibra,religion
uknown address,katwekera sda church,36.7811242,-1.3145926,christian,nairobi city,kibra,religion
uknown address,jamhuri church of christ,36.7741156,-1.311314,christian,nairobi city,kibra,religion
uknown address,holy trinity church,36.7833015,-1.3071744,christian,nairobi city,kibra,religion
uknown address,emmanuel baptist church,36.7611497,-1.2918992,christian,nairobi city,langata,religion
uknown address,outreach community church,36.7927317,-1.3114207,christian,nairobi city,langata,religion
uknown address,outreach community church,36.775136,-1.3125127,christian,nairobi city,kibra,religion
uknown address,overcomming faith church (ofc),36.8790204,-1.2289667,christian,nairobi city,westlands,religion
uknown address,the nairobi korean church,36.9038209,-1.220051,christian,nairobi city,kibra,religion
uknown address,anglican church of kenya,36.7871742,-1.2270445,christian,nairobi city,kibra,religion
uknown address,ack - st. mathews church karen,36.7422926,-1.366521,christian,nairobi city,kibra,religion
uknown address,nairobi pentecostal church (central),36.8055689,-1.2916983,christian,nairobi city,kibra,religion
uknown address,nomiya church,36.7948034,-1.318893,christian,nairobi city,kibra,religion
uknown address,world ecclesiastes church,36.7948767,-1.3192606,christian,nairobi city,kibra,religion
uknown address,assumption of mary catholic church umoja,36.8885731,-1.2818619,christian,nairobi city,kibra,religion
uknown address,international bible students association (jehovah's witnesses)church,36.777664,-1.2951481,christian,nairobi city,kibra,religion
uknown address,soweto west llc church,36.7760166,-1.3138062,christian,nairobi city,kibra,religion
uknown address,pefa church imara daima,36.8859177,-1.3219732,christian,nairobi city,kibra,religion
uknown address,maji mazuri gospel church,36.8844571,-1.319684,christian,nairobi city,kibra,religion
kingara road,mukuru catholic church,36.8811835,-1.3145944,christian,nairobi city,westlands,religion
uknown address,african inland church bethany,36.8865994,-1.316536,christian,nairobi city,kibra,religion
uknown address,st. peter's methodist church,36.7855248,-1.3273123,christian,nairobi city,kibra,religion
thika road,the church of jesus christ of latter-day saints,36.8916186,-1.2132981,christian,nairobi city,kasarani,religion
kasarani mwiki road,international christian church center,36.8766822,-1.3262788,christian,nairobi city,kasarani,religion
uknown address,st. john everlasting gospel church,36.8817235,-1.3246154,christian,nairobi city,langata,religion
uknown address,agape fellowship church,36.8744062,-1.318334,christian,nairobi city,langata,religion
uknown address,aic lunga lunga church,36.8707431,-1.3115847,christian,nairobi city,westlands,religion
tembo road,st. bakhita catholic church,36.8887475,-1.3253236,christian,nairobi city,langata,religion
tembo road,faith healing center,36.8664095,-1.3165934,christian,nairobi city,langata,religion
mai mahiu road,rabii church of the holy spirit,36.8857614,-1.3130891,christian,nairobi city,langata,religion
uknown address,jehova witness church,36.8679145,-1.3137404,christian,nairobi city,westlands,religion
uknown address,light evangelical church,36.8712635,-1.313269,christian,nairobi city,kibra,religion
uknown address,goshen pentecostal church,36.8650784,-1.3155504,christian,nairobi city,kibra,religion
uknown address,kwa rueben s.d.a. church,36.8719167,-1.3136137,christian,nairobi city,embakasi,religion
uknown address,agape kingstone fellowship church,36.8630833,-1.3142021,christian,nairobi city,westlands,religion
uknown address,reheboth christian gospel church,36.8851455,-1.3084624,christian,nairobi city,kibra,religion
uknown address,mukuru catholic church,36.8813661,-1.3143775,christian,nairobi city,embakasi,religion
uknown address,jehova witness church,36.8702646,-1.3131426,christian,nairobi city,embakasi,religion
uknown address,glorious land gospel church,36.8874075,-1.3188954,christian,nairobi city,embakasi,religion
uknown address,st. mary's parish catholic church,36.8818283,-1.3140928,christian,nairobi city,embakasi,religion
uknown address,medical missionary of mary(mmm) church,36.8812218,-1.3131337,christian,nairobi city,langata,religion
uknown address,deliverance church eastleigh,36.8471447,-1.2756277,christian,nairobi city,langata,religion
uknown address,good will ministries church,36.8574662,-1.2636558,christian,nairobi city,kasarani,religion
mombasa road,sinai church of god,36.8557846,-1.2636666,christian,nairobi city,embakasi,religion
uknown address,a.i.p.c.a -4b church,36.8559411,-1.2635468,christian,nairobi city,embakasi,religion
uknown address,redeemed goslpel church,36.8496053,-1.2645638,christian,nairobi city,embakasi,religion
uknown address,st marks mathare church,36.8506853,-1.2645723,christian,nairobi city,makadara,religion
uknown address,el-shaddai church,36.8505963,-1.265702,christian,nairobi city,embakasi,religion
uknown address,new jerusalem holy ghost church,36.8537624,-1.2659934,christian,nairobi city,embakasi,religion
uknown address,hosana blessed church,36.8742303,-1.2572847,christian,nairobi city,embakasi,religion
uknown address,evangelical victory church,36.8747371,-1.2563749,christian,nairobi city,embakasi,religion
uknown address,p.c.e.a. church,36.8514569,-1.2627263,christian,nairobi city,embakasi,religion
uknown address,st. teresa's catholic church eastleigh,36.8476377,-1.2670766,christian,nairobi city,embakasi,religion
uknown address,heritage worship church,36.8523697,-1.2643752,christian,nairobi city,embakasi,religion
uknown address,christ the arrow of deliverance church,36.8534916,-1.2643821,christian,nairobi city,makadara,religion
uknown address,christ the way church,36.8514487,-1.265594,christian,nairobi city,embakasi,religion
uknown address,roho israel church of god,36.8573714,-1.2623628,christian,nairobi city,embakasi,religion
uknown address,apostolic fellowship church,36.8592487,-1.2610304,christian,nairobi city,embakasi,religion
uknown address,mowara israel church,36.8575133,-1.2619129,christian,nairobi city,embakasi,religion
uknown address,st john evalasting gospel church,36.8589123,-1.2613645,christian,nairobi city,embakasi,religion
uknown address,redeemed gospel church,36.8575091,-1.26157,christian,nairobi city,embakasi,religion
uknown address,soul winning church,36.8666487,-1.256337,christian,nairobi city,kamukunji,religion
uknown address,st.stephen catholic church,36.8756496,-1.2513864,christian,nairobi city,mathare,religion
uknown address,seventh day adventist church skyway,36.9580603,-1.2788998,christian,nairobi city,mathare,religion
uknown address,mountain view sda church,36.7371395,-1.2614078,christian,nairobi city,mathare,religion
uknown address,rosa mystica spiritual center church,36.7624739,-1.2967958,christian,nairobi city,mathare,religion
uknown address,african christian church,36.8504144,-1.2643329,christian,nairobi city,mathare,religion
uknown address,peniel ministry church,36.8432879,-1.2644822,christian,nairobi city,mathare,religion
juja road,redeemed gospel church,36.8660048,-1.2611722,christian,nairobi city,kamukunji,religion
uknown address,roho israel church of god,36.8571493,-1.2630759,christian,nairobi city,mathare,religion
uknown address,gospel tabernacle church,36.8627719,-1.2601981,christian,nairobi city,mathare,religion
uknown address,internationale evangelical church,36.8653433,-1.2623388,christian,nairobi city,mathare,religion
eastleigh 1st avenue,african divine church org. vct,36.8653793,-1.2621251,christian,nairobi city,kamukunji,religion
uknown address,word temple church,36.8642846,-1.2590427,christian,nairobi city,mathare,religion
uknown address,christ co. fellowship church,36.8653539,-1.2621949,christian,nairobi city,mathare,religion
uknown address,friends church,36.8650066,-1.2608798,christian,nairobi city,mathare,religion
uknown address,agape church,36.8635176,-1.2623091,christian,nairobi city,kasarani,religion
uknown address,faith assembly and nursery school,36.8615594,-1.2631034,christian,nairobi city,kasarani,religion
uknown address,outreach fellowship church,36.8636835,-1.262619,christian,nairobi city,kasarani,religion
uknown address,aic zion church,36.8624278,-1.2628816,christian,nairobi city,kasarani,religion
uknown address,mabatini praise worship church,36.8632017,-1.2589567,christian,nairobi city,kasarani,religion
uknown address,"friends church makadara, jericho market",36.8725089,-1.2882188,christian,nairobi city,kasarani,religion
uknown address,neema worship centre,36.8535681,-1.2633104,christian,nairobi city,kasarani,religion
uknown address,holy ghost church,36.858929,-1.2628347,christian,nairobi city,njiru,religion
uknown address,megah church ministry.,36.8439909,-1.2653729,christian,nairobi city,westlands,religion
uknown address,mlango kubwa church,36.8446765,-1.2639699,christian,nairobi city,westlands,religion
uknown address,mathare church of nazarene,36.8446676,-1.2655919,christian,nairobi city,mathare,religion
uknown address,ack mathare church,36.8441275,-1.2647788,christian,nairobi city,mathare,religion
uknown address,redeemed gospel church.,36.8449896,-1.2661332,christian,nairobi city,mathare,religion
uknown address,pcea mathare valley,36.8454132,-1.2644629,christian,nairobi city,mathare,religion
uknown address,african church,36.8491995,-1.2628827,christian,nairobi city,mathare,religion
uknown address,judah gospel church,36.8757879,-1.2570159,christian,nairobi city,mathare,religion
uknown address,soldiers of faith church,36.8762901,-1.2567156,christian,nairobi city,mathare,religion
uknown address,c.j.c.c church,36.8750008,-1.2574663,christian,nairobi city,mathare,religion
uknown address,huruma baptist church,36.8748533,-1.2575369,christian,nairobi city,mathare,religion
uknown address,pcea church and junior academy,36.8650056,-1.2564073,christian,nairobi city,mathare,religion
uknown address,st mauras catholic church,36.8675097,-1.2530498,christian,nairobi city,mathare,religion
uknown address,genesis immaculate church,36.8703574,-1.2581774,christian,nairobi city,mathare,religion
uknown address,grace world harvest church,36.8695416,-1.2580618,christian,nairobi city,mathare,religion
uknown address,st mathias mulumba church,36.8730689,-1.255255,christian,nairobi city,mathare,religion
uknown address,apostolic church of christ,36.8732995,-1.2544255,christian,nairobi city,mathare,religion
uknown address,evangelical victory church,36.8783261,-1.2533697,christian,nairobi city,makadara,religion
uknown address,life in christ church,36.8000852,-1.3128369,christian,nairobi city,mathare,religion
uknown address,"god's power church,ruaraka,kenya",36.8749082,-1.2482361,christian,nairobi city,mathare,religion
uknown address,chieko sda church,36.9224909,-1.2350159,christian,nairobi city,mathare,religion
uknown address,nabii powerful christian church,36.8808399,-1.3180568,christian,nairobi city,mathare,religion
uknown address,bread of life church,36.88443,-1.3166739,christian,nairobi city,mathare,religion
uknown address,gethsemane ministry imara daima church,36.8844746,-1.3178565,christian,nairobi city,mathare,religion
uknown address,gospel futhering church,36.8839592,-1.3173057,christian,nairobi city,mathare,religion
uknown address,kwa njenga milimani church,36.884663,-1.3166386,christian,nairobi city,mathare,religion
uknown address,living gospel church,36.8844928,-1.3140144,christian,nairobi city,mathare,religion
uknown address,overcomers church,36.8837383,-1.3155846,christian,nairobi city,mathare,religion
uknown address,rejoice gospel christian church,36.884092,-1.3141028,christian,nairobi city,mathare,religion
uknown address,hossana prophetic and miracle church,36.885805,-1.3181163,christian,nairobi city,mathare,religion
uknown address,oasis of grace church,36.8863281,-1.3146918,christian,nairobi city,mathare,religion
uknown address,overcomers miracle church,36.8850945,-1.3188251,christian,nairobi city,kasarani,religion
uknown address,zion arc glory church,36.887367,-1.3220174,christian,nairobi city,kasarani,religion
uknown address,ack diamond church,36.8776267,-1.3128394,christian,nairobi city,mathare,religion
uknown address,full inependent concregations church,36.8748923,-1.3159989,christian,nairobi city,mathare,religion
uknown address,g.n.c.a. church lungalunga,36.8682322,-1.3112186,christian,nairobi city,mathare,religion
uknown address,god celebration church,36.8613853,-1.3101941,christian,nairobi city,mathare,religion
uknown address,huduma prophetic church,36.8745202,-1.3180808,christian,nairobi city,mathare,religion
uknown address,living light church,36.8763903,-1.3153401,christian,nairobi city,kibra,religion
outer ring road,oasis church of god,36.8755702,-1.3164414,christian,nairobi city,kasarani,religion
uknown address,st. monicah catholic church,36.865504,-1.3116528,christian,nairobi city,kasarani,religion
uknown address,african inland church,36.8764224,-1.3178859,christian,nairobi city,embakasi,religion
uknown address,agape fellowship church,36.8743902,-1.3183171,christian,nairobi city,embakasi,religion
uknown address,huduma prophetic church,36.8744865,-1.3180541,christian,nairobi city,embakasi,religion
uknown address,pcea neema church,36.872832,-1.3109245,christian,nairobi city,embakasi,religion
uknown address,kwa reuben baptist church,36.8662052,-1.3160039,christian,nairobi city,embakasi,religion
uknown address,kileleshwa covenant community church (k3c),36.7892705,-1.2780631,christian,nairobi city,embakasi,religion
uknown address,hollyness worship centre,36.8492487,-1.3151129,christian,nairobi city,embakasi,religion
uknown address,hazina sda church,36.8489063,-1.313805,christian,nairobi city,embakasi,religion
uknown address,pefa church and school,36.8454859,-1.3135899,christian,nairobi city,embakasi,religion
uknown address,mukuru africa evangelicul prospytorian church,36.8427902,-1.3109426,christian,nairobi city,embakasi,religion
uknown address,pcea,36.8501147,-1.312621,christian,nairobi city,embakasi,religion
uknown address,st veronica ack church,36.8423413,-1.3118808,christian,nairobi city,embakasi,religion
uknown address,ack church,36.8366304,-1.3077684,christian,nairobi city,embakasi,religion
uknown address,pcea,36.8458232,-1.3122895,christian,nairobi city,embakasi,religion
uknown address,our lady queen of peace catholic church,36.834068,-1.3112059,christian,nairobi city,makadara,religion
uknown address,agape gospel church,36.8173433,-1.3081161,christian,nairobi city,makadara,religion
uknown address,community presbyterian church - madaraka,36.8176289,-1.3095412,christian,nairobi city,embakasi,religion
uknown address,kristoe church of evangelistic,36.8931548,-1.2475912,christian,nairobi city,embakasi,religion
uknown address,damascus assemblys church,36.8876634,-1.2526861,christian,nairobi city,embakasi,religion
uknown address,overcomers lifeseekers church,36.8879253,-1.2526085,christian,nairobi city,makadara,religion
uknown address,redeemed gospel church,36.887629,-1.2496927,christian,nairobi city,embakasi,religion
uknown address,rehema church/day care,36.8887865,-1.2518733,christian,nairobi city,embakasi,religion
uknown address,vision people in mission church,36.8900181,-1.2502258,christian,nairobi city,embakasi,religion
uknown address,kariobangi dioces church,36.8913228,-1.2475021,christian,nairobi city,makadara,religion
uknown address,matendo ministry church,36.7898735,-1.3086069,christian,nairobi city,embakasi,religion
uknown address,african divine church,36.7874502,-1.3092632,christian,nairobi city,westlands,religion
uknown address,anglican catolic church,36.8921171,-1.2519965,christian,nairobi city,starehe,religion
uknown address,church of the lord and faith ministry,36.891104,-1.2473572,christian,nairobi city,starehe,religion
uknown address,diet of the word church,36.7741434,-1.310668,christian,nairobi city,starehe,religion
uknown address,outreach community church,36.7755237,-1.312689,christian,nairobi city,starehe,religion
uknown address,grogan b holy church,36.8887725,-1.2481104,christian,nairobi city,starehe,religion
uknown address,kenhut sda church,36.9176719,-1.2212639,christian,nairobi city,starehe,religion
uknown address,citam woodley church,36.7742771,-1.3029976,christian,nairobi city,starehe,religion
uknown address,springs of life lutheran church,36.7797329,-1.311354,christian,nairobi city,starehe,religion
uknown address,st jude catholic church (kwa reuben),36.8697212,-1.3142977,christian,nairobi city,starehe,religion
uknown address,apostolic faith church (kwa reuben),36.869364,-1.3139148,christian,nairobi city,langata,religion
uknown address,jesus new life church,36.8605049,-1.3126795,christian,nairobi city,langata,religion
uknown address,jesus sanctuary church and primary school,36.8480737,-1.3130245,christian,nairobi city,langata,religion
uknown address,oasis church and school,36.8489316,-1.3128855,christian,nairobi city,langata,religion
uknown address,imani church,36.8442273,-1.3111192,christian,nairobi city,kasarani,religion
uknown address,marrow gate pentecostal church,36.8442167,-1.3111258,christian,nairobi city,kasarani,religion
uknown address,our lady of peace church,36.8333494,-1.311568,christian,nairobi city,kasarani,religion
uknown address,full gospel churches of east africa,36.8427158,-1.3110088,christian,nairobi city,kasarani,religion
uknown address,kenya african church,36.8400809,-1.3069361,christian,nairobi city,kasarani,religion
uknown address,mukuru africa evangelical el-shadai church/ school,36.8428267,-1.3109416,christian,nairobi city,kasarani,religion
uknown address,seventh day adventist church,36.8412856,-1.3076213,christian,nairobi city,kasarani,religion
uknown address,st.judes catholic church,36.8045155,-1.3155513,christian,nairobi city,kibra,religion
uknown address,st magaret catholic church,36.8485343,-1.3170221,christian,nairobi city,kibra,religion
uknown address,jcc church,36.8471477,-1.3181503,christian,nairobi city,kasarani,religion
uknown address,ayie singruok mochuere church,36.8859726,-1.246773,christian,nairobi city,kasarani,religion
uknown address,calvary church of god,36.8865925,-1.246835,christian,nairobi city,kibra,religion
uknown address,faith church of christ,36.8894531,-1.2433462,christian,nairobi city,kibra,religion
uknown address,rock greeck victory church,36.8893395,-1.2460393,christian,nairobi city,kasarani,religion
city chicken road,africa inland church,36.8820523,-1.248308,christian,nairobi city,kasarani,religion
joseph kang'ethe,chistian revival church and school,36.8830749,-1.2475744,christian,nairobi city,kibra,religion
uknown address,hosana gospel outreach church,36.8852591,-1.2482202,christian,nairobi city,kibra,religion
uknown address,japolo church,36.8837705,-1.247644,christian,nairobi city,embakasi,religion
uknown address,japolo church,36.8842176,-1.2487881,christian,nairobi city,embakasi,religion
uknown address,kariobangi soko church,36.8843881,-1.2479662,christian,nairobi city,makadara,religion
uknown address,redeemed gospel church,36.887394,-1.2468496,christian,nairobi city,starehe,religion
uknown address,redeemed gospel church,36.8828115,-1.2481862,christian,nairobi city,starehe,religion
uknown address,roho church,36.8843567,-1.2488456,christian,nairobi city,starehe,religion
uknown address,sayuni pentecostal church,36.8833105,-1.2492259,christian,nairobi city,starehe,religion
uknown address,smata wisdom church,36.8871568,-1.2468228,christian,nairobi city,starehe,religion
uknown address,abundant life worship centre,36.8841416,-1.2423849,christian,nairobi city,starehe,religion
uknown address,the pillar of light church,36.8841232,-1.2414346,christian,nairobi city,starehe,religion
uknown address,true vine church,36.8840869,-1.2426331,christian,nairobi city,starehe,religion
uknown address,bethsaida church,36.8979989,-1.240254,christian,nairobi city,starehe,religion
uknown address,christ the king church,36.8989266,-1.241143,christian,nairobi city,langata,religion
uknown address,evangelism church,36.8950241,-1.238912,christian,nairobi city,langata,religion
uknown address,friends church ruaraka,36.8966841,-1.2382817,christian,nairobi city,starehe,religion
uknown address,international ministry church,36.8969101,-1.2422588,christian,nairobi city,starehe,religion
uknown address,living mountain church,36.8937004,-1.2429731,christian,nairobi city,kasarani,religion
uknown address,pcea kasarani chodong church,36.8913473,-1.2404199,christian,nairobi city,kasarani,religion
uknown address,redeemed evangelistic fellowship church,36.8978469,-1.2407234,christian,nairobi city,kasarani,religion
uknown address,redeemed gospel church,36.9002219,-1.2391677,christian,nairobi city,kasarani,religion
uknown address,true value church,36.8924667,-1.2438634,christian,nairobi city,kasarani,religion
uknown address,soul harvester church,36.8925685,-1.2441501,christian,nairobi city,kasarani,religion
uknown address,gomongo sda church,36.8935774,-1.2403297,christian,nairobi city,kasarani,religion
uknown address,kag babandogo church,36.8809331,-1.2475385,christian,nairobi city,kasarani,religion
uknown address,land marks baptist church,36.8785591,-1.2480721,christian,nairobi city,kasarani,religion
uknown address,united pentecostal church,36.8807583,-1.247097,christian,nairobi city,kasarani,religion
uknown address,vrc riverside church,36.8806938,-1.2475845,christian,nairobi city,kasarani,religion
uknown address,lower kabete sda church,36.7250019,-1.2555125,christian,nairobi city,kasarani,religion
uknown address,st vincent palotti catholic church,36.7546366,-1.3006141,christian,nairobi city,kasarani,religion
uknown address,grace church,36.893369,-1.2952629,christian,nairobi city,kasarani,religion
uknown address,umoja p.a.g church,36.8934764,-1.284981,christian,nairobi city,kasarani,religion
uknown address,mashimoni friends church,36.7915802,-1.3095942,christian,nairobi city,kasarani,religion
uknown address,karen community church,36.6879982,-1.3304604,christian,nairobi city,kasarani,religion
uknown address,ack st prisca church,36.8906108,-1.2498197,christian,nairobi city,kasarani,religion
uknown address,hhi israel church,36.8900525,-1.2482164,christian,nairobi city,kasarani,religion
uknown address,pcea,36.8896186,-1.2490326,christian,nairobi city,kasarani,religion
uknown address,pefa kariobangi church,36.8915348,-1.2487805,christian,nairobi city,kasarani,religion
uknown address,christ divine church,36.8894072,-1.2541415,christian,nairobi city,kasarani,religion
uknown address,christ ministry church,36.8840458,-1.2597408,christian,nairobi city,kasarani,religion
uknown address,faith of hope centre,36.8880453,-1.2508818,christian,nairobi city,kasarani,religion
uknown address,highridge baptist church,36.8924971,-1.2509341,christian,nairobi city,kasarani,religion
uknown address,jesus worship centre,36.8860082,-1.2557073,christian,nairobi city,kasarani,religion
uknown address,makao church,36.8861112,-1.2567124,christian,nairobi city,kasarani,religion
uknown address,roho msalaba church,36.8907821,-1.2490502,christian,nairobi city,kasarani,religion
uknown address,vision and hope revival church,36.885608,-1.2555959,christian,nairobi city,kasarani,religion
uknown address,wakonino church,36.8886002,-1.2534789,christian,nairobi city,kasarani,religion
uknown address,st clares catholic church,36.8873332,-1.2518002,christian,nairobi city,kasarani,religion
uknown address,abc church south b region,36.8384767,-1.3089645,christian,nairobi city,kasarani,religion
uknown address,new israel true gospel church,36.84515,-1.3123862,christian,nairobi city,kasarani,religion
uknown address,nairobi west church,36.836642,-1.3093169,christian,nairobi city,kasarani,religion
uknown address,saint charles lwanga catholic church,36.8370131,-1.3083778,christian,nairobi city,kasarani,religion
kapenguria road,saint pauls aipca church,36.8371204,-1.3093299,christian,nairobi city,westlands,religion
st. daniel comboni road,gethsemane worship centre,36.8379184,-1.3078867,christian,nairobi city,dagoretti,religion
uknown address,bethwell church,36.8395587,-1.308345,christian,nairobi city,embakasi,religion
moi drive,four square church,36.8393129,-1.3081427,christian,nairobi city,embakasi,religion
uknown address,healing and hope church,36.8391779,-1.3075038,christian,nairobi city,kibra,religion
ngong view road,south b friends church(quakers),36.8459163,-1.3133876,christian,nairobi city,langata,religion
ngong view road,adc church,36.8408892,-1.306957,christian,nairobi city,langata,religion
uknown address,church of joy,36.8406778,-1.3086881,christian,nairobi city,kasarani,religion
uknown address,harvest christian church international,36.8403729,-1.3092368,christian,nairobi city,kasarani,religion
uknown address,kenya african church of holy spirit,36.8409287,-1.3068687,christian,nairobi city,kasarani,religion
uknown address,african evalingelical church,36.8427271,-1.311042,christian,nairobi city,kasarani,religion
uknown address,a.m.o.h.gm church,36.8407805,-1.3070809,christian,nairobi city,kasarani,religion
uknown address,wordwide gospel church,36.8384552,-1.3090265,christian,nairobi city,embakasi,religion
uknown address,holy seed church,36.841275,-1.3071429,christian,nairobi city,kasarani,religion
uknown address,seventhday adventist church,36.8488922,-1.3136995,christian,nairobi city,kasarani,religion
uknown address,upendo sda church,36.7779166,-1.3177906,christian,nairobi city,kasarani,religion
uknown address,st. lukes methodist church,36.7478854,-1.3502443,christian,nairobi city,kasarani,religion
uknown address,ridgeways baptist church,36.8420482,-1.2219592,christian,nairobi city,embakasi,religion
uknown address,church of christ in africa,36.7964131,-1.3170952,christian,nairobi city,kasarani,religion
uknown address,parklands baptist church,36.7998613,-1.2660166,christian,nairobi city,kasarani,religion
uknown address,runda independent baptist church,36.8205184,-1.2158455,christian,nairobi city,kasarani,religion
uknown address,holy cross catholic church,36.7604333,-1.2844097,christian,nairobi city,kasarani,religion
uknown address,korean united church,36.7752025,-1.2903228,christian,nairobi city,kasarani,religion
uknown address,riruta catholic church,36.7389213,-1.28204,christian,nairobi city,starehe,religion
uknown address,ack congo church,36.7538725,-1.2872078,christian,nairobi city,starehe,religion
uknown address,christ holy church international (a. k. a. nation builders),36.7529482,-1.2943882,christian,nairobi city,starehe,religion
uknown address,lavington united church,36.7704406,-1.2817111,christian,nairobi city,starehe,religion
uknown address,methodist church of kenya,36.7711766,-1.2885209,christian,nairobi city,starehe,religion
uknown address,river of god church,36.8115095,-1.2674467,christian,nairobi city,starehe,religion
uknown address,pcea church - thome,36.8690699,-1.2264379,christian,nairobi city,starehe,religion
uknown address,nairobi lighthouse church,36.8636117,-1.2342669,christian,nairobi city,starehe,religion
uknown address,pcea karen church,36.7053992,-1.3207809,christian,nairobi city,starehe,religion
uknown address,st. nicholas anglican cdc,36.7149073,-1.3226401,christian,nairobi city,starehe,religion
uknown address,redeemer bible church,36.7134525,-1.3196424,christian,nairobi city,starehe,religion
uknown address,mount zion worship sanctuar,36.7335858,-1.3402805,christian,nairobi city,starehe,religion
uknown address,new testament church of god - kenya head office,36.7271748,-1.3493924,christian,nairobi city,starehe,religion
uknown address,st.michael catholic church langata,36.7834875,-1.3210338,christian,nairobi city,starehe,religion
uknown address,house of grace mega church,36.8193474,-1.3102655,christian,nairobi city,starehe,religion
uknown address,st.augustine ack church madaraka,36.8110391,-1.3105653,christian,nairobi city,starehe,religion
uknown address,the church of jesus christ of latter-day saints nairobi upper hill,36.8192431,-1.2975615,christian,nairobi city,starehe,religion
uknown address,eritrean orthodox tewahido church,36.7896082,-1.3012911,christian,nairobi city,starehe,religion
uknown address,"ack christ church, westlands",36.78817,-1.2621849,christian,nairobi city,starehe,religion
uknown address,pcea kahawa station church,36.9084761,-1.1833397,christian,nairobi city,starehe,religion
uknown address,trinity revival church,36.844624,-1.2889688,christian,nairobi city,starehe,religion
uknown address,mavuno mashariki church,36.8758061,-1.2943093,christian,nairobi city,langata,religion
uknown address,blessed sacrament catholic church,36.8813484,-1.2918676,christian,nairobi city,langata,religion
uknown address,"st, daniel comboni catholic church",36.9464228,-1.2831851,christian,nairobi city,langata,religion
uknown address,pcea church (ng'undu parish),37.0536105,-1.2762886,christian,nairobi city,langata,religion
uknown address,st. gabriel catholic church,37.0655985,-1.275143,christian,nairobi city,kasarani,religion
uknown address,deliverance church ruai,37.0089158,-1.2760305,christian,nairobi city,kibra,religion
uknown address,friends church nairobi west,36.8135832,-1.3094657,christian,nairobi city,westlands,religion
uknown address,faith evangelistic ministry family church,36.7103903,-1.3272673,christian,nairobi city,westlands,religion
serenity road,eternity gospel church,36.7129832,-1.3295088,christian,nairobi city,westlands,religion
uknown address,nairobi lighthouse church,36.8071714,-1.2691399,christian,nairobi city,westlands,religion
uknown address,st. monica njiru catholic church,36.9363727,-1.2528046,christian,nairobi city,dagoretti,religion
uknown address,st. mark coptic orthodox church,36.7977979,-1.2983338,christian,nairobi city,dagoretti,religion
uknown address,the purpose center church,36.8676123,-1.3312184,christian,nairobi city,dagoretti,religion
uknown address,jcc thika road church,36.8704612,-1.2365495,christian,nairobi city,westlands,religion
uknown address,ruaraka methodist church,36.8704654,-1.2342359,christian,nairobi city,westlands,religion
chiromo lane,thika road baptist church,36.8858883,-1.2243075,christian,nairobi city,westlands,religion
uknown address,sportsview sda church-kasarani,36.9031313,-1.2233824,christian,nairobi city,kasarani,religion
balozi estate road,st francis catholic church st claire parish,36.9177423,-1.2245102,christian,nairobi city,kasarani,religion
uknown address,christ the king catholic church,36.9116182,-1.3090089,christian,nairobi city,langata,religion
uknown address,parklands baptist church eastgate,36.9119922,-1.3075184,christian,nairobi city,langata,religion
uknown address,st. peter's a.c.k church embakasi,36.9117379,-1.3076131,christian,nairobi city,langata,religion
uknown address,pefa church - doonholm,36.8899022,-1.2980617,christian,nairobi city,langata,religion
ngong road,deliverance church donholm,36.8917515,-1.2992168,christian,nairobi city,langata,religion
ngong road,pcea tena parish,36.8881423,-1.2921674,christian,nairobi city,langata,religion
uknown address,buruburu community centre church of god,36.8813248,-1.2886147,Uknown,nairobi city,langata,religion
uknown address,kag church buruburu,36.878234,-1.2773825,christian,nairobi city,langata,religion
uknown address,holy family catholic church,36.9737491,-1.2776278,christian,nairobi city,langata,religion
uknown address,redeemed gospel church,36.8872266,-1.311588,christian,nairobi city,langata,religion
uknown address,church of pentecost kenya,36.9089482,-1.297035,christian,nairobi city,langata,religion
uknown address,catholic church st joseph,36.8990783,-1.2812621,christian,nairobi city,langata,religion
uknown address,manmin church,36.8944124,-1.2806062,christian,nairobi city,langata,religion
uknown address,deliverance church umoja innercore campus,36.89089,-1.2808553,christian,nairobi city,langata,religion
uknown address,pcea umoja,36.8870415,-1.2821159,christian,nairobi city,langata,religion
uknown address,apostolic faith,36.8546654,-1.2901579,christian,nairobi city,langata,religion
uknown address,pcea church njiru,36.9367218,-1.2528384,christian,nairobi city,langata,religion
upper hill road,p.e.f.a church,36.9285591,-1.232217,christian,nairobi city,kibra,religion
kindaruma road,ack st. pauls church,36.7026984,-1.2648911,christian,nairobi city,kibra,religion
church road,mihango sda church,36.9457383,-1.2678599,christian,nairobi city,westlands,religion
uknown address,victory faith church,36.8691016,-1.2288356,christian,nairobi city,kasarani,religion
butecho,zion road indepent baptise church,36.9072893,-1.2147422,christian,nairobi city,kamukunji,religion
rabai road,st catherine of siena catholic church,36.7752502,-1.2333777,christian,nairobi city,makadara,religion
sagam road,deliverance church muirigo,36.915882,-1.2230928,christian,nairobi city,makadara,religion
uknown address,africa church of holy spirit,36.7909417,-1.31643,christian,nairobi city,njiru,religion
kanisani road,st elizabeth church,36.7832483,-1.3149467,christian,nairobi city,njiru,religion
uknown address,cca church,36.7795983,-1.3148583,christian,nairobi city,njiru,religion
kangundo road,vital solution elevation church,36.7954467,-1.31338,christian,nairobi city,njiru,religion
uknown address,church of god prophecy kibera,36.7939126,-1.3141167,christian,nairobi city,langata,religion
uknown address,harvest church,36.7981583,-1.314385,christian,nairobi city,langata,religion
langata road,church of bethlehem matendo r.g,36.7939017,-1.31178,christian,nairobi city,langata,religion
langata road,ebenezer christian ministries church,36.7781467,-1.317825,christian,nairobi city,langata,religion
langata road,apostolic church mashimoni,36.7895399,-1.3122364,christian,nairobi city,langata,religion
langata road,laini saba sda church,36.7936392,-1.312392,christian,nairobi city,langata,religion
greenway,white garment church,36.7868564,-1.3117516,christian,nairobi city,westlands,religion
kangundo road,strong city family church,36.7730325,-1.3080989,christian,nairobi city,njiru,religion
ngong road,methodist church,36.7762262,-1.3119122,christian,nairobi city,westlands,religion
mombasa road,st thomas catholic church,36.78892,-1.3091267,christian,nairobi city,langata,religion
mombasa road,nairobi baptist church,36.7764557,-1.3116745,christian,nairobi city,langata,religion
thika road,nabii christian church of kenya,36.7827512,-1.313555,christian,nairobi city,kasarani,religion
garden estate road,abundant grace church,36.793955,-1.3185925,christian,nairobi city,kasarani,religion
thika road,unabi church,36.7934395,-1.3137042,christian,nairobi city,kasarani,religion
kasarani mwiki road,revival gospel church,36.79548,-1.3153433,christian,nairobi city,kasarani,religion
kasarani mwiki road,universal pentecostal everngelism church,36.7809067,-1.307415,christian,nairobi city,kasarani,religion
embakasi road,daranjani assembly church,36.786261,-1.3120264,christian,nairobi city,embakasi,religion
embakasi road,full gospel church undugu,36.7989797,-1.316423,christian,nairobi city,embakasi,religion
embakasi road,universal church,36.7742345,-1.310566,christian,nairobi city,embakasi,religion
off doonholm road,african interior church,36.7890134,-1.3134814,christian,nairobi city,embakasi,religion
doonholm road,pentecostal flame church,36.7928217,-1.3127617,christian,nairobi city,embakasi,religion
manyanja road,masrno mission st joseph church,36.7861595,-1.3120398,christian,nairobi city,embakasi,religion
mumias south road,mashimoni pag church,36.78668,-1.311925,christian,nairobi city,makadara,religion
mumias south road,word bible church,36.7729833,-1.3101417,christian,nairobi city,makadara,religion
off eastern bypass,amazing grace world evangelism church,36.7965501,-1.3131727,christian,nairobi city,njiru,religion
quarry road,working faith fellowship,36.7836175,-1.3163838,christian,nairobi city,embakasi,religion
uknown address,grace revival church,36.7980867,-1.3173683,christian,nairobi city,embakasi,religion
uknown address,andusu p.a.g church,36.7943295,-1.3147781,christian,nairobi city,embakasi,religion
uknown address,christian foundation fellowship church,36.7806767,-1.30776,christian,nairobi city,embakasi,religion
moi drive,rem church,36.7721764,-1.3100026,christian,nairobi city,embakasi,religion
moi drive,musanda holy ghost church of east africa,36.7903528,-1.3160311,christian,nairobi city,embakasi,religion
mbale road,lindi p.a.g church buliding,36.7933148,-1.3124491,christian,nairobi city,makadara,religion
kangundo road,silanga pag church,36.796765,-1.3183867,christian,nairobi city,njiru,religion
kasarani mwiki road,rapture harvest mission church,36.7783517,-1.31756,christian,nairobi city,kasarani,religion
uknown address,seventh day adventist church.,36.7803833,-1.3121433,christian,nairobi city,dagoretti,religion
uknown address,apostolic revival healing church,36.7955617,-1.3185717,christian,nairobi city,njiru,religion
garden estate road,faith community fellowship,36.7818183,-1.307015,christian,nairobi city,kasarani,religion
clay city masournets,holy ghost musanda church of e and c african,36.7841711,-1.312908,christian,nairobi city,kasarani,religion
uknown address,cave evangelism ministry church,36.794215,-1.3138633,christian,nairobi city,westlands,religion
uknown address,faith revival fellowship,36.7986233,-1.31798,christian,nairobi city,kasarani,religion
uknown address,ambassador for christ church,36.79554,-1.3154517,christian,nairobi city,kibra,religion
uknown address,revival church of shiloh,36.793635,-1.3143904,christian,nairobi city,kibra,religion
uknown address,pefa church kibera,36.7909883,-1.3099567,christian,nairobi city,kibra,religion
uknown address,divine mercy catholic church,36.7943087,-1.3144435,christian,nairobi city,kibra,religion
uknown address,roho israel church,36.7942643,-1.3137405,christian,nairobi city,kibra,religion
uknown address,a. p church,36.7883567,-1.30613,christian,nairobi city,langata,religion
uknown address,end times church lindi,36.7940541,-1.3168454,christian,nairobi city,kibra,religion
uknown address,a.d.c church,36.7941069,-1.3130309,christian,nairobi city,langata,religion
uknown address,new covenant gospel church,36.7967083,-1.313275,christian,nairobi city,langata,religion
uknown address,kibera hope gospel church,36.790345,-1.3143158,christian,nairobi city,kibra,religion
uknown address,osana church,36.793705,-1.3118467,christian,nairobi city,kibra,religion
uknown address,vision of faith gospel church,36.7972451,-1.3129033,christian,nairobi city,kibra,religion
uknown address,maranatha faith assembly silanga church,36.796035,-1.3156617,christian,nairobi city,kibra,religion
uknown address,pag church,36.85809,-1.2624133,christian,nairobi city,kibra,religion
uknown address,jesus church ministry,36.85463,-1.2629233,christian,nairobi city,kibra,religion
uknown address,worldwide gospel church of kenya,36.8522117,-1.2660433,christian,nairobi city,kibra,religion
uknown address,eastleigh pag church,36.8605643,-1.2632385,christian,nairobi city,kibra,religion
uknown address,jawar roho israel church,36.8583,-1.2614567,christian,nairobi city,kibra,religion
uknown address,divine christian church,36.8550035,-1.263503,christian,nairobi city,kibra,religion
uknown address,israel church of god,36.8546567,-1.2636833,christian,nairobi city,kibra,religion
uknown address,adonai victory church,36.8547483,-1.2640767,christian,nairobi city,kibra,religion
uknown address,st veronica catholic church,36.851985,-1.2632433,christian,nairobi city,kibra,religion
uknown address,outrich hope church,36.8565605,-1.2646744,christian,nairobi city,kibra,religion
uknown address,sheep gate church,36.846035,-1.2662133,christian,nairobi city,kibra,religion
uknown address,gospel miracle church for all nations,36.8538509,-1.2643279,christian,nairobi city,kibra,religion
uknown address,revival churches of kenya,36.8513267,-1.265795,christian,nairobi city,kibra,religion
uknown address,outreach hope church,36.852085,-1.2631617,christian,nairobi city,kibra,religion
uknown address,pag kn region mathare 4a church,36.8612533,-1.2588333,christian,nairobi city,kibra,religion
uknown address,pag church,36.8527067,-1.2628917,christian,nairobi city,kibra,religion
uknown address,fountain of transformation church,36.849595,-1.26434,christian,nairobi city,kibra,religion
uknown address,jesus gospel church of prayer,36.8450633,-1.2654117,christian,nairobi city,kibra,religion
uknown address,end time revival mission church,36.8597333,-1.2608483,christian,nairobi city,kibra,religion
uknown address,redeemed gospel church,36.8559617,-1.2632267,christian,nairobi city,kibra,religion
uknown address,corner stone pag church,36.7544488,-1.2850877,christian,nairobi city,kibra,religion
uknown address,the church of jesus christ,36.7484,-1.2915783,christian,nairobi city,kibra,religion
uknown address,pcea satellite church riruta,36.7437382,-1.2945768,christian,nairobi city,kibra,religion
uknown address,kenya redeemed church,36.734638,-1.2928839,christian,nairobi city,kibra,religion
uknown address,deliverance church,36.7350931,-1.2842655,christian,nairobi city,kibra,religion
uknown address,rabii c.h.s church,36.7359854,-1.2872707,christian,nairobi city,langata,religion
uknown address,christo church,36.7395185,-1.2858405,christian,nairobi city,langata,religion
uknown address,the nairobi international church,36.7470185,-1.2965672,christian,nairobi city,kibra,religion
uknown address,deliverance church riruta,36.7522496,-1.2921406,christian,nairobi city,kibra,religion
uknown address,akorino revival church,36.7346671,-1.2770926,christian,nairobi city,kibra,religion
uknown address,galilaya pag ass.church,36.7467636,-1.2710549,christian,nairobi city,kibra,religion
uknown address,international fellowship of the clergy church,36.7464983,-1.2774967,christian,nairobi city,kibra,religion
uknown address,upendo pentecostal church,36.7442967,-1.2791083,christian,nairobi city,kibra,religion
uknown address,glory pentecostal church,36.7445636,-1.2801941,christian,nairobi city,kibra,religion
uknown address,new testament church of god,36.74029,-1.2837833,christian,nairobi city,kibra,religion
uknown address,pcea church,36.7363222,-1.2777875,christian,nairobi city,kibra,religion
uknown address,st.john the baptist catholic church,36.7357068,-1.2811076,christian,nairobi city,kibra,religion
uknown address,a. c. k emmanuel church,36.747936,-1.2886139,christian,nairobi city,kibra,religion
uknown address,reformed church of east africa,36.743054,-1.2857395,christian,nairobi city,kibra,religion
uknown address,maranatha church,36.7459883,-1.28896,christian,nairobi city,kibra,religion
uknown address,light house christian church,36.74676,-1.2885167,christian,nairobi city,kibra,religion
uknown address,gospel church,36.75292,-1.2899367,christian,nairobi city,kibra,religion
uknown address,the renewal church,36.7467139,-1.2827532,christian,nairobi city,kibra,religion
uknown address,msanda holy church,36.745846,-1.2829503,christian,nairobi city,kibra,religion
uknown address,the lord's worship church,36.7465152,-1.2826727,christian,nairobi city,kibra,religion
uknown address,africa church,36.7488676,-1.2824795,christian,nairobi city,kibra,religion
uknown address,ian church jcc,36.7530519,-1.2837696,christian,nairobi city,mathare,religion
uknown address,the apostolic church,36.7471004,-1.278337,christian,nairobi city,mathare,religion
uknown address,great faith,36.7459987,-1.2848446,christian,nairobi city,kamukunji,religion
uknown address,legion maria church,36.7467636,-1.2795574,christian,nairobi city,mathare,religion
uknown address,pentecost church,36.749458,-1.2804843,christian,nairobi city,kasarani,religion
uknown address,springs of blessings church,36.7507515,-1.2784389,christian,nairobi city,mathare,religion
uknown address,emmanuel miracle church,36.7451343,-1.2840222,christian,nairobi city,mathare,religion
uknown address,lowrem worship center,36.7467636,-1.2861179,christian,nairobi city,mathare,religion
uknown address,methodist church in kenya,36.747846,-1.2836962,christian,nairobi city,mathare,religion
uknown address,children of the promise church,36.7468183,-1.2839954,christian,nairobi city,mathare,religion
uknown address,the nairobi metropolitant pentecostal church,36.7490725,-1.2849925,christian,nairobi city,mathare,religion
uknown address,methodist church,36.7430588,-1.28132,christian,nairobi city,mathare,religion
uknown address,bible baptist church,36.7464941,-1.2843443,christian,nairobi city,mathare,religion
uknown address,friends church (quakers),36.7493273,-1.286327,christian,nairobi city,mathare,religion
uknown address,hosanna community church,36.7497893,-1.2858634,christian,nairobi city,kasarani,religion
uknown address,riruta church of god,36.7512696,-1.2848527,christian,nairobi city,mathare,religion
uknown address,evangelical lutheran church of kenya,36.7488624,-1.2829882,christian,nairobi city,mathare,religion
uknown address,riruta church of god,36.7514517,-1.2841312,christian,nairobi city,mathare,religion
uknown address,professional church of god,36.7520383,-1.2836583,christian,nairobi city,kasarani,religion
uknown address,goshen international christian church,36.7566117,-1.27975,christian,nairobi city,mathare,religion
uknown address,st. francis assist catholic church,36.7544033,-1.2851333,christian,nairobi city,dagoretti,religion
uknown address,kisiwa ministry church centre,36.7543932,-1.2851135,christian,nairobi city,dagoretti,religion
kinyanjui road,the holy spirit church,36.75448,-1.2850683,christian,nairobi city,dagoretti,religion
uknown address,kisima pag church,36.754337,-1.2851127,christian,nairobi city,dagoretti,religion
uknown address,gatina united church,36.757393,-1.275132,christian,nairobi city,dagoretti,religion
uknown address,marathon faith assemblies,36.7557799,-1.2747393,christian,nairobi city,dagoretti,religion
uknown address,kabaras checkpoint church,36.7568314,-1.2748712,christian,nairobi city,dagoretti,religion
uknown address,matunda pentecostal church,36.7566422,-1.2746875,christian,nairobi city,dagoretti,religion
uknown address,new life assembly church,36.755298,-1.2763903,christian,nairobi city,dagoretti,religion
uknown address,full gospel faith sanctuary,36.7552922,-1.2763898,christian,nairobi city,dagoretti,religion
uknown address,children of god generation church,36.7565229,-1.2815583,christian,nairobi city,westlands,religion
uknown address,light of the world church,36.7508701,-1.276459,christian,nairobi city,dagoretti,religion
uknown address,bethlehem church,36.7508682,-1.2764588,christian,nairobi city,dagoretti,religion
uknown address,united pentecostal church faith foundation,36.7498919,-1.2759227,christian,nairobi city,dagoretti,religion
uknown address,independent presbyterian church,36.7567838,-1.2757213,christian,nairobi city,dagoretti,religion
uknown address,kisima pag church,36.7602077,-1.2824029,christian,nairobi city,dagoretti,religion
uknown address,deliverance church amboseli,36.760115,-1.2823433,christian,nairobi city,dagoretti,religion
uknown address,friends church quakers,36.7543476,-1.285106,christian,nairobi city,dagoretti,religion
uknown address,the lord worship centre,36.7543081,-1.2851172,christian,nairobi city,dagoretti,religion
uknown address,amboseli pag church,36.7549177,-1.2856437,christian,nairobi city,dagoretti,religion
uknown address,hope church,36.7582049,-1.2848918,christian,nairobi city,dagoretti,religion
uknown address,salvation army church,36.7544079,-1.2851347,christian,nairobi city,dagoretti,religion
uknown address,united church of calvary,36.74859,-1.2893433,christian,nairobi city,dagoretti,religion
uknown address,jericho pag church,36.7470717,-1.28962,christian,nairobi city,dagoretti,religion
uknown address,restoration international church kawangware,36.7477267,-1.2770733,christian,nairobi city,dagoretti,religion
uknown address,pentecostal church,36.7880687,-1.2856624,christian,nairobi city,dagoretti,religion
uknown address,church on the rock,36.7558566,-1.2718758,christian,nairobi city,dagoretti,religion
uknown address,fellowship church international (kwa-ndege),36.9011118,-1.304371,christian,nairobi city,dagoretti,religion
uknown address,pag church,36.9031721,-1.2995198,christian,nairobi city,dagoretti,religion
uknown address,embakasi redeemed church,36.9163934,-1.3052407,christian,nairobi city,dagoretti,religion
uknown address,sda church embakasi central,36.912829,-1.3029672,christian,nairobi city,dagoretti,religion
uknown address,kenya assembies of god -fedha church,36.8944352,-1.3140775,christian,nairobi city,dagoretti,religion
uknown address,buruburu full gospel church,36.8776976,-1.2756475,christian,nairobi city,dagoretti,religion
uknown address,pcea nairobi west church,36.8189106,-1.3125835,christian,nairobi city,dagoretti,religion
uknown address,deliverance church eastleigh,36.8471642,-1.2756156,christian,nairobi city,dagoretti,religion
uknown address,joy christian fellowship church,36.8980227,-1.319159,christian,nairobi city,dagoretti,religion
uknown address,nyari pcea,36.7820393,-1.2226223,christian,nairobi city,dagoretti,religion
uknown address,karura sda church,36.7815878,-1.2234162,christian,nairobi city,dagoretti,religion
uknown address,pefa church thika road,36.8994933,-1.2120261,christian,nairobi city,dagoretti,religion
uknown address,shammah deliverance church,36.819053,-1.2755499,christian,nairobi city,dagoretti,religion
uknown address,legio maria church,36.7927725,-1.3139091,christian,nairobi city,dagoretti,religion
uknown address,church of god,36.7950148,-1.3106591,christian,nairobi city,dagoretti,religion
uknown address,apostolic church,36.7895511,-1.3123699,christian,nairobi city,dagoretti,religion
uknown address,catholic church,36.7889235,-1.3093478,christian,nairobi city,dagoretti,religion
uknown address,qdcc church,36.7883978,-1.3107422,christian,nairobi city,dagoretti,religion
uknown address,tumaini church,36.7847929,-1.3128471,christian,nairobi city,dagoretti,religion
uknown address,pcea church,36.7967314,-1.3187065,christian,nairobi city,dagoretti,religion
uknown address,harvest church,36.7981794,-1.3144858,christian,nairobi city,dagoretti,religion
uknown address,apostolic church,36.7895186,-1.3123514,christian,nairobi city,dagoretti,religion
uknown address,african church,36.7874081,-1.3094712,christian,nairobi city,dagoretti,religion
uknown address,apostolic church,36.7895552,-1.3124235,christian,nairobi city,dagoretti,religion
uknown address,christian outreach church,36.7947576,-1.317443,christian,nairobi city,dagoretti,religion
uknown address,full gospel churches of kenya- maji mazuri,36.9266687,-1.2306911,christian,nairobi city,dagoretti,religion
uknown address,the triumph church,36.9222588,-1.2305179,christian,nairobi city,dagoretti,religion
uknown address,a.c.c & s utawala church,36.985736,-1.2829468,christian,nairobi city,dagoretti,religion
uknown address,cmf church utawala,36.9776428,-1.2880751,christian,nairobi city,dagoretti,religion
uknown address,pcea utawala,36.9704324,-1.2859738,christian,nairobi city,dagoretti,religion
uknown address,victory church utawala,36.9717963,-1.2856371,christian,nairobi city,dagoretti,religion
uknown address,deliverance church utawala,36.9678032,-1.2837472,christian,nairobi city,dagoretti,religion
uknown address,new utawala sda satellite church,36.9690211,-1.2833967,christian,nairobi city,dagoretti,religion
uknown address,dominion recovery church,36.9663783,-1.281666,christian,nairobi city,dagoretti,religion
uknown address,tumaini church,36.8862105,-1.2559021,christian,nairobi city,dagoretti,religion
uknown address,orbit church,36.8575245,-1.2656906,christian,nairobi city,dagoretti,religion
uknown address,pcea mathare valley church,36.8454002,-1.2644192,christian,nairobi city,dagoretti,religion
uknown address,reedemed gospel church mother church,36.8496657,-1.2646701,christian,nairobi city,dagoretti,religion
uknown address,soul harvesters church intl,36.8451527,-1.2654775,christian,nairobi city,dagoretti,religion
uknown address,mashimoni pag church,36.8620405,-1.2615313,christian,nairobi city,dagoretti,religion
uknown address,pefa church mathare,36.8601118,-1.2625629,christian,nairobi city,dagoretti,religion
uknown address,chrst impact church,36.8433918,-1.2639561,christian,nairobi city,dagoretti,religion
uknown address,african divine church,36.8620914,-1.2611541,christian,nairobi city,dagoretti,religion
uknown address,st. john paul catholic church,36.8633545,-1.2616906,christian,nairobi city,dagoretti,religion
uknown address,christ missioners church,36.8622182,-1.2615948,christian,nairobi city,westlands,religion
uknown address,maranatha faith assembly,36.8615572,-1.2626439,christian,nairobi city,westlands,religion
unknown address,redeemed church,36.8615981,-1.253674,christian,nairobi city,embakasi,religion
uknown address,family worship tarbanacle church,36.958762,-1.2808268,christian,nairobi city,embakasi,religion
uknown address,victors assembly church in nairobi,36.8262076,-1.281108,christian,nairobi city,embakasi,religion
uknown address,god's promise church,36.8823442,-1.3083558,christian,nairobi city,embakasi,religion
uknown address,highridge tumaini church,36.8917849,-1.2512468,christian,nairobi city,embakasi,religion
mumias road,israel church,36.8894244,-1.253717,christian,nairobi city,kamukunji,religion
uknown address,rehema church,36.8888064,-1.2517511,christian,nairobi city,langata,religion
uknown address,seraphine church of god,36.8870445,-1.2539284,christian,nairobi city,langata,religion
uknown address,christian roho fweny church,36.8870892,-1.2555574,christian,nairobi city,kamukunji,religion
uknown address,mercy seat of god fellowship international church,36.8857836,-1.2556037,christian,nairobi city,embakasi,religion
uknown address,church of israel,36.8870707,-1.2541682,christian,nairobi city,westlands,religion
uknown address,divine church,36.8892218,-1.2531619,christian,nairobi city,westlands,religion
uknown address,neshama elohim church,36.8880305,-1.2529924,christian,nairobi city,kasarani,religion
uknown address,church of god,36.8881263,-1.2524859,christian,nairobi city,starehe,religion
uknown address,apostolic divine church,36.887392,-1.2512041,christian,nairobi city,kibra,religion
uknown address,glory church,36.8912175,-1.2491984,christian,nairobi city,kibra,religion
uknown address,peniel revival church,36.887382,-1.2538716,christian,nairobi city,kibra,religion
uknown address,kilimani springs sda church,36.7631422,-1.2671056,christian,nairobi city,kibra,religion
uknown address,church army-biafra-joster,36.8521561,-1.2886985,christian,nairobi city,kibra,religion
uknown address,ledec church,36.9765036,-1.2573138,christian,nairobi city,kibra,religion
uknown address,st. pauls university chapel,36.814364,-1.2815406,christian,nairobi city,kibra,religion
uknown address,al amin mosque,36.8414302,-1.2712915,christian,nairobi city,langata,religion
uknown address,st. mary's parish catholic church compound,36.8815449,-1.314369,christian,nairobi city,kibra,religion
uknown address,messiah gospel church,36.8732011,-1.2542632,christian,nairobi city,kibra,religion
uknown address,good shepherd african gospel church,36.7895547,-1.2988761,christian,nairobi city,kibra,religion
uknown address,nairobi central sda church - maxwell car park,36.8078189,-1.2891189,christian,nairobi city,kibra,religion
uknown address,a.i.c church embakasi,36.9132884,-1.3109195,christian,nairobi city,kasarani,religion
uknown address,wme church,36.8018752,-1.3155866,christian,nairobi city,kasarani,religion
uknown address,madre teresa catholic,36.8933411,-1.2085718,christian,nairobi city,njiru,religion
uknown address,orthodox church,36.7876533,-1.2918222,christian,nairobi city,njiru,religion
uknown address,all africa conference of churches car park,36.7875781,-1.2603804,christian,nairobi city,njiru,religion
uknown address,kariokor methodist church,36.8361072,-1.2769067,christian,nairobi city,njiru,religion
uknown address,pcea dandora church,36.8916392,-1.2577878,christian,nairobi city,njiru,religion
uknown address,masjid yusuf mosque,36.8338731,-1.3015439,christian,nairobi city,njiru,religion
uknown address,kag church,36.8447693,-1.2641967,christian,nairobi city,njiru,religion
uknown address,bonfaith medical centre,36.8687928,-1.2597259,christian,nairobi city,kasarani,religion
uknown address,great alter call church center,36.8781478,-1.3172898,christian,nairobi city,mathare,religion
uknown address,healing and hope church centre,36.8803083,-1.3179689,christian,nairobi city,mathare,religion
uknown address,israel pentecostal church,36.8795508,-1.3145352,christian,nairobi city,mathare,religion
uknown address,sinai p.a.g church assembly,36.8802244,-1.3133152,christian,nairobi city,mathare,religion
uknown address,st mary's mukuru catholic church,36.8811453,-1.314566,christian,nairobi city,mathare,religion
uknown address,st. lazarus legio maria church,36.9010694,-1.2408741,christian,nairobi city,mathare,religion
uknown address,rc church embakasi garisson,36.9260802,-1.3090569,christian,nairobi city,mathare,religion
uknown address,ack st. timothy church,36.9563559,-1.2775286,christian,nairobi city,mathare,religion
uknown address,ledec church smaller sanctuary of grace,36.9764445,-1.2574038,christian,nairobi city,mathare,religion
uknown address,ledec church sancutuary of grace,36.9765204,-1.2572322,christian,nairobi city,mathare,religion
uknown address,st. veronica pre-school and ack church,36.8425242,-1.3139143,christian,nairobi city,mathare,religion
uknown address,capstone fellowship church,36.8500515,-1.3138722,christian,nairobi city,kasarani,religion
uknown address,redeemed gospel church clinic,36.8878506,-1.2468798,christian,nairobi city,njiru,religion
ndumberi road,gethesemane pentecostal church,36.7750951,-1.3149869,christian,nairobi city,starehe,religion
uknown address,gethesemane pentecostal church,36.7750624,-1.3150148,christian,nairobi city,makadara,religion
uknown address,orthodox church,36.7750917,-1.3117711,christian,nairobi city,kasarani,religion
uknown address,transform faith hope,36.7903039,-1.3106177,christian,nairobi city,kasarani,religion
uknown address,st.paul catholic church,36.8633346,-1.2618731,christian,nairobi city,kasarani,religion
uknown address,ack church kianda,36.7763328,-1.3118289,christian,nairobi city,kasarani,religion
uknown address,orthodox church kianda,36.7749288,-1.3116172,christian,nairobi city,kasarani,religion
uknown address,bethel baptist church,36.9116746,-1.2626552,christian,nairobi city,kasarani,religion
uknown address,kangemi pag church nursery,36.7344417,-1.2634067,christian,nairobi city,kasarani,religion
uknown address,wardolf faith academy,36.749848,-1.269114,christian,nairobi city,kasarani,religion
uknown address,holy mother of god,36.9137127,-1.202766,christian,nairobi city,kasarani,religion
uknown address,nairobi grace chapel,36.889516,-1.2022487,christian,nairobi city,kasarani,religion
uknown address,full gospel evangelistic ministry,36.781155,-1.3140917,christian,nairobi city,kasarani,religion
uknown address,the salvation army - kenyatta corps,36.7966033,-1.3153633,christian,nairobi city,kasarani,religion
uknown address,apel for all nations,36.77684,-1.3117933,christian,nairobi city,kasarani,religion
uknown address,st. sam roho lwanda,36.7789435,-1.315236,christian,nairobi city,westlands,religion
unknown,everngelical gospel ministry,36.7985417,-1.31849,christian,nairobi city,kamukunji,religion
unknown,live gospel ministry nairobi,36.7943417,-1.3140183,christian,nairobi city,njiru,religion
university way,jeshi la wokovu,36.7911875,-1.3163468,christian,nairobi city,westlands,religion
unknown,adc nairobi sub mission,36.7955767,-1.3157333,muslim,nairobi city,starehe,religion
unknown,my father's house ministry,36.7796617,-1.3135167,christian,nairobi city,embakasi,religion
unknown,world reconciliation ministries,36.7760133,-1.3143817,christian,nairobi city,mathare,religion
ngong road,emmanuel's love ministry international,36.7780499,-1.3154708,christian,nairobi city,westlands,religion
milimani road,a. c. f. gatwekera fellowship,36.782935,-1.3135967,christian,nairobi city,westlands,religion
unknown,st. joseph darajani,36.7862117,-1.3121433,christian,nairobi city,embakasi,religion
unknown,lindi central pag assembly,36.79153,-1.3133383,christian,nairobi city,langata,religion
unknown,nairibi dam pentecostal assemblies of god,36.7931767,-1.3162633,christian,nairobi city,kasarani,religion
argwings kodhek road,kenya assemblies of god,36.7780185,-1.3147657,christian,nairobi city,westlands,religion
waiyaki way,new christian of christ ministries,36.7953583,-1.31621,christian,nairobi city,westlands,religion
general waruingi street,ack st andrews,36.7758106,-1.3130348,christian,nairobi city,starehe,religion
unknown,voice of deliverance & healing ministry,36.79767,-1.3147267,christian,nairobi city,embakasi,religion
unknown,aic soweto,36.7957154,-1.314172,muslim,nairobi city,starehe,religion
mau mau road,christian hope network,36.7925158,-1.3127094,christian,nairobi city,mathare,religion
unknown,greater grace,36.79828,-1.3179017,christian,nairobi city,mathare,religion
unknown,gospel power,36.7820052,-1.3159596,christian,nairobi city,embakasi,religion
unknown,p.a.g.c amani,36.7903599,-1.3161533,christian,nairobi city,embakasi,religion
unknown,new life restoration ministry,36.7811826,-1.3074388,christian,nairobi city,embakasi,religion
unknown,magiwa p.a.g,36.7958367,-1.3140733,christian,nairobi city,embakasi,religion
unknown,light christian ministries,36.7976933,-1.3174283,christian,nairobi city,embakasi,religion
unknown,prophetic minitry,36.7719233,-1.3088477,christian,nairobi city,kasarani,religion
unknown,true christian gospel living ministry,36.7973017,-1.3168533,christian,nairobi city,embakasi,religion
unknown,ephatha of holy trinity ministry,36.7855346,-1.3145866,christian,nairobi city,njiru,religion
unknown,pure gospel celebration center,36.79653,-1.3179133,christian,nairobi city,njiru,religion
unknown,3 rivers of grace fellowship,36.7752408,-1.3120933,christian,nairobi city,njiru,religion
unknown,baptist rescue center,36.7809983,-1.3166683,christian,nairobi city,starehe,religion
unknown,the true centre ministries,36.7940357,-1.3138029,christian,nairobi city,starehe,religion
unknown,jumba la ufalme la mashahidi wa yehova,36.7803693,-1.3147969,christian,nairobi city,kasarani,religion
unknown,undugu family of hope,36.7829393,-1.3162042,christian,nairobi city,kibra,religion
unknown,restoration chapel,36.7836915,-1.3121921,christian,nairobi city,kibra,religion
unknown,roho msalaba,36.7831829,-1.3160681,christian,nairobi city,kibra,religion
unknown,youngsters for christ team,36.78281,-1.3137917,christian,nairobi city,kibra,religion
unknown,kenya assemblies of god,36.7974425,-1.3147414,christian,nairobi city,mathare,religion
unknown,abundant grace of jesus ministry,36.791856,-1.3126708,christian,nairobi city,kibra,religion
unknown,christian outrich center,36.7947567,-1.3173717,christian,nairobi city,kibra,religion
unknown,christ way outreach,36.7976617,-1.317675,christian,nairobi city,embakasi,religion
unknown,ingili takatifu,36.7720785,-1.3099804,christian,nairobi city,westlands,religion
unknown,jammii outreach ministries,36.7745448,-1.3115895,christian,nairobi city,westlands,religion
ngumba road,gospel disciples,36.86238,-1.2583433,christian,nairobi city,kasarani,religion
northern bypass,jumuiya ya st claude,36.8437783,-1.26501,christian,nairobi city,kasarani,religion
unknown,pentecostal assemblies of god,36.852405,-1.265025,christian,nairobi city,kibra,religion
unknown,jesus christian mission center,36.84411,-1.2649267,christian,nairobi city,kibra,religion
unknown,pag mashimoni,36.8621717,-1.26142,christian,nairobi city,kibra,religion
unknown,god of peace ministry,36.8600983,-1.2633483,christian,nairobi city,kibra,religion
unknown,god's family ministries international,36.843585,-1.2663867,christian,nairobi city,kibra,religion
unknown,jehovah witness,36.8641947,-1.2623351,christian,nairobi city,kibra,religion
unknown,african israel,36.861225,-1.25968,christian,nairobi city,kibra,religion
unknown,house of prayer,36.8514733,-1.263655,christian,nairobi city,kibra,religion
unknown,spring living ministry,36.8542217,-1.26282,christian,nairobi city,kibra,religion
unknown,st benedict parish,36.8587275,-1.2521087,christian,nairobi city,kibra,religion
unknown,african kenya sanctuary,36.8542617,-1.2634217,christian,nairobi city,kibra,religion
unknown,pcea education center,36.779559,-1.3106909,christian,nairobi city,kibra,religion
unknown,mega church,36.8439833,-1.2654883,christian,nairobi city,kibra,religion
unknown,kamitha central,36.7544384,-1.2850875,christian,nairobi city,kibra,religion
unknown,grace ministry,36.7375366,-1.2877336,christian,nairobi city,kibra,religion
unknown,jesus power blessed centre ministries,36.748225,-1.2915133,christian,nairobi city,kibra,religion
unknown,mountain of transformation ministry,36.7405148,-1.2863033,christian,nairobi city,kibra,religion
unknown,orthodox archbishop of kenya,36.7368015,-1.2928523,christian,nairobi city,kibra,religion
unknown,new rebuilders chapel,36.7380064,-1.2874798,christian,nairobi city,langata,religion
unknown,the ministry of repentance and holiness,36.7410379,-1.2905886,christian,nairobi city,kibra,religion
unknown,cross mission center,36.7391063,-1.2874148,christian,nairobi city,kibra,religion
unknown,global field evangelism,36.7438418,-1.2814075,christian,nairobi city,kibra,religion
unknown,blessed hands prayer centre,36.7442201,-1.2798538,christian,nairobi city,kibra,religion
unknown,el-shaddai rescue ministry,36.745255,-1.277455,christian,nairobi city,kibra,religion
unknown,riruta pag,36.7456667,-1.27693,christian,nairobi city,kibra,religion
unknown,masjid noor riruta,36.7416617,-1.2798517,christian,nairobi city,kibra,religion
unknown,jesus revival centre,36.7458336,-1.2892419,christian,nairobi city,kibra,religion
unknown,jesus revival centre,36.7457533,-1.2893967,christian,nairobi city,kibra,religion
unknown,jericho p.a.g assembly,36.7486564,-1.2893638,christian,nairobi city,kibra,religion
unknown,sidoni pag,36.7485909,-1.2846978,christian,nairobi city,kibra,religion
unknown,"salvation army, milimani corps",36.7478626,-1.2839106,christian,nairobi city,kibra,religion
unknown,gospel equippers,36.7455961,-1.2824436,christian,nairobi city,kibra,religion
unknown,jesus power,36.7488849,-1.2824863,christian,nairobi city,kibra,religion
unknown,house of prayer,36.7528054,-1.2840131,christian,nairobi city,kibra,religion
unknown,amaizing grace,36.7457532,-1.281761,christian,nairobi city,kibra,religion
unknown,jesus christ is the lord universal,36.7488904,-1.2874187,christian,nairobi city,kibra,religion
unknown,heavenly glory revelation ministries kawangware,36.7505083,-1.28791,christian,nairobi city,kibra,religion
unknown,bernard pag assembly,36.7527783,-1.2884299,christian,nairobi city,kibra,religion
unknown,maximum miracle center kawangware,36.7495037,-1.2876521,christian,nairobi city,kibra,religion
unknown,heavenly glory,36.7509683,-1.288294,christian,nairobi city,kibra,religion
unknown,pentecostal evangelism team,36.7513183,-1.2865017,christian,nairobi city,kibra,religion
unknown,well of glory ministries,36.7504217,-1.2864417,christian,nairobi city,kibra,religion
unknown,christ restoration center,36.7514321,-1.2846697,christian,nairobi city,kibra,religion
unknown,all nations spiritual life ministries,36.7508817,-1.2824509,christian,nairobi city,kibra,religion
unknown,christ restoration center,36.7506621,-1.2844901,christian,nairobi city,kibra,religion
unknown,compassion fellowship center,36.7520955,-1.2840516,christian,nairobi city,kasarani,religion
unknown,a. i. c kabiro,36.7512983,-1.2851967,christian,nairobi city,mathare,religion
unknown,gospel hammers international,36.7508129,-1.2852188,christian,nairobi city,mathare,religion
unknown,gospel harvest ministries,36.75152,-1.2855117,christian,nairobi city,mathare,religion
unknown,adc-jerusalem assgatina region,36.7515027,-1.2857454,christian,nairobi city,mathare,religion
unknown,the harvest center fellowship,36.7522683,-1.2862117,christian,nairobi city,mathare,religion
unknown,living hope ministry,36.752192,-1.2864188,christian,nairobi city,mathare,religion
unknown,voice of prayer ministry,36.7595763,-1.2764216,christian,nairobi city,mathare,religion
unknown,bethel centre ministry,36.7543833,-1.28498,christian,nairobi city,kasarani,religion
unknown,christian foundation of life ministries,36.7582144,-1.2815291,christian,nairobi city,mathare,religion
unknown,timau p.a.g,36.7519498,-1.2797103,christian,nairobi city,mathare,religion
unknown,ack st lukes riruta north parish,36.7508838,-1.2773192,christian,nairobi city,kasarani,religion
unknown,kisima ministry,36.7544833,-1.28506,christian,nairobi city,mathare,religion
unknown,vfc kenya,36.7543879,-1.2851452,christian,nairobi city,kibra,religion
unknown,world hope bible institution,36.7577758,-1.2751109,christian,nairobi city,mathare,religion
unknown,mukuyu pag assembly,36.7552738,-1.2764093,christian,nairobi city,dagoretti,religion
unknown,glory networking evangelism,36.751674,-1.2776274,christian,nairobi city,dagoretti,religion
unknown,ushindi pag,36.7515412,-1.2756661,christian,nairobi city,dagoretti,religion
unknown,a.p.e.c covenant assembly,36.7516955,-1.2774887,christian,nairobi city,dagoretti,religion
unknown,matendo evangelism centre,36.7498496,-1.2750201,christian,nairobi city,dagoretti,religion
unknown,aic ebenezer,36.7574819,-1.2748504,christian,nairobi city,dagoretti,religion
unknown,huduma cathedral of hope,36.7544257,-1.2850623,christian,nairobi city,dagoretti,religion
unknown,foundation of praise ministries,36.746995,-1.28948,christian,nairobi city,dagoretti,religion
unknown,fountain of praise ministries,36.7493567,-1.288035,christian,nairobi city,dagoretti,religion
unknown,revival sanctuary of glory,36.7450817,-1.279445,christian,nairobi city,dagoretti,religion
unknown,oasis of shalom ministries,36.9028226,-1.3039884,christian,nairobi city,dagoretti,religion
unknown,masjid noor (mosque),36.9082063,-1.2964103,christian,nairobi city,dagoretti,religion
unknown,st joseph catholic,36.8719578,-1.2907213,muslim,nairobi city,dagoretti,religion
unknown,fedha mosque,36.8963552,-1.3152013,christian,nairobi city,dagoretti,religion
unknown,ack saint luke's,36.8878865,-1.2795037,christian,nairobi city,dagoretti,religion
unknown,masjid fawzan mosque,36.8986143,-1.3086082,christian,nairobi city,dagoretti,religion
unknown,queen of angels academy;jesus revival centre,36.7468833,-1.2900533,christian,nairobi city,dagoretti,religion
unknown,saint thomas catholic church water tap,36.7887703,-1.309114,christian,nairobi city,dagoretti,religion
unknown,kag church mlango kubwa,36.8445445,-1.2639801,christian,nairobi city,dagoretti,religion
unknown,redeem gospel church mathare,36.8498869,-1.2646042,christian,nairobi city,dagoretti,religion
unknown,redeem gospel church,36.8494099,-1.2645861,christian,nairobi city,dagoretti,religion
unknown,faith revival ministries,36.8627069,-1.2600487,christian,nairobi city,dagoretti,religion
unknown,maranatha faith assemblies,36.8615774,-1.2624294,christian,nairobi city,dagoretti,religion
unknown,muungano assemblies church,36.8623026,-1.2613657,christian,nairobi city,dagoretti,religion
unknown,hope and faith,36.7818629,-1.3153019,christian,nairobi city,dagoretti,religion
unknown,ack njiru,36.9428251,-1.2517823,christian,nairobi city,dagoretti,religion
unknown,maxdais faith school,36.8658474,-1.2601417,christian,nairobi city,dagoretti,religion
unknown,maxdais faith school,36.8659459,-1.2593155,christian,nairobi city,dagoretti,religion
unknown,shiners faith development centre,36.8607373,-1.2621657,christian,nairobi city,dagoretti,religion
unknown,calvary chapel githurai,36.9133394,-1.205777,christian,nairobi city,dagoretti,religion
unknown,pefa utawala,36.972995,-1.2887313,christian,nairobi city,dagoretti,religion
unknown,mosque,36.8026259,-1.3026822,christian,nairobi city,dagoretti,religion
unknown,silanga,36.792808,-1.3128335,christian,nairobi city,dagoretti,religion
unknown,the world fellowship church,36.7910095,-1.3113442,christian,nairobi city,dagoretti,religion
unknown,jesus revival centre,36.7454854,-1.2900168,christian,nairobi city,dagoretti,religion
unknown,the most high god ministries,36.9292909,-1.2254188,christian,nairobi city,dagoretti,religion
unknown,aipca utawala,36.9858881,-1.284458,christian,nairobi city,dagoretti,religion
unknown,fpfk-shelter of hope utawala,36.986366,-1.2842841,christian,nairobi city,dagoretti,religion
unknown,st. alban,36.9535722,-1.2539252,christian,nairobi city,dagoretti,religion
unknown,victory breakthrough centre,36.8970614,-1.3057305,christian,nairobi city,dagoretti,religion
unknown,nairobi east church,36.8814033,-1.2983451,christian,nairobi city,dagoretti,religion
unknown,inspiration center,36.858064,-1.2655095,christian,nairobi city,dagoretti,religion
unknown,korogocho mosque,36.8900558,-1.2509136,christian,nairobi city,dagoretti,religion
unknown,al-falah,36.8871658,-1.2505006,christian,nairobi city,dagoretti,religion
unknown,masjid aqsa,36.8905003,-1.2489705,christian,nairobi city,dagoretti,religion
unknown,aipca mount sinai church,36.879215,-1.3099091,christian,nairobi city,dagoretti,religion
unknown,neema gospel church,36.8828645,-1.3068988,christian,nairobi city,dagoretti,religion
unknown,ggic church,36.8667923,-1.3114289,christian,nairobi city,dagoretti,religion
unknown,true gospel church ministry,36.8817491,-1.3097573,christian,nairobi city,dagoretti,religion
unknown,faith power evangelism ministry,36.8732624,-1.3120837,christian,nairobi city,dagoretti,religion
unknown,the church of god the son & holy spirit,36.8820325,-1.3090256,christian,nairobi city,dagoretti,religion
unknown,rapture glory church,36.8857643,-1.3038884,christian,nairobi city,dagoretti,religion
unknown,full gospel church lunga lunga,36.8818522,-1.308729,christian,nairobi city,dagoretti,religion
unknown,redemption in christ church,36.8822034,-1.3078396,christian,nairobi city,dagoretti,religion
unknown,restoration miracle church,36.8803195,-1.3093814,christian,nairobi city,dagoretti,religion
unknown,umoja christian church,36.8703163,-1.3112106,christian,nairobi city,dagoretti,religion
unknown,ushirika word center church,36.8670198,-1.3120796,christian,nairobi city,dagoretti,religion
unknown,faith alive church,36.8830267,-1.3051149,christian,nairobi city,embakasi,religion
unknown,spirit of god church mission,36.8815669,-1.3097425,muslim,nairobi city,embakasi,religion
guru close,christian evangelistic fellowship church,36.874587,-1.3118353,christian,nairobi city,makadara,religion
unknown,god's grace worship centre,36.8865892,-1.3010258,muslim,nairobi city,embakasi,religion
moi drive,life sanctuary church,36.8794295,-1.3092638,christian,nairobi city,embakasi,religion
unknown,aic central revival church,36.8760172,-1.3097885,muslim,nairobi city,embakasi,religion
unknown,jesus annointed ministry,36.882403,-1.3069981,christian,nairobi city,dagoretti,religion
unknown,rehoboth gospel family church,36.8814165,-1.3089824,christian,nairobi city,kibra,religion
unknown,the africa brotherhood church,36.8670194,-1.3124839,christian,nairobi city,mathare,religion
unknown,ruwe holy church,36.8757018,-1.3099487,christian,nairobi city,mathare,religion
unknown,african ministry of healing church,36.8840103,-1.3053347,christian,nairobi city,mathare,religion
unknown,baptist church lunga lunga,36.8780273,-1.309484,christian,nairobi city,mathare,religion
unknown,agm church,36.8827663,-1.3078989,christian,nairobi city,mathare,religion
unknown,pefa church,36.877403,-1.3099787,christian,nairobi city,mathare,religion
unknown,doctrines of christ mnistries church,36.881405,-1.3100464,christian,nairobi city,kibra,religion
unknown,gracious restoration christian church.,36.8700967,-1.31118,christian,nairobi city,njiru,religion
unknown,altar of victory church huduma.,36.8818078,-1.3091125,christian,nairobi city,mathare,religion
unknown,jesus revival church,36.8755906,-1.3098834,christian,nairobi city,mathare,religion
unknown,faith glory church,36.8838242,-1.3052923,christian,nairobi city,mathare,religion
off thika road,adcm,36.8879875,-1.2541371,christian,nairobi city,kasarani,religion
unknown,b.r.m neema believers revival mission,36.8896392,-1.2529385,christian,nairobi city,njiru,religion
unknown,jordan place of conversion ministries,36.889627,-1.25212,christian,nairobi city,kibra,religion
unknown,actk kariobangi,36.8871303,-1.2539393,christian,nairobi city,kibra,religion
unknown,japolo,36.8880286,-1.251284,christian,nairobi city,kibra,religion
unknown,st. joseph church,36.8718635,-1.2906881,christian,nairobi city,dagoretti,religion
unknown,aic,36.9130332,-1.2209959,christian,nairobi city,kasarani,religion
unknown,redeemed gospel church zimmerman adult ed centre,36.89637,-1.25175,christian,nairobi city,njiru,religion
unknown,our lady of visitation catholic church adult centre,36.861188,-1.293028,christian,nairobi city,njiru,religion
unknown,gospel church of god adult centre,36.80141,-1.29427,christian,nairobi city,njiru,religion
abuja court,st marks church adult centre,36.79564,-1.25792,christian,nairobi city,embakasi,religion
unknown,st francis catholic church kawangware adult centre,36.752763,-1.284562,christian,nairobi city,makadara,religion
unknown,our lady of visitation catholic church adult centre,36.8606355,-1.2922235,christian,nairobi city,mathare,religion
unknown,st marks church adult centre,36.795758,-1.2575285,muslim,nairobi city,kasarani,religion
unknown,kenyatta national hospital farewell chapel,36.805657,-1.2984803,muslim,nairobi city,kasarani,religion
unknown,st peters methodist church,36.7851607,-1.3273587,muslim,nairobi city,kasarani,religion
unknown,forty jesus,36.7781598,-1.3096069,christian,nairobi city,makadara,religion
unknown,pcea githurai 44,36.9157439,-1.2027655,christian,nairobi city,makadara,religion
unknown,hope restoration church,36.8929847,-1.3125123,christian,nairobi city,makadara,religion
unknown,ofcam church,36.9074848,-1.2976903,christian,nairobi city,makadara,religion
unknown,fedha mosque,36.8963801,-1.3148616,christian,nairobi city,makadara,religion
unknown,victory covenant church,36.9206202,-1.2579756,christian,nairobi city,makadara,religion
unknown,pefa church kayole junction,36.9248607,-1.2629191,christian,nairobi city,makadara,religion
unknown,bahati sda church,36.8551233,-1.288955,christian,nairobi city,makadara,religion
