@id,addr:city,addr:street,landuse,name,@geometry,lon,lat,highway,surface,brand,operator,product,type,website,industrial,power,barrier,industrial:sector,industrial:sector_description,industrial:tertiary_sector_type,industrial:tertiary_sector_type_description,source,man_made,industrial:secondary_sector_type,building,recycling:cans,recycling:glass,recycling:paper,recycling:scrap_metal,fence_type,short_name,addr:housenumber,layer,phone,oneway,crossing:barrier,addr:postcode,pump,note,source_ref,email,shop,alt_name,contact:facebook,contact:twitter,survey:date,operational_status,operator:type
way/4723990,Nairobi,Mombasa Road,industrial,Mombasa Road Industrial Area,center,36.8915176,-1.3431107,,,,,,,,,,,,,,,,,,,,,,,,,,,,,,,,,,,,,,,,,
way/4775768,,,,Factory Street,center,36.8326862,-1.2948745,unclassified,,,,,,,,,,,,,,,,,,,,,,,,,,,,,,,,,,,,,,,,
way/4775781,,,,Factory Street,center,36.8370528,-1.2900647,residential,asphalt,,,,,,,,,,,,,,,,,,,,,,,,,,,,,,,,,,,,,,,
relation/14738251,,,industrial,Nairobi Bottlers Limited,center,36.9196278,-1.3155496,,,coca cola; fanta; sprite; minute maid; dasani; keringet; schweppes,coca cola,soda; water,multipolygon,https://www.coca-cola.com/ke/en,,,,,,,,,,,,,,,,,,,,,,,,,,,,,,,,,,
relation/19065606,,,industrial,De La Rue Kenya Limited,center,36.8649246,-1.2482712,,,,,,multipolygon,https://www.delarue.com/,factory,,,,,,,,,,,,,,,,,,,,,,,,,,,,,,,,,
relation/19133060,,,industrial,PZ Cussons East Africa Ltd.,center,36.8831567,-1.2426706,,,,,soap,multipolygon,https://www.pzcussons.com/,factory,,,,,,,,,,,,,,,,,,,,,,,,,,,,,,,,,
relation/19168382,,,industrial,,center,36.9068738,-1.3182167,,,,,,multipolygon,,,,,,,,,,,,,,,,,,,,,,,,,,,,,,,,,,,
relation/19168390,,,industrial,SIGINON Group,center,36.9044233,-1.3515122,,,,,,multipolygon,,,,,,,,,,,,,,,,,,,,,,,,,,,,,,,,,,,
relation/19168391,,,industrial,Saku Industrial Park,center,36.9042389,-1.3510657,,,,,,multipolygon,,,,,,,,,,,,,,,,,,,,,,,,,,,,,,,,,,,
way/25473015,,,industrial,aga khan field,center,36.8239658,-1.2604329,,grass,,,,,,,,,,,,,,,,,,,,,,,,,,,,,,,,,,,,,,,
way/26603437,,,industrial,,center,36.8405195,-1.3033554,,,,,,,,,,,,,,,,,,,,,,,,,,,,,,,,,,,,,,,,,
way/26702547,,,industrial,,center,36.8707526,-1.3044588,,,,,,,,,,,,,,,,,,,,,,,,,,,,,,,,,,,,,,,,,
way/27908685,,,industrial,,center,36.8599662,-1.3187604,,,,,,,,,,,,,,,,,,,,,,,,,,,,,,,,,,,,,,,,,
way/125302557,Nairobi,Landhies Road,industrial,Kenya Power Substation,center,36.835574,-1.2872028,,,,,,,,,substation,,,,,,,,,,,,,,,,,,,,,,,,,,,,,,,,
way/129150507,,,industrial,Gateway Ltd,center,36.8732819,-1.3182861,,,,,,,,,,wall,primary,Service Industry,tourism,Passenger Transport,Bing,,,,,,,,,,,,,,,,,,,,,,,,,,
way/133840652,,,industrial,Industiries,center,36.8849327,-1.3028303,,,,,,,,,,,,,,,,,,,,,,,,,,,,,,,,,,,,,,,,,
way/134101994,,,industrial,,center,36.8710652,-1.3085059,,,,,,,,,,,,,,,,,,,,,,,,,,,,,,,,,,,,,,,,,
way/134101996,,,,,center,36.861525,-1.3107454,,,,,,,,,,,,,,,,works,,,,,,,,,,,,,,,,,,,,,,,,,
way/137934124,,,industrial,,center,36.8729363,-1.3204063,,,,,,,,,,wall,,,,,,,,,,,,,,,,,,,,,,,,,,,,,,,
way/139077416,,,,Bachu Factory - Rueben,center,36.8711759,-1.3224195,,,,,,,,,,wall,secondary,,,,,,manufacturing,,,,,,,,,,,,,,,,,,,,,,,,
way/141231506,,,industrial,Industry,center,36.8481221,-1.3112406,,,,,,,,,,,,,,,,,,,,,,,,,,,,,,,,,,,,,,,,,
way/141311554,,,,Industry,center,36.8491217,-1.3116763,,,,,,,,,,,,,,,,,,yes,,,,,,,,,,,,,,,,,,,,,,,
way/141311555,,,industrial,Industry,center,36.8472782,-1.3116437,,,,,,,,,,,,,,,,,,,,,,,,,,,,,,,,,,,,,,,,,
way/141312071,,,industrial,Industry,center,36.8468091,-1.3115209,,,,,,,,,,,,,,,,,,,,,,,,,,,,,,,,,,,,,,,,,
way/141316579,,,industrial,Industry,center,36.8515068,-1.313299,,,,,,,,,,,,,,,,,,,,,,,,,,,,,,,,,,,,,,,,,
way/141316581,,,industrial,Industry,center,36.8513839,-1.3131776,,,,,,,,,,,,,,,,,,,,,,,,,,,,,,,,,,,,,,,,,
way/141318448,,,industrial,Industry,center,36.8419099,-1.3074443,,,,,,,,,,,,,,,,,,yes,,,,,,,,,,,,,,,,,,,,,,,
way/141318449,,,industrial,Industry,center,36.8421203,-1.3071885,,,,,,,,,,,,,,,,,,,,,,,,,,,,,,,,,,,,,,,,,
way/147425583,,,,Bhachu Factory - Rueben,center,36.8739135,-1.3178554,,,,,,,,,,,secondary,,,,,,manufacturing,,,,,,,,,,,,,,,,,,,,,,,,
way/147425585,,,industrial,Bins (K) Ltd,center,36.8680768,-1.3173966,,,,,,,,,,,,,,,,,,,yes,yes,yes,yes,,,,,,,,,,,,,,,,,,,
way/147425600,,,industrial,,center,36.8697004,-1.3182205,,,,,,,,,,wall,primary,Service Industry,,,,,,,,,,,,,,,,,,,,,,,,,,,,,
way/153567485,,,industrial,Kartasi Industries,center,36.860124,-1.3156594,,,,,,,,,,,,,,,,,,,,,,,,,,,,,,,,,,,,,,,,,
way/154096111,,,industrial,Industry,center,36.8419195,-1.3077248,,,,,,,,,,,,,,,,,,yes,,,,,,,,,,,,,,,,,,,,,,,
way/154098871,,,industrial,,center,36.8676419,-1.326976,,,,,,,,,,,,,,,,,,,,,,,hedge,,,,,,,,,,,,,,,,,,
way/154099921,,,industrial,,center,36.8714566,-1.335243,,,,,,,,,,wall,,,,,,,,,,,,,,,,,,,,,,,,,,,,,,,
way/154684411,,,,,center,36.8607449,-1.3102789,,,,,,,,,,,,,,,,works,,,,,,,,,,,,,,,,,,,,,,,,,
way/155292238,,,industrial,,center,36.8642703,-1.3243707,,,,,,,,,,wall,,,,,,,,,,,,,,,,,,,,,,,,,,,,,,,
way/155295394,,,industrial,,center,36.866079,-1.3203186,,,,,,,,,,,,,,,,,,,,,,,,,,,,,,,,,,,,,,,,,
way/155301291,,,industrial,Alpha Fine Foods,center,36.8591739,-1.319905,,,,,,,,,,wall,,,,,,,,,,,,,,,,,,,,,,,,,,,,,,,
way/155301300,,,,Robs Magic Springs Industry,center,36.8582131,-1.3195625,,,,,,,,,,,,,,,,,,industrial,,,,,,,,,,,,,,,,,,,,,,,
way/155302826,,,industrial,,center,36.8562881,-1.3178769,,,,,,,,,,wall,,,,,,,,,,,,,,,,,,,,,,,,,,,,,,,
way/155303985,Nairobi,Enterprise Road,,Magnum Industry,center,36.8557432,-1.3141795,,,,,,,,,,,,,,,,,,industrial,,,,,,,,,,,,,,,,,,,,,,,
way/155812042,,,,Government Buildings/Administration,center,36.8538318,-1.311269,,,,,,,,,,wall,,,,,,works,,,,,,,,,,,,,,,,,,,,,,,,,
way/155812043,,,,Madu Paper Industry,center,36.8697719,-1.3101997,,,,,,,,,,wall,,,,,,works,,,,,,,,,,,,,,,,,,,,,,,,,
way/155815118,,,industrial,Industrial area,center,36.8317325,-1.3007731,,,,,,,,,,wall,,,,,,,,,,,,,,,,,,,,,,,,,,,,,,,
way/155815119,,,industrial,Industrial area,center,36.8341336,-1.2995885,,,,,,,,,,wall,,,,,,,,,,,,,,,,,,,,,,,,,,,,,,,
way/155816083,,,industrial,Industrial area,center,36.8309862,-1.3041788,,,,,,,,,,wall,,,,,,,,,,,,,,,,,,,,,,,,,,,,,,,
way/155968601,,,industrial,,center,36.8676984,-1.3247015,,,,,,,,,,wall,,,,,,,,,,,,,,,,,,,,,,,,,,,,,,,
way/155968602,,,industrial,,center,36.8651847,-1.324592,,,,,,,,,,wall,,,,,,,,,,,,,,,,,,,,,,,,,,,,,,,
way/155979559,,,industrial,,center,36.8798925,-1.3384333,,,,,,,,,,,,,,,,,,,,,,,,,,,,,,,,,,,,,,,,,
way/155979561,,,industrial,,center,36.8686784,-1.3322934,,,,,,,,,,wall,,,,,,,,,,,,,,,,,,,,,,,,,,,,,,,
way/155979565,,,industrial,,center,36.8699181,-1.3315132,,,,,,,,,,,,,,,,,,,,,,,,,,,,,,,,,,,,,,,,,
way/155986875,Nairobi,Mombasa Road,industrial,Bobmil Complex,center,36.8624746,-1.3325599,,,,,,,,,,,,,,,,,,,,,,,,,,,,,,,,,,,,,,,,,
way/155986876,Nairobi,Nairobi Park East Gate Road,industrial,KCI - Kenya Coach Industries,center,36.8623516,-1.3343454,,,,,,,,,,,,,,,,,,,,,,,,,,,,,,,,,,,,,,,,,
way/155986878,,,industrial,,center,36.8612807,-1.3270921,,,,,,,,,,wall,,,,,,,,,,,,,,,,,,,,,,,,,,,,,,,
way/226557152,,,industrial,Tononka,center,36.9025226,-1.320964,,,,,,,,,,,,,,,,,,,,,,,,,,,,,,,,,,,,,,,,,
way/238809965,,,industrial,,center,36.9128367,-1.1751594,,,,,,,,,,,,,,,,,,,,,,,,,,,,,,,,,,,,,,,,,
way/238810338,,,industrial,,center,36.9144631,-1.1872842,,,,,,,,,,,,,,,,,,,,,,,,,,,,,,,,,,,,,,,,,
way/238810727,,,industrial,Famers' Choice Factory,center,36.9086896,-1.1852851,,,,,,,,,,,,,,,,,,,,,,,,,,,,,,,,,,,,,,,,,
way/238810924,,,industrial,Waste Water Plant,center,36.9010747,-1.1741574,,,,,,,,,,,,,,,,,,,,,,,,,,,,,,,,,,,,,,,,,
way/239164558,,,industrial,,center,36.8399824,-1.2227319,,,,,,,,,,,,,,,,,,,,,,,,,,,,,,,,,,,,,,,,,
way/239805671,Nairobi,Likoni Road,industrial,Glaxo Smithkline,center,36.8597366,-1.3099474,,,,,,,,,,,,,,,,,,,,,,,,,,,,,,,,,,,,,,,,,
way/241395874,,,industrial,,center,36.9757309,-1.2725962,,,,,,,,,,,,,,,,,,,,,,,,,,,,,,,,,,,,,,,,,
way/241397755,,,industrial,,center,36.9659784,-1.2900403,,,,,,,,,,,,,,,,,,,,,,,,,,,,,,,,,,,,,,,,,
way/241403143,,,industrial,,center,36.8952874,-1.3343166,,,,,,,,,,,,,,,,,,,,,,,,,,,,,,,,,,,,,,,,,
way/259337243,Nairobi,Kasarani Mwiki Road,industrial,Sinohydro Construction Site Kasarani,center,36.9058738,-1.222788,,,,,,,,brickyard,,,,,,,,,,,,,,,,,,,,,,,,,,,,,,,,,
way/259337244,,,industrial,,center,36.9060294,-1.2243139,,,,,,,,,,,,,,,,,,,,,,,,,,,,,,,,,,,,,,,,,
way/259340074,Nairobi,Kasarani Mwiki Road,industrial,Warren Concrete Company,center,36.9067402,-1.2215377,,,,,,,,,,,,,,,,,,,,,,,,,,,,,,,,,,,,,,,,,
way/259340982,,,industrial,Central Glass Industries,center,36.8872915,-1.2329479,,,,,,,,,,,,,,,,,,,,,,,,,,,,,,,,,,,,,,,,,
way/291328496,,,,East African Breweries Limited,center,36.8790551,-1.2358953,,,,Diageo,beer,,https://www.eabl.com/,,,,,,,,,works,,,,,,,,EABL,,,,,,,,,,,,,,,,,
way/295821180,,,,Opportnity Factory,center,36.7056024,-1.348175,,,,,,,,,,,,,,,,,,yes,,,,,,,,,,,,,,,,,,,,,,,
way/309823686,,,industrial,Tannas Tannery,center,36.8945427,-1.2043483,,,,,,,,,,,,,,,,,,,,,,,,,,,,,,,,,,,,,,,,,
way/321573611,Nairobi,Old Mombosa Road,industrial,Kenbelt Industrial Park,center,36.8795636,-1.3326488,,,,,,,,,,,,,,,,,,,,,,,,,,,,,,,,,,,,,,,,,
way/355153084,,,industrial,,center,36.9051137,-1.3194175,,,,,,,,,,,,,,,,,,,,,,,,,,,,,,,,,,,,,,,,,
way/367355552,,,industrial,,center,36.8381318,-1.3148862,,,,,,,,,,,,,,,,,,,,,,,,,,,,,,,,,,,,,,,,,
way/367355811,,,industrial,,center,36.8422834,-1.3079731,,,,,,,,,,,,,,,,,,,,,,,,,,,,,,,,,,,,,,,,,
way/388386878,,,industrial,,center,36.9634028,-1.4373201,,,,,,,,,,,,,,,,,,,,,,,,,,,,,,,,,,,,,,,,,
way/553218969,Nairobi,Stima Lane,industrial,Westlands Sub Station,center,36.7995281,-1.2568427,,,,KPLC,,,,,substation,,,,,,,,,,,,,,,,,,,,,,,,,,,,,,,,
way/555599180,Nairobi,Tala road,industrial,Rhombus Concrete Limited,center,36.8402003,-1.2306205,,,,,,,,,,,,,,,,,,,,,,,,,"15570, Tala Road, Kiambu Road, Nairobi",1,,,,,,,,,,,,,,,
way/560379155,,,industrial,,center,36.8862601,-1.2508229,,,,,,,,,,,,,,,,,,,,,,,,,,,,,,,,,,,,,,,,,
way/568140303,Nairobi,Oloitokitok Road,industrial,Kenya Power Sub Station Kileleshwa,center,36.7866345,-1.2829648,,,,,,,,,substation,,,,,,,,,,,,,,,,,,,,,,,,,,,,,,,,
way/577991151,Nairobi,Likoni Road,industrial,Printpak,center,36.8549739,-1.3021352,,,,,,,https://www.printpack.com/,,,,,,,,,,,,,,,,,,,,+254 20650520,,,,,,,,,,,,,,
way/580324786,Nairobi,Uhuru Highway,industrial,Panafrican Equipment (Kenya) Limited,center,36.8245077,-1.2979698,,,,,,,,,,,,,,,,works,,,,,,,,,,,,,,,,,,,,,,,,,
way/583707625,Nairobi,Commercial Street,,UNGA Limited,center,36.8362159,-1.2940028,,,,,,,,,,,,,,,,works,,,,,,,,,,,,,,,,,,,,,,,,,
way/656229763,Nairobi,,industrial,Dogbones Limted,center,36.8980866,-1.263612,,,,,,,,,,,,,,,,works,,,,,,,,,,,,,,,,,,,,,,,,,
way/656229764,Nairobi,Kangundo Road,industrial,Steel Structures Limted,center,36.8962563,-1.2713982,,,,,,,,,,,,,,,,,,,,,,,,,,,,,,,,,,,,,,,,,
way/657065251,Nairobi,Mombasa Road,industrial,Sammer Africa Limited,center,36.8660852,-1.3288977,,,,,,,,manufacturing,,,,,,,,,,,,,,,,,,,,,,,,,,,,,,,,,
way/657065252,Nairobi,Enterprise Road,industrial,ISUZU East Africa Ltd.,center,36.8722951,-1.327343,,,,,,,https://www.isuzu.co.ke/,,,,,,,,,works,,,,,,,,,,,,,,,,,,,,,,,,,
way/659379431,Nairobi,Kangundo Road,industrial,Nairobi bottlers,center,36.9000065,-1.269032,,,,,,,,,,,,,,,,,,,,,,,,,,,,,,,,,,,,,,,,,
way/659379432,Nairobi,Kangundo Road,industrial,Supa Loaf Bakery,center,36.9022322,-1.2669093,,,,,,,,,,,,,,,,,,,,,,,,,,,,,,,,,,,,,,,,,
way/659379433,Nairobi,Kangundo Road,industrial,Double M Yard,center,36.9041936,-1.2644223,,,,,,,,,,,,,,,,,,,,,,,,,,,,,,,,,,,,,,,,,
way/663223933,Nairobi,Old Mombosa Road,industrial,Kenbro Industries Ltd,center,36.8835634,-1.3314891,,,,,,,,,,,,,,,,,,,,,,,,,,,,,,,,,,,,,,,,,
way/663223951,Nairobi,Old Mombasa Road,,Inland Container Depot,center,36.8802711,-1.3364263,,,,,,,,,,,,,,,,works,,,,,,,,,,,,,,,,,,,,,,,,,
way/667417267,Nairobi,Kasarani Mwiki Road,industrial,DHL Depot,center,36.9096407,-1.222508,,,,,,,,depot,,,,,,,,,,,,,,,,,,,,,,,,,,,,,,,,,
way/667417271,Nairobi,Kasarani Mwiki Road,industrial,Syno Hydro Company,center,36.9090587,-1.2244921,,,,,,,,building_materials,,,,,,,,,,,,,,,,,,,,,,,,,,,,,,,,,
way/667425718,Nairobi,Clay City Masournets,industrial,Ongata Works Limited,center,36.9099458,-1.2211736,,,,,,,,construction_company,,,,,,,,,,,,,,,,,,,,,,,,,,,,,,,,,
way/678426766,,,,Factory Street,center,36.8370838,-1.2926473,unclassified,,,,,,,,,,,,,,,,,,,,,,,,,,,,,,,,,,,,,,,,
way/702983072,,,,Factory Street,center,36.8405693,-1.2917805,residential,asphalt,,,,,,,,,,,,,,,,,,,,,,,,,,yes,,,,,,,,,,,,,
way/702983073,,,,Factory Street,center,36.8406222,-1.2916345,residential,asphalt,,,,,,,,,,,,,,,,,,,,,,,,,,yes,,,,,,,,,,,,,
way/767348022,Nairobi,Mombasa Road,industrial,Doshi Group of Companies,center,36.8852909,-1.3281799,,,,,,,,,,,,,,,,,,,,,,,,,,,,,,,,,,,,,,,,,
way/772265507,,,industrial,,center,36.8188828,-1.2368146,,,,,,,,,,,,,,,,,,,,,,,,,,,,,,,,,,,,,,,,,
way/773904524,Nairobi,Kangundo Road,industrial,Nairobi bottlers,center,36.9009403,-1.2682182,,,,,,,,,,,,,,,,,,,,,,,,,,,,,,,,,,,,,,,,,
way/773905414,,,industrial,,center,36.9013672,-1.2597735,,,,,,,,,,,,,,,,,,,,,,,,,,,,,,,,,,,,,,,,,
way/776187332,,,construction,Kibera Soweto East Zone B (Slum Upgrading site 2),center,36.7980608,-1.3157641,,,,,,,,,,,,,,,,works,,,,,,,,,,,,,,,,,,,,,,,,,
way/776187333,,,construction,Kibera Soweto East Zone B (Slum Upgrading site),center,36.8003273,-1.3157285,,,,,,,,,,,,,,,,works,,,,,,,,,,,,,Wall,,,,,,,,,,,,
way/807443623,,,,Agro Manufacturing Co. Ltd,center,36.8573209,-1.3055088,,,,,,,,,,,,,,,,,,yes,,,,,,,,,,,,,,,,,,,,,,,
way/823223442,,,industrial,,center,36.9445767,-1.2711544,,,,,,,,,,,,,,,,works,,,,,,,,,,,,,,,,,,,,,,,,,
way/833244885,,,industrial,Zoa Taka & Green Leaf Services,center,36.8737498,-1.3185549,,,,,,,,waste_handling,,,,,,,,,,,,,,,,,,,,,,,,,,,,,,,,,
way/859405798,,,industrial,,center,36.9758986,-1.2309142,,,,,,,,,,,,,,,,,,,,,,,,,,,,,,,,,,,,,,,,,
way/869857486,,,industrial,,center,36.8935456,-1.3291836,,,,,,,,,,,,,,,,,,,,,,,,,,,,,,,,,,,,,,,,,
way/869857487,,,industrial,,center,36.9045019,-1.3227037,,,,,,,,,,,,,,,,,,,,,,,,,,,,,,,,,,,,,,,,,
way/869857490,,,industrial,,center,36.9158341,-1.3163111,,,,,,,,,,,,,,,,,,,,,,,,,,,,,,,,,,,,,,,,,
way/869857499,,,industrial,,center,36.9113535,-1.3677565,,,,,,,,,,,,,,,,,,,,,,,,,,,,,,,,,,,,,,,,,
way/869893610,,,,,center,36.8746059,-1.331262,,,,,,,,,,,,,,,,works,,,,,,,,,,,,,,,,,,,,,,,,,
way/869893611,,,,,center,36.8744403,-1.330628,,,,,,,,,,,,,,,,works,,,,,,,,,,,,,,,,,,,,,,,,,
way/869893612,,,,,center,36.8663216,-1.3281538,,,,,,,,,,,,,,,,works,,,,,,,,,,,,,,,,,,,,,,,,,
way/869893613,,,industrial,,center,36.8507634,-1.325405,,,,,,,,,,,,,,,,,,,,,,,,,,,,,,,,,,,,,,,,,
way/869893614,,,industrial,,center,36.8579802,-1.3262433,,,,,,,,,,,,,,,,,,,,,,,,,,,,,,,,,,,,,,,,,
way/869893615,,,industrial,,center,36.8594769,-1.326553,,,,,,,,,,,,,,,,,,,,,,,,,,,,,,,,,,,,,,,,,
way/869893616,,,,,center,36.8831692,-1.3344343,,,,,,,,,,,,,,,,works,,,,,,,,,,,,,,,,,,,,,,,,,
way/869893617,,,,,center,36.857692,-1.3089578,,,,,,,,,,,,,,,,works,,,,,,,,,,,,,,,,,,,,,,,,,
way/869893618,,,,,center,36.8594326,-1.3038626,,,,,,,,,,,,,,,,works,,,,,,,,,,,,,,,,,,,,,,,,,
way/869893619,,,,,center,36.8588929,-1.3036328,,,,,,,,,,,,,,,,works,,,,,,,,,,,,,,,,,,,,,,,,,
way/869893620,,,,,center,36.8633943,-1.3046569,,,,,,,,,,,,,,,,works,,,,,,,,,,,,,,,,,,,,,,,,,
way/869893621,,,,,center,36.8639824,-1.3035996,,,,,,,,,,,,,,,,works,,,,,,,,,,,,,,,,,,,,,,,,,
way/869893622,,,,,center,36.8711583,-1.3042749,,,,,,,,,,,,,,,,works,,,,,,,,,,,,,,,,,,,,,,,,,
way/869893623,,,,,center,36.8713285,-1.3055362,,,,,,,,,,,,,,,,works,,,,,,,,,,,,,,,,,,,,,,,,,
way/869893624,,,,,center,36.8673679,-1.3057734,,,,,,,,,,,,,,,,works,,,,,,,,,,,,,,,,,,,,,,,,,
way/869893625,,,,,center,36.8615588,-1.3069962,,,,,,,,,,,,,,,,works,,,,,,,,,,,,,,,,,,,,,,,,,
way/869893626,,,,,center,36.8632539,-1.3057806,,,,,,,,,,,,,,,,works,,,,,,,,,,,,,,,,,,,,,,,,,
way/869893627,,,,,center,36.8634034,-1.3068768,,,,,,,,,,,,,,,,works,,,,,,,,,,,,,,,,,,,,,,,,,
way/869895086,,,industrial,Bamburi Cement,center,36.9598173,-1.4346324,,,,,,,,,,,,,,,,,,,,,,,,,,,,,,,,,,,,,,,,,
way/870970771,,,industrial,,center,37.0035484,-1.2401365,,,,,,,,,,,,,,,,,,,,,,,,,,,,,,,,,,,,,,,,,
way/870970772,,,industrial,,center,36.9882701,-1.2417084,,,,,,,,,,,,,,,,,,,,,,,,,,,,,,,,,,,,,,,,,
way/870970773,,,industrial,Alpha Business Park,center,36.9906584,-1.2405789,,,,,,,,,,,,,,,,,,,,,,,,,,,,,,,,,,,,,,,,,
way/871358438,,,,,center,36.8432123,-1.3025538,,,,,,,,,,,,,,,,works,,,,,,,,,,,,,,,,,,,,,,,,,
way/871358439,,,,KENYA WINES AGENCY (K.W.A.L),center,36.8417326,-1.3086592,,,,,wine;brandy;spirits;alcohol,,,,,,,,,,,works,,,,,,,,,,,,,,,,,,,,,,,,,
way/871358440,,,,Coca Cola Juices,center,36.8565046,-1.3043267,,,,,,,,,,,,,,,,works,,,,,,,,,,,,,,,,,,,,,,,,,
way/871358441,Nairobi,Likoni Road,,British American Tobacco Kenya Ltd,center,36.8553214,-1.3047672,,,,,,,,,,,,,,,,works,,,,,,,,,,,,,,100,,,,,,,,,,,
way/871358443,,,,,center,36.8537345,-1.3048442,,,,,,,,,,,,,,,,works,,,,,,,,,,,,,,,,,,,,,,,,,
way/871358444,,,,,center,36.8538038,-1.3053264,,,,,,,,,,,,,,,,works,,,,,,,,,,,,,,,,,,,,,,,,,
way/871358445,,,,,center,36.8536327,-1.304074,,,,,,,,,,,,,,,,works,,,,,,,,,,,,,,,,,,,,,,,,,
way/871358446,,,,,center,36.8534898,-1.3022686,,,,,,,,,,,,,,,,works,,,,,,,,,,,,,,,,,,,,,,,,,
way/871358447,,,,,center,36.8555177,-1.3065725,,,,,,,,,,,,,,,,works,,,,,,,,,,,,,,,,,,,,,,,,,
way/871358448,,,,,center,36.8558227,-1.3087007,,,,,,,,,,,,,,,,works,,,,,,,,,,,,,,,,,,,,,,,,,
way/871358449,,,,,center,36.8458003,-1.3061685,,,,,,,,,,,,,,,,works,,,,,,,,,,,,,,,,,,,,,,,,,
way/871358450,,,,,center,36.8489036,-1.3038555,,,,,,,,,,,,,,,,works,,,,,,,,,,,,,,,,,,,,,,,,,
way/871358451,,,,,center,36.8460289,-1.3035739,,,,,,,,,,,,,,,,works,,,,,,,,,,,,,,,,,,,,,,,,,
way/871358452,,,,,center,36.8366446,-1.2952008,,,,,,,,,,,,,,,,works,,,,,,,,,,,,,,,,,,,,,,,,,
way/871358456,,,,,center,36.8268153,-1.2964809,,,,,,,,,,,,,,,,works,,,,,,,,,,,,,,,,,,,,,,,,,
way/871371360,,,,,center,36.8494608,-1.3080931,,,,,,,,,,,,,,,,works,,,,,,,,,,,,,,,,,,,,,,,,,
way/871371361,,,,,center,36.8511916,-1.3093403,,,,,,,,,,,,,,,,works,,,,,,,,,,,,,,,,,,,,,,,,,
way/871371362,,,,,center,36.8509145,-1.3071678,,,,,,,,,,,,,,,,works,,,,,,,,,,,,,,,,,,,,,,,,,
way/871371363,,,,,center,36.8505476,-1.304412,,,,,,,,,,,,,,,,works,,,,,,,,,,,,,,,,,,,,,,,,,
way/871371364,,,,,center,36.8506816,-1.3054307,,,,,,,http://www.boc.co.ke,,,,,,,,,works,,,,,,,,,,,,,,,,,,,,,,,,,
way/871371365,,,,,center,36.8523254,-1.3060798,,,,,,,,,,,,,,,,works,,,,,,,,,,,,,,,,,,,,,,,,,
way/871371366,,,,,center,36.8504569,-1.3038862,,,,,,,,,,,,,,,,works,,,,,,,,,,,,,,,,,,,,,,,,,
way/871418584,,,,,center,36.8423146,-1.306223,,,,,,,,,,,,,,,,works,,,,,,,,,,,,,,,,,,,,,,,,,
way/871517813,,,,,center,36.8629344,-1.3035001,,,,,,,,,,,,,,,,works,,,,,,,,,,,,,,,,,,,,,,,,,
way/871517814,,,,,center,36.8647132,-1.3064578,,,,,,,,,,,,,,,,works,,,,,,,,,,,,,,,,,,,,,,,,,
way/871517815,,,,,center,36.8688217,-1.3061199,,,,,,,,,,,,,,,,works,,,,,,,,,,,,,,,,,,,,,,,,,
way/871517816,,,,,center,36.8686292,-1.3047786,,,,,,,,,,,,,,,,works,,,,,,,,,,,,,,,,,,,,,,,,,
way/871517817,,,,,center,36.8710283,-1.303317,,,,,,,,,,,,,,,,works,,,,,,,,,,,,,,,,,,,,,,,,,
way/871517818,,,industrial,Kenya Pipeline Company Ltd.- Nairobi Terminal,center,36.8736411,-1.3034208,,,,,,,https://kpc.co.ke/,depot,,,,,,,,,,,,,,,,KPC,,,,,,,10,,,,,,,,,,
way/871517819,,,,,center,36.8763788,-1.304383,,,,,,,,,,,,,,,,works,,,,,,,,,,,,,,,,,,,,,,,,,
way/871517820,,,,,center,36.8806455,-1.3036612,,,,,,,,,,,,,,,,works,,,,,,,,,,,,,,,,,,,,,,,,,
way/871517824,,,,,center,36.8790342,-1.303304,,,,,,,,,,,,,,,,works,,,,,,,,,,,,,,,,,,,,,,,,,
way/871517825,,,industrial,National Cereals & Produce board (Nairobi Silo),center,36.8865887,-1.3049977,,,,,,,https://ncpb.co.ke/,,,fence,,,,,,,,,,,,,,NCPB,,,,,,,,,,,,,,,,,
way/871517827,,,,,center,36.8791947,-1.307487,,,,,,,,,,,,,,,,works,,,,,,,,,,,,,,,,,,,,,,,,,
way/871517828,Nairobi,Lunga Lunga Road,,Pembe Flour Mills Limited,center,36.8802322,-1.3073407,,,,,,,,,,,,,,,,works,,,,,,,,,,,+254 700 114444,,,100,,,,,,,,,,,
way/871517829,,,,,center,36.8715496,-1.3084439,,,,,,,,,,,,,,,,works,,,,,,,,,,,,,,,,,,,,,,,,,
way/871517830,,,,,center,36.8705691,-1.3085813,,,,,,,,,,,,,,,,works,,,,,,,,,,,,,,,,,,,,,,,,,
way/871517831,,,,,center,36.8692409,-1.3087286,,,,,,,,,,,,,,,,works,,,,,,,,,,,,,,,,,,,,,,,,,
way/871517832,,,,,center,36.8720016,-1.3098138,,,,,,,,,,,,,,,,works,,,,,,,,,,,,,,,,,,,,,,,,,
way/871517833,,,,,center,36.8656541,-1.309063,,,,,,,,,,,,,,,,works,,,,,,,,,,,,,,,,,,,,,,,,,
way/871517834,,,,,center,36.8594746,-1.3113872,,,,,,,,,,,,,,,,works,,,,,,,,,,,,,,,,,,,,,,,,,
way/871517835,,,,,center,36.857884,-1.3116204,,,,,,,,,,,,,,,,works,,,,,,,,,,,,,,,,,,,,,,,,,
way/871517836,Nairobi,Likoni Road,industrial,Glaxo Smithkline,center,36.858031,-1.3101056,,,,,,,,,,,,,,,,,,,,,,,,,,,,,,,,,,,,,,,,,
way/871517837,,,,,center,36.8597082,-1.3085996,,,,,,,,,,,,,,,,works,,,,,,,,,,,,,,,,,,,,,,,,,
way/871517838,,,,,center,36.8579788,-1.3051023,,,,,,,,,,,,,,,,works,,,,,,,,,,,,,,,,,,,,,,,,,
way/878433586,,,,,center,36.9194765,-1.1872022,,,,,,,,,,,,,,,,works,,,,,,,,,,,,,,,,,,,,,,,,,
way/878433587,,,industrial,,center,36.911112,-1.188048,,,,,,,,,,,,,,,,,,,,,,,,,,,,,,,,,,,,,,,,,
way/917798653,,,industrial,,center,36.9057757,-1.3663225,,,,,,,,,,wall,,,,,,,,,,,,,,,,,,,,,,,,,,,,,,,
way/929440026,,,industrial,,center,36.8255718,-1.3270544,,,,,,,,,,,,,,,,,,,,,,,,,,,,,,,,,,,,,,,,,
way/929449877,,,industrial,,center,36.8307477,-1.3266153,,,,,,,,,,,,,,,,,,,,,,,,,,,,,,,,,,,,,,,,,
way/929449878,,,industrial,,center,36.8307772,-1.3267722,,,,,,,,,,,,,,,,,,,,,,,,,,,,,,,,,,,,,,,,,
way/929449879,,,industrial,,center,36.8308094,-1.3269223,,,,,,,,,,,,,,,,,,,,,,,,,,,,,,,,,,,,,,,,,
way/929449880,,,industrial,,center,36.8308289,-1.3270699,,,,,,,,,,,,,,,,,,,,,,,,,,,,,,,,,,,,,,,,,
node/949597441,,,industrial,Industries,,36.8729355,-1.3202685,,,,,,,,,,,,,,,,,,,,,,,,,,,,,,,,Moved 300 meters south from source,Mukuru on the move,,,,,,,,
node/949597623,Nairobi,,industrial,Dakawuo Transporters,,36.8960352,-1.3311271,,,,,,TRANSPORT,https://www.dakawou.com/,,,,,,,,,,,,,,,,,,,,+254 111 054 340,,,100,,,Mukuru on the move,info@dakawou.com,,,,,,,
node/949598164,,,industrial,ACC - Accurate Steel Mills,,36.8730871,-1.3167362,,,,,,,,,,,,,,,,,,,,,,,,,,,,,,,,,Mukuru on the move,,,,,,,,
way/968171889,,,industrial,,center,36.9090628,-1.3550652,,,,,,,,,,,,,,,,,,,,,,,,,,,,,,,,,,,,,,,,,
way/985796800,,,,Factory Workshop,center,36.8429664,-1.3032745,,,,,,,,,,,,,,,,,,garage,,,,,,,,,,,,,,,,,,,,,,,
way/985796801,,,,Factory Blocks,center,36.8428335,-1.3034948,,,,,,,,,,,,,,,,,,industrial,,,,,,,,,,,,,,,,,,,,,,,
way/1067506482,,,industrial,,center,36.9097652,-1.2371767,,,,,,,,slaughterhouse,,,,,,,,,,yes,,,,,,,,,,,,,,,,,,,,,,,
way/1076133838,,,industrial,KBC Radio Transmisison Site,center,36.7507694,-1.3564626,,,,,,,,communication,,,,,,,,,,,,,,,,,,,,,,,,,,,,,,,,,
way/1106136493,,,industrial,,center,36.7703154,-1.2830033,,,,,,,,panel_beater,,,,,,,,,,,,,,,,,,,,,,,,,,,,,,,,,
way/1107464980,,,,,center,36.9167458,-1.3077669,,,,,,,,,,,,,,,,works,,yes,,,,,,,,,,,,,,,,,,,,,,,
way/1112498553,,,,Factory Street,center,36.8333954,-1.2883087,unclassified,asphalt,,,,,,,,,,,,,,,,,,,,,,,,,,,,,,,,,,,,,,,
way/1141873294,,,industrial,,center,36.8840172,-1.3018151,,,,,,,,,,,,,,,,,,,,,,,,,,,,,,,,,,,,,,,,,
way/1266095398,,,industrial,,center,36.7283477,-1.2611265,,,,,,,,,,,,,,,,,,,,,,,,,,,,,,,,,,,,,,,,,
way/1385724267,,,industrial,Nestle Kenya Ltd,center,36.8682343,-1.3026407,,,,,,,https://www.nestle-esar.com/,factory,,,,,,,,,,,,,,,,,,,,,,,,,,,,,,,,,
way/1385724268,,,industrial,Uniliver Kenya Ltd,center,36.8381751,-1.2942234,,,,,,,https://www.unilever.com/,factory,,,,,,,,,,,,,,,,,,,,,,,,,,,,,,,,,
node/1432508099,,,,Velpal EM Ltd,,36.8727909,-1.3185536,,,,,,,,,,,,,,,,works,,,,,,,,,,,,,,,,,,,,,,,,,
node/1432508100,,,,Tanad Transporters Ltd,,36.8729985,-1.3186068,,,,,,,,,,,,,,,,works,,,,,,,,,,,,,,,,,,,,,,,,,
node/1437348066,,,,Eas Juja ltd,,36.873441,-1.3189205,,,,,,,,,,,,,,,,works,,,,,,,,,,,,,,,,,,,,,,,,,
node/1524443133,,,,Bamburi cement ltd-ruben,,36.8669598,-1.3188024,,,,,,,,,,,,,,,,works,,,,,,,,,,,,,,,,,,,,,,,,,
node/1524443135,,,,Meds ltd-rubed,,36.8680492,-1.3191817,,,,,,,,,,,,,,,,works,,,,,,,,,,,,,,,,,,,,,,,,,
node/1524443136,,,,Ng'ombe industry-ruben,,36.867654,-1.3190672,,,,,,,,,,,,,,,,works,,,,,,,,,,,,,,,,,,,,,,,,,
node/1524443137,,,,Roll mill ltd-ruben,,36.8690335,-1.3199152,,,,,,,,,,,,,,,,works,,,,,,,,,,,,,,,,,,,,,,,,,
node/1524443138,,,,Roto moulders ltd,,36.8642084,-1.3170488,,,,,,,,,,,,,,,,works,,,,,,,,,,,,,,,,,,,,,,,,,
node/1524443139,,,,Sun flower ltd-Ruben,,36.8719023,-1.3210096,,,,,,,,,,,,,,,,works,,,,,,,,,,,,,,,,,,,,,,,,,
node/1524443140,,,,Wood product ltd-ruben,,36.8697392,-1.3202429,,,,,,,,,,,,,,,,works,,,,,,,,,,,,,,,,,,,,,,,,,
node/1678044300,,,,ACCROW Industry,,36.8695498,-1.3233382,,,,,,,,,,,,,,,,works,,,,,,,,,,,,,,,,,,,,,,,,,
node/1678044301,,,,Elite Tools Industry,,36.8692427,-1.32518,,,,,,,,,,,,,,,,works,,,,,,,,,,,,,,,,,,,,,,,,,
node/1678044302,,,,Ellys Chemicals Industry,,36.8650582,-1.3203685,,,,,,,,,,,,,,,,works,,,,,,,,,,,,,,,,,,,,,,,,,
node/1678044303,,,,Ganijee Glassmart Company,,36.8646195,-1.3200878,,,,,,,,,,,,,,,,works,,,,,,,,,,,,,,,,,,,,,,,,,
node/1678044304,,Enterprise Road,,General Plastics Company,,36.8680513,-1.3218035,,,,,,,,,,,,,,,,works,,,,,,,,,,,,,,,,,,,,,,,,,
node/1678044305,,,,Hydro well Service Company,,36.8660021,-1.3203022,,,,,,,,,,,,,,,,works,,,,,,,,,,,,,,,,,,,,,,,,,
node/1678044306,,,,,,36.8654175,-1.3212904,,,,,,,,,,,,,,,,works,,,,,,,,,,,,,,,,,,,,,,,,,
node/1678044307,,,,,,36.8651936,-1.3215234,,,,,,,,,,,,,,,,works,,,,,,,,,,,,,,,,,,,,,,,,,
node/1678044308,,,,Kenya Hoticultural Export,,36.8674846,-1.3233496,,,,,,,,,,,,,,,,works,,,,,,,,,,,,,,,,,,,,,,,,,
node/1678044309,,,,Kenya Litho Company,,36.8638017,-1.3191907,,,,,,,,,,,,,,,,works,,,,,,,,,,,,,,,,,,,,,,,,,
node/1678044311,,,,Mac Loy Company,,36.8642673,-1.3197732,,,,,,,,,,,,,,,,works,,,,,,,,,,,,,,,,,,,,,,,,,
node/1678044313,,Enterprise Road,,Marshall Fowler Industry,,36.8683081,-1.3223381,,,,,,,,,,,,,,,,works,,,,,,,,,,,,,,,,,,,,,,,,,
node/1678044314,,,,Mech Cussion Industry,,36.8656591,-1.3208855,,,,,,,,,,,,,,,,works,,,,,,,,,,,,,,,,,,,,,,,,,
node/1678044315,,,,NAS Service Industry,,36.8692085,-1.3226579,,,,,,,,,,,,,,,,works,,,,,,,,,,,,,,,,,,,,,,,,,
node/1678044316,,,,NAS Service Industry,,36.8689571,-1.3232747,,,,,,,,,,,,,,,,works,,,,,,,,,,,,,,,,,,,,,,,,,
node/1678044317,,,,Silencer Industry,,36.8669929,-1.3208504,,,,,,,,,,,,,,,,works,,,,,,,,,,,,,,,,,,,,,,,,,
node/1678044318,,,,Swan Transporters,,36.8676628,-1.3215284,,,,,,,,,,,,,,,,works,,,,,,,,,,,,,,,,,,,,,,,,,
node/1678044319,,,,Tarpo Tents Industry,,36.8691785,-1.3243733,,,,,,,,,,,,,,,,works,,,,,,,,,,,,,,,,,,,,,,,,,
node/1678061744,,,,Century Motor World Company,,36.8628526,-1.3187228,,,,,,,,,,,,,,,,works,,,,,,,,,,,,,,,,,,,,,,,,,
node/1678061745,,,,East African Sea Foods Company,,36.8619283,-1.3179181,,,,,,,,,,,,,,,,works,,,,,,,,,,,,,,,,,,,,,,,,,
node/1678061746,,,,Express Kenya Ltd,,36.8570743,-1.3180392,,,,,,,,,,,,,,,,works,,,,,,,,,,,,,,,,,,,,,,,,,
node/1678061747,,,,G4S Solutions Service Industry,,36.8592362,-1.3140673,,,,,,,,,,,,,,,,works,,,,,,,,,,,,,,,,,,,,,,,,,
node/1678061749,,,,,,36.8617916,-1.3113847,,,,,,,,,,,,,,,,works,,,,,,,,,,,,,,,,,,,,,,,,,
node/1678061750,,,,Nabico Industry,,36.8584809,-1.3151728,,,,,,,,,,,,,,,,works,,,,,,,,,,,,,,,,,,,,,,,,,
node/1678061756,,,,,,36.8606765,-1.3187394,,,,,,,,,,,,,,,,works,,,,,,,,,,,,,,,,,,,,,,,,,
node/1678061757,,,,,,36.8625788,-1.3193053,,,,,,,,,,,,,,,,works,,,,,,,,,,,,,,,,,,,,,,,,,
node/1678061761,,,,Keringet Company,,36.8630117,-1.3183625,,,,,,,,,,,,,,,,works,,,,,,,,,,,,,,,,,,,,,,,,,
node/1678061762,,,,Paper Converters Company,,36.8612718,-1.3188202,,,,,,,,,,,,,,,,works,,,,,,,,,,,,,,,,,,,,,,,,,
node/1678061763,,,,Paper Industry,,36.8578426,-1.3160629,,,,,,,,,,,,,,,,works,,,,,,,,,,,,,,,,,,,,,,,,,
node/1678061765,,,,Tetra Park Factory,,36.8582244,-1.3134622,,,,,,,,,,,,,,,,works,,,,,,,,,,,,,,,,,,,,,,,,,
node/1678061766,,,,Vagas Company Ltd,,36.8610989,-1.3174812,,,,,,,,,,,,,,,,works,,,,,,,,,,,,,,,,,,,,,,,,,
node/1678070418,,,,Daima Industry,,36.8612817,-1.312998,,,,,,,,,,,,,,,,works,,,,,,,,,,,,,,,,,,,,,,,,,
node/1678070420,,,,Hydro water well,,36.860474,-1.3132018,,,,,,,,,,,,,,,,works,,,,,,,,,,,,,,,,,,,,,,,,,
node/1678079272,,,,Chicken Feeds Company,,36.8615324,-1.3156348,,,,,,,,,,,,,,,,works,,,,,,,,,,,,,,,,,,,,,,,,,
node/1678079273,,,,Diesel Injections Company,,36.8618577,-1.3153434,,,,,,,,,,,,,,,,works,,,,,,,,,,,,,,,,,,,,,,,,,
node/1678079275,,,,Gachanja Stores/Wholesallers,,36.8622124,-1.3149163,,,,,,,,,,,,,,,,works,,,,,,,,,,,,,,,,,,,,,,,,,
node/1678079276,,,,Garage,,36.8623692,-1.3147654,,,,,,,,,,,,,,,,works,,,,,,,,,,,,,,,,,,,,,,,,,
node/1678079278,,,,He-Halls Company,,36.8616954,-1.3154806,,,,,,,,,,,,,,,,works,,,,,,,,,,,,,,,,,,,,,,,,,
node/1678079279,,,,,,36.8608465,-1.3139921,,,,,,,,,,,,,,,,works,,,,,,,,,,,,,,,,,,,,,,,,,
node/1678079280,,,,,,36.86091,-1.3143459,,,,,,,,,,,,,,,,works,,,,,,,,,,,,,,,,,,,,,,,,,
node/1678079283,,,,,,36.8610465,-1.3145828,,,,,,,,,,,,,,,,works,,,,,,,,,,,,,,,,,,,,,,,,,
node/1678079285,,,,,,36.8620771,-1.3150761,,,,,,,,,,,,,,,,works,,,,,,,,,,,,,,,,,,,,,,,,,
node/1678079286,,,,,,36.8620102,-1.3151553,,,,,,,,,,,,,,,,works,,,,,,,,,,,,,,,,,,,,,,,,,
node/1678079288,,,,,,36.861921,-1.3152458,,,,,,,,,,,,,,,,works,,,,,,,,,,,,,,,,,,,,,,,,,
node/1678079294,,,,Unique Touch Body Company,,36.8617764,-1.3154148,,,,,,,,,,,,,,,,works,,,,,,,,,,,,,,,,,,,,,,,,,
node/1678079295,,,,southern Cross Safaris,,36.861641,-1.3155658,,,,,,,,,,,,,,,,works,,,,,,,,,,,,,,,,,,,,,,,,,
node/1678101649,,,,,,36.8634284,-1.3128055,,,,,,,,,,,,,,,,works,,,,,,,,,,,,,,,,,,,,,,,,,
node/1678101652,,,,,,36.8629793,-1.3131505,,,,,,,,,,,,,,,,works,,,,,,,,,,,,,,,,,,,,,,,,,
node/1678101655,,,,,,36.8642135,-1.3141591,,,,,,,,,,,,,,,,works,,,,,,,,,,,,,,,,,,,,,,,,,
node/1678101657,,,,,,36.8640667,-1.3141816,,,,,,,,,,,,,,,,works,,,,,,,,,,,,,,,,,,,,,,,,,
node/1678101659,,,,,,36.8639125,-1.3142305,,,,,,,,,,,,,,,,works,,,,,,,,,,,,,,,,,,,,,,,,,
node/1678101660,,,,,,36.8640741,-1.3142443,,,,,,,,,,,,,,,,works,,,,,,,,,,,,,,,,,,,,,,,,,
node/1678101661,,,,,,36.8641692,-1.314298,,,,,,,,,,,,,,,,works,,,,,,,,,,,,,,,,,,,,,,,,,
node/1678101665,,,,,,36.8643114,-1.314315,,,,,,,,,,,,,,,,works,,,,,,,,,,,,,,,,,,,,,,,,,
node/1678101668,,,,,,36.8643748,-1.3143437,,,,,,,,,,,,,,,,works,,,,,,,,,,,,,,,,,,,,,,,,,
node/1678101670,,,,,,36.8642085,-1.314351,,,,,,,,,,,,,,,,works,,,,,,,,,,,,,,,,,,,,,,,,,
node/1678101673,,,,,,36.8648577,-1.3143874,,,,,,,,,,,,,,,,works,,,,,,,,,,,,,,,,,,,,,,,,,
node/1678101675,,,,,,36.8640754,-1.314484,,,,,,,,,,,,,,,,works,,,,,,,,,,,,,,,,,,,,,,,,,
node/1678101677,,,,,,36.8643053,-1.3144865,,,,,,,,,,,,,,,,works,,,,,,,,,,,,,,,,,,,,,,,,,
node/1678101678,,,,,,36.8645086,-1.3145023,,,,,,,,,,,,,,,,works,,,,,,,,,,,,,,,,,,,,,,,,,
node/1678101680,,,,,,36.8637414,-1.3145228,,,,,,,,,,,,,,,,works,,,,,,,,,,,,,,,,,,,,,,,,,
node/1678101683,,,,,,36.863889,-1.3146002,,,,,,,,,,,,,,,,works,,,,,,,,,,,,,,,,,,,,,,,,,
node/1678101686,,,,,,36.8649292,-1.3146588,,,,,,,,,,,,,,,,works,,,,,,,,,,,,,,,,,,,,,,,,,
node/1678101687,,,,,,36.8646514,-1.3146476,,,,,,,,,,,,,,,,works,,,,,,,,,,,,,,,,,,,,,,,,,
node/1678101688,,,,,,36.8640912,-1.3148034,,,,,,,,,,,,,,,,works,,,,,,,,,,,,,,,,,,,,,,,,,
node/1678101689,,,,,,36.864574,-1.3148104,,,,,,,,,,,,,,,,works,,,,,,,,,,,,,,,,,,,,,,,,,
node/1678101693,,,,,,36.8644027,-1.3150293,,,,,,,,,,,,,,,,works,,,,,,,,,,,,,,,,,,,,,,,,,
node/1678132560,,,,Andy Kenya Ltd,,36.8675052,-1.3170296,,,,,,,,,,,,,,,,works,,,,,,,,,,,,,,,,,,,,,,,,,
node/1678132561,,,,BS Monhindra Company,,36.8689321,-1.3176035,,,,,,,,,,,,,,,,works,,,,,,,,,,,,,,,,,,,,,,,,,
node/1678132574,,,,EPCO LTD,,36.8712755,-1.3192692,,,,,,,,,,,,,,,,works,,,,,,,,,,,,,,,,,,,,,,,,,
node/1678132578,,,,,,36.8715898,-1.3182801,,,,,,,,,,,,,,,,works,,,,,,,,,,,,,,,,,,,,,,,,,
node/1678132580,,,,,,36.8715415,-1.3183544,,,,,,,,,,,,,,,,works,,,,,,,,,,,,,,,,,,,,,,,,,
node/1678132581,,,,,,36.8720847,-1.3183788,,,,,,,,,,,,,,,,works,,,,,,,,,,,,,,,,,,,,,,,,,
node/1678132582,,,,,,36.8714845,-1.3184349,,,,,,,,,,,,,,,,works,,,,,,,,,,,,,,,,,,,,,,,,,
node/1678132583,,,,,,36.8714337,-1.3185439,,,,,,,,,,,,,,,,works,,,,,,,,,,,,,,,,,,,,,,,,,
node/1678132585,,,,,,36.872075,-1.3186474,,,,,,,,,,,,,,,,works,,,,,,,,,,,,,,,,,,,,,,,,,
node/1678132587,,,,,,36.8713469,-1.3186653,,,,,,,,,,,,,,,,works,,,,,,,,,,,,,,,,,,,,,,,,,
node/1678132590,,,,,,36.8719153,-1.3189087,,,,,,,,,,,,,,,,works,,,,,,,,,,,,,,,,,,,,,,,,,
node/1678132593,,,,,,36.8718475,-1.3190175,,,,,,,,,,,,,,,,works,,,,,,,,,,,,,,,,,,,,,,,,,
node/1678132595,,,,,,36.8701503,-1.319477,,,,,,,,,,,,,,,,works,,,,,,,,,,,,,,,,,,,,,,,,,
node/1678132598,,,,Sea Bed Transporters,,36.8697111,-1.3181686,,,,,,,,,,,,,,,,works,,,,,,,,,,,,,,,,,,,,,,,,,
node/1678132599,,,,Wood Product Industry,,36.8702855,-1.3204187,,,,,,,,,,,,,,,,works,,,,,,,,,,,,,,,,,,,,,,,,,
node/1678132600,,,,Wood Product Industry,,36.8708073,-1.3205889,,,,,,,,,,,,,,,,works,,,,,,,,,,,,,,,,,,,,,,,,,
node/1678139336,,,,,,36.8720744,-1.3196884,,,,,,,,,,,,,,,,works,,,,,,,,,,,,,,,,,,,,,,,,,
node/1678139337,,,,,,36.8719734,-1.3197966,,,,,,,,,,,,,,,,works,,,,,,,,,,,,,,,,,,,,,,,,,
node/1678139338,,,,,,36.8737946,-1.320569,,,,,,,,,,,,,,,,works,,,,,,,,,,,,,,,,,,,,,,,,,
node/1678139339,,,,,,36.8733619,-1.32088,,,,,,,,,,,,,,,,works,,,,,,,,,,,,,,,,,,,,,,,,,
node/1678139340,,,,,,36.8738713,-1.3209611,,,,,,,,,,,,,,,,works,,,,,,,,,,,,,,,,,,,,,,,,,
node/1678145995,,,,,,36.8891234,-1.3250165,,,,,,,,,,,,,,,,works,,,,,,,,,,,,,,,,,,,,,,,,,
node/1678145997,,,,,,36.8890821,-1.3252122,,,,,,,,,,,,,,,,works,,,,,,,,,,,,,,,,,,,,,,,,,
node/1678145998,,,,,,36.8891324,-1.3253917,,,,,,,,,,,,,,,,works,,,,,,,,,,,,,,,,,,,,,,,,,
node/1678146001,,,,,,36.8882616,-1.3257308,,,,,,,,,,,,,,,,works,,,,,,,,,,,,,,,,,,,,,,,,,
node/1678146003,,,,,,36.8882536,-1.3259356,,,,,,,,,,,,,,,,works,,,,,,,,,,,,,,,,,,,,,,,,,
node/1678146006,,,,,,36.8883525,-1.3259815,,,,,,,,,,,,,,,,works,,,,,,,,,,,,,,,,,,,,,,,,,
node/1678146009,,,,,,36.8882701,-1.3259892,,,,,,,,,,,,,,,,works,,,,,,,,,,,,,,,,,,,,,,,,,
node/1678146012,,,,,,36.888553,-1.3259966,,,,,,,,,,,,,,,,works,,,,,,,,,,,,,,,,,,,,,,,,,
node/1678146014,,,,,,36.8892394,-1.3252755,,,,,,,,,,,,,,,,works,,,,,,,,,,,,,,,,,,,,,,,,,
node/1678146015,,,,,,36.8887947,-1.3254582,,,,,,,,,,,,,,,,works,,,,,,,,,,,,,,,,,,,,,,,,,
node/1678146017,,,,,,36.8883516,-1.3255833,,,,,,,,,,,,,,,,works,,,,,,,,,,,,,,,,,,,,,,,,,
node/1678146020,,,,,,36.8883102,-1.3256626,,,,,,,,,,,,,,,,works,,,,,,,,,,,,,,,,,,,,,,,,,
node/1678146022,,,,,,36.8884786,-1.3258226,,,,,,,,,,,,,,,,works,,,,,,,,,,,,,,,,,,,,,,,,,
node/1678146029,,,,,,36.8894218,-1.3258681,,,,,,,,,,,,,,,,works,,,,,,,,,,,,,,,,,,,,,,,,,
node/1678146030,,,,,,36.8886276,-1.3258782,,,,,,,,,,,,,,,,works,,,,,,,,,,,,,,,,,,,,,,,,,
node/1678146031,,,,,,36.8881894,-1.3261116,,,,,,,,,,,,,,,,works,,,,,,,,,,,,,,,,,,,,,,,,,
node/1678146032,,,,,,36.8884552,-1.3261798,,,,,,,,,,,,,,,,works,,,,,,,,,,,,,,,,,,,,,,,,,
node/1678155273,,,,Industy,,36.8797088,-1.3262124,,,,,,,,,,,,,,,,works,,,,,,,,,,,,,,,,,,,,,,,,,
node/1678155274,,,,Industy,,36.8798185,-1.3268083,,,,,,,,,,,,,,,,works,,,,,,,,,,,,,,,,,,,,,,,,,
node/1678186751,,,,,,36.8636716,-1.3089591,,,,,,,,,,,,,,,,works,,,,,,,,,,,,,,,,,,,,,,,,,
node/1678186767,,,,,,36.8669739,-1.3102257,,,,,,,,,,,,,,,,works,,,,,,,,,,,,,,,,,,,,,,,,,
node/1678186768,,,,Deepa Industry,,36.868002,-1.3102727,,,,,,,,,,,,,,,,works,,,,,,,,,,,,,,,,,,,,,,,,,
node/1678186769,,,,,,36.8644458,-1.3104728,,,,,,,,,,,,,,,,works,,,,,,,,,,,,,,,,,,,,,,,,,
node/1678186770,,,,,,36.8655079,-1.3107136,,,,,,,,,,,,,,,,works,,,,,,,,,,,,,,,,,,,,,,,,,
node/1678186773,,,,,,36.8665354,-1.3110312,,,,,,,,,,,,,,,,works,,,,,,,,,,,,,,,,,,,,,,,,,
node/1678206042,,,,ACC - Accurate Steel Mills,,36.8738407,-1.3177798,,,,,,,,,,,,,,,,works,,,,,,,,,,,,,,,,,,,,,,,,,
node/1678206053,,,,Gateway Ltd,,36.8734296,-1.3180604,,,,,,,,,,,,,,,,works,,,,,,,,,,,,,,,,,,,,,,,,,
node/1678206054,,,,Gateway Ltd,,36.8735145,-1.3183181,,,,,,,,,,,,,,,,works,,,,,,,,,,,,,,,,,,,,,,,,,
node/1678206055,,,,Hillocks Commercials,,36.8653742,-1.319119,,,,,,,,,,,,,,,,works,,,,,,,,,,,,,,,,,,,,,,,,,
node/1678206061,,,,,,36.874138,-1.3151998,,,,,,,,,,,,,,,,works,,,,,,,,,,,,,,,,,,,,,,,,,
node/1678206067,,,,,,36.8738636,-1.3152846,,,,,,,,,,,,,,,,works,,,,,,,,,,,,,,,,,,,,,,,,,
node/1678206072,,,,,,36.8739016,-1.3155271,,,,,,,,,,,,,,,,works,,,,,,,,,,,,,,,,,,,,,,,,,
node/1681454328,,,,Distel Wine Matters,,36.8632135,-1.3168758,,,,,,,,,,,,,,,,works,,,,,,,,,,,,,,,,,,,,,,,,,
node/1681454329,,,,,,36.8659614,-1.3174598,,,,,,,,,,,,,,,,works,,,,,,,,,,,,,,,,,,,,,,,,,
node/1681454330,,,,,,36.8668099,-1.3172841,,,,,,,,,,,,,,,,works,,,,,,,,,,,,,,,,,,,,,,,,,
node/1681454341,,,,,,36.8665055,-1.3182296,,,,,,,,,,,,,,,,works,,,,,,,,,,,,,,,,,,,,,,,,,
node/1681589576,,,,Timsales Limited,,36.8486129,-1.3098572,,,,,,,,,,,,,,,,works,,,,,,,,,,,,,,,,,,,,,,,,,
node/1681589583,Nairobi,Enterprise Road,,Timsales Limited,,36.8480312,-1.310238,,,,,,,,,,,,,,,,works,,,,,,,,,,,,,,,,,,,,,,,,,
node/1681589588,Nairobi,Enterprise Road,,Timsales Limited,,36.8490968,-1.3103204,,,,,,,,,,,,,,,,works,,,,,,,,,,,,,,,,,,,,,,,,,
node/1681589617,Nairobi,Enterprise Road,,Ufundi Paper Ltd,,36.847904,-1.3094023,,,,,,,,,,,,,,,,works,,,,,,,,,,,,,,,,,,,,,,,,,
node/1681692365,,,,Chemid,,36.8691572,-1.3075241,,,,,,,,,,,,,,,,works,,,,,,,,,,,,,,,,,,,,,,,,,
node/1681692406,,,,Print Pak Company,,36.8557116,-1.3033468,,,,,,,,,,,,,,,,works,,,,,,,,,,,,,,,,,,,,,,,,,
node/1681692520,,,,Sun Flag Textiles,,36.8689592,-1.3085896,,,,,,,,,,,,,,,,works,,,,,,,,,,,,,,,,,,,,,,,,,
node/1681692527,,,,Timber yard,,36.8559677,-1.3152334,,,,,,,,,,,,,,,,works,,,,,,,,,,,,,,,,,,,,,,,,,
node/1683119566,,,,Industiries,,36.8631228,-1.3326281,,,,,,,,,,,,,,,,works,,,,,,,,,,,,,,,,,,,,,,,,,
node/2405829026,Nairobi,Baba Dogo Road,,Kenafric Industries Limited,,36.8805221,-1.245419,,,,,food,,https://www.kenafricind.com/,,,,,,,,,works,,,,,,,,,,,+254 730 700 000,,,623,,,,info@kenafricind.com,,,,,,,
node/2405836298,,,,Sihoho engineering workshop,,36.8946475,-1.2400502,,,,,,,,,,,,,,,,works,,,,,,,,,,,,,,,,,,,,,,,,,
node/2405885973,,,,Danfahi Welding,,36.8830749,-1.246858,,,,,,,,,,,,,,,,works,,,,,,,,,,,,,,,,,,,,,,,,,
node/3738823770,,,,Kenya Literature Bureau,,36.8301646,-1.3243144,,,,,,,,,,,,,,,,works,,,,,,,,,,,,,,,,,,,,,,,,,
node/4970109983,Nairobi,Lokitaung Road,,Specialised Towel Manufacturers,,36.859425,-1.3063727,,,,Specialised Towel Manufacturers Ltd,towels;blankets;bedsheets;bedcovers;bath_towels;bath_mats;cellular_blankets;hospital_linen;hand_towels;face_towels;counterpane_bedcovers,,,,,,,,,,,works,,,,,,,,,15,,,,,507,,,,,,,,,,,
node/5343419649,,,,Pan African Agribusiness& Agroindustry Consortium,,36.8490977,-1.2343675,,,,,,,,,,,,,,,,,,,,,,,,,,,,,,,,,,,agrarian,,,,,,
node/5361484362,,,,Lugoda Tea Factory,,36.6892323,-1.3096191,,,,,,,,,,,,,,,,works,,,,,,,,,"Pepo Ln, Nairobi",,,,,,,,,,,,,,,,
node/5430679506,,,,Plaspak,,36.8653774,-1.3233731,,,,Dispossable plastics,,,,,,,,,,,,works,,,,,,,,,,,,,,,,,,,,,,,,,
node/6207697435,Nairobi,Maasai Road,,Simbisa Brands Kenya,,36.8676197,-1.3350729,,,,,,,https://simbisakenya.co.ke/,,,,,,,,,works,,,,,,,,,,,+254 720993000,,,100,,,,,,,,,,,
node/6208217285,Nairobi,Airport North Road,,Alpha Grain Millers,,36.8896604,-1.3292638,,,,,,,,,,,,,,,,works,,,,,,,,,,,,,,,,,,,,,,,,,
node/6208217644,Nairobi,Mombasa Road,,AutoXpress X-tread Retreading Factory and TMS Division,,36.900747,-1.3461402,,,,,,,,,,,,,,,,,,,,,,,,,,,,,,,,,,,tyres,,,,,,
node/7008108312,Nairobi,Kiambu Road,,Saj Ceramics,,36.8423118,-1.2302775,,,,,,,,,,,,,,,,works,,,,,,,,,,,,,,,,,,,,,,,,,
node/7550819227,Nairobi,Lokitaung Road,,Ashut Plastics Ltd Head Office,,36.8580291,-1.3055551,,,,,,,https://ashutplastics.com/,,,,,,,,,works,,,,,,,,,,,+254 737552222,,,507,,,,,,,,,,,
node/7550819228,,,,ASL PACKAGING LIMITED,,36.8797916,-1.3283885,,,,,,,,,,,,,,,,works,,,,,,,,,,,,,,,,,,,,,,,,,
node/7550819229,,,,ASL LTD - Trading Division,,36.8391957,-1.2973367,,,,,,,,,,,,,,,,works,,,,,,,,,,,,,,,,,,,,,,,,,
node/7550819230,,,,Aquawetts Enterprises Ltd,,36.8581885,-1.3194764,,,,,,,,,,,,,,,,works,,,,,,,,,,,,,,,,,,,,,,,,,
node/7550819231,,,,Astral pipes Ltd,,36.8675648,-1.3344744,,,,,,,,,,,,,,,,works,,,,,,,,,,,,,,,,,,,,,,,,,
node/7550869004,,,,Basco Products (K) LTD,,36.9038923,-1.320765,,,,,,,,,,,,,,,,works,,,,,,,,,,,,,,,,,,,,,,,,,
node/7550869005,,,,Bhachu Industries LTD,,36.8705773,-1.3228577,,,,,,,,,,,,,,,,works,,,,,,,,,,,,,,,,,,,,Bachu Factory,,,,,
node/7550869006,,,,Bio Food Products LTD,,36.8623205,-1.3276311,,,,,,,,,,,,,,,,works,,,,,,,,,,,,,,,,,,,,,,,,,
node/7550986520,,,,BRASS & ALLIED WORKS LTD,,36.8449311,-1.3102118,,,,,,,,,,,,,,,,works,,,,,,,,,,,,,,,,,,,,,,,,,
node/7550986521,,,,BUILDPUS MASTERS LTD,,36.8178275,-1.2597736,,,,,,,,,,,,,,,,works,,,,,,,,,,,,,,,,,,,,,,,,,
node/7553514534,,,,RELIABLE ELECTRICAL ENGINEERS (NRB) LTD.,,36.8635926,-1.3254725,,,,,,,,,,,,,,,,works,,,,,,,,,,,,,,,,,,,,,,,,,
node/7553550837,,,,MARUTI STEEL LTD,,36.8391189,-1.2991231,,,,,,,,,,,,,,,,works,,,,,,,,,,,,,,,,,,,,,,,,,
node/7553550839,,,,MEGH CUSHIONS INDUSTRIES,,36.8658132,-1.3201575,,,,,,,,,,,,,,,,works,,,,,,,,,,,,,,,,,,,,,,,,,
node/7553576214,,,,Millenium Steel Ltd,,36.8487842,-1.3114187,,,,,,,,,,,,,,,,works,,,,,,,,,,,,,,,,,,,,,,,,,
node/8120889600,,,,Radheshyam Transport (Kwa Muindi),,36.9056416,-1.2989552,,,,,,,,,,,,,,,,works,,,,,,,,,,,,,,,,,,,,,,,,,
node/8120896490,,,,Enrich Equipment Ltd.,,36.9027777,-1.2990321,,,,,,,,,,,,,,,,works,,,,,,,,,,,,,,,,,,,,,,,,,
node/8168727841,,,,KENSALT LTD -NAIROBI BRANCH,,36.9212607,-1.3138437,,,,,,,,,,,,,,,,works,,,,,,,,,,,,,,,,,,,,,,,,,
node/9021314505,,,,OSHO Chemical Industries Ltd,,36.8721173,-1.3079242,,,,,,,https://www.oshochem.com,,,,,,,,,works,,,,,,,,,,,+254 0711 045000;+254 0732 167000;+254 020 3912000,,,,,,,oshochem@oshochem.com,,,https://www.facebook.com/OshoChem,https://twitter.com/Oshochem,,,
node/10048755717,,,,The Flower Factory,,36.7039364,-1.3228161,,,,,,,,,,,,,,,,,,,,,,,,,,,,,,,,,,,florist,,,,9/24/2022,,
node/10117886034,,,,Chandaria Industries Limited,,36.8850176,-1.2443729,,,,,,,,,,,,,,,,works,,,,,,,,,,,,,,,,,,,,,,,,,
node/11681682519,Nairobi,Runyenjes Road,,Pegler Paints HQ,,36.8701594,-1.3045378,,,,Pegler Paints HQ,paints;decorative,,https://peglerpaints.com/,,,,,,,,,works,,,,,,,,,3,,+254 714 888 000,,,,,,,info@peglerpaints.co.ke,,,,,,,
node/12122222501,Nairobi,Nvanera Road,,Ashut Engineers Ltd Head Office,,36.8603485,-1.3100103,,,,,,,https://ashut.com/,,,,,,,,,works,,,,,,,,,,,+254 715 416844,,,507,,,,,,,,,,,
node/12249850944,,,,Sana angels industry,,36.8628527,-1.3098764,,,,,,,,factory,,,,,,,survey,,,,,,,,,,,,,,,,,,,,,,,,,operational,private
node/12343770477,,,industrial,Scrap Yard(Metal Waste),,36.9277772,-1.1819836,,,,Kenyatta University,,,,scrap_yard,,,,,,,,,,,,,,,,,,,,,,,,,,,,,,,,,
